id_inst,zzzsSt,name,unit,address,post,city,municipalityPart,municipality,lat,lon,phone,website
0,4254688,"0.4, ZOBOZDRAVSTVENE STORITVE D.O.O.",OE LJUBLJANA,Polhov Gradec 13,1355 Polhov Gradec,Polhov Gradec,Polhov Gradec,Dobrova-Polhov Gradec,46.06521,14.31457,,
1,6387872,1A-DENT ZOBJE ZOBOZDRAVSTVENA DEJAVNOST D.O.O.,IZPOSTAVA RADLJE OB DRAVI,Podgorje 64A,2381 Podgorje pri Slovenj Gradcu,Podgorje,Podgorje,Slovenj Gradec,46.48078,15.07995,(02) 876 48 64,https://www.zdravniki-zobozdravniki.net/clan/Mateja-GORJUP-MEH-1539/
2,4483473,2LEVA DENTALNA MEDICINA IN MEDIJI D.O.O.,OE KRANJ,Vrečkova ulica 3,4000 Kranj,Kranj,Planina,Kranj,46.23503,14.36105,,http://www.ordinacija-belehar.si
3,2780239,32 D.O.O. ZDRAVSTVO IN ZOBOZDRAVSTVO,IZPOSTAVA GROSUPLJE,Ulica bratov Babnik 10,1000 Ljubljana,Ljubljana,Četrtna skupnost Dravlje,Ljubljana,46.07645,14.466,,
4,4290312,"32BISEROV, D.O.O., ZOBNA AMBULANTA ALENKA GRAHEK MIHOVEC, DR. DENT. MED.",OE LJUBLJANA,Gorenja vas - Reteče 58B,1215 Medvode,Gorenja vas - Reteče,Reteče - Gorenja vas,Škofja Loka,46.15128,14.38319,059 059 001,
5,507343,"A DENT, TRGOVINA IN STORITVE, D.O.O.",IZPOSTAVA SEŽANA,Partizanska cesta 63,6210 Sežana,Sežana,Sežana,Sežana,45.70583,13.86426,05 734 13 03,https://adent.si/
6,5660079,A-DENS ZOBOZDRAVSTVENE STORITVE D.O.O.,OE NOVO MESTO,Trg 27,8216 Mirna Peč,Mirna Peč,,Mirna Peč,45.85842,15.08385,07 307 85 19,http://www.zobna-ambulanta.com
7,3269561,"A. MLINAR, ZOBOZDRAVSTVO, PROJEKTIRANJE IN DRUGE STORITVE D.O.O.",OE KOPER,Frenkova ulica 7,6280 Ankaran - Ancarano,Ankaran,,Ankaran,45.58296,13.73466,040 827 521,http://www.dcmlinar.si
8,3079961,"A.S. LINEA, TRGOVINA, STORITVE, D.O.O.",IZPOSTAVA RADOVLJICA,Pot na Lisice 4,4260 Bled,Bled,Bled,Bled,46.36823,14.1308,,http://zobozdravstvo-bled.si
9,2831490,"AERODENT, ZOBOZDRAVSTVO, D.O.O.",IZPOSTAVA VRHNIKA,Brigadirska cesta 16,1360 Vrhnika,Verd,Verd,Vrhnika,45.96273,14.30258,,
10,3275353,AHLIN DRAGOTIN - SPLOŠNA AMBULANTA,IZPOSTAVA KAMNIK,Novi trg 26A,1241 Kamnik,Kamnik,Novi trg,Kamnik,46.22082,14.61321,01 839 15 98,https://www.zdravniki-zobozdravniki.net/clan/Dragotin-AHLIN-96/
11,3122512,AL MAHDAWI FUAD - SPECIALIST SPLOŠNE MEDICINE,IZPOSTAVA ŠMARJE PRI JELŠAH,Celjska cesta 7,3250 Rogaška Slatina,Rogaška Slatina,Rogaška Slatina,Rogaška Slatina,46.23915,15.63321,(03) 819 21 80,https://www.zdravniki-zobozdravniki.net/clan/Fuad-AL-MAHDAWI-1265/
12,4729449,ALENKA IVANČIČ DR. DENT. MED. ZASEBNA ZOBNA ORDINACIJA,OE LJUBLJANA,Komenskega ulica 19,1000 Ljubljana,Ljubljana,Četrtna skupnost Center,Ljubljana,46.05341,14.51253,01/434 49 04,http://www.ivancici.si/
13,4224371,"ALENKA NADLER ŽAGAR, DR. MED. SPLOŠNA MEDICINA",IZPOSTAVA RIBNICA,Majnikova ulica 1,1310 Ribnica,Ribnica,Ribnica,Ribnica,45.74238,14.72596,(01) 836 12 68,https://www.zdravniki-zobozdravniki.net/clan/Alenka-NADLER-ZAGAR-937/
14,4221509,AMBROŽ MIHELČIČ MAJDA - ZASEBNA ZDRAVNICA,IZPOSTAVA KAMNIK,Novi trg 26,1241 Kamnik,Kamnik,Novi trg,Kamnik,46.22139,14.61328,,https://www.zdravniki-zobozdravniki.net/clan/Majda-AMBROZ-MIHELCIC-950/
15,2954938,AMBROŽIČ - KOROŠEC ANDREJA - DEJAVNOST ZOBOZDRAVSTVA ODRASLIH,IZPOSTAVA VELENJE,Cesta bratov Mravljakov 13,3320 Velenje,Velenje,Šmartno,Velenje,46.36272,15.11965,03 897 31 60,https://cakalnedobe.ezdrav.si/zdravstvena-ustanova/ambrozic-korosec-andreja-dejavnost-zobozdravstva-
16,3512640,AMBROŽIČ SELINA - ZASEBNA ZOBNA ORDINACIJA,IZPOSTAVA AJDOVŠČINA,Tovarniška cesta 2B,5270 Ajdovščina,Ajdovščina,Krajevna skupnost Ajdovščina,Ajdovščina,45.88681,13.90359,05 368 00 80,https://www.zdravniki-zobozdravniki.net/clan/Selina-AMBROZIC-912/
17,4196582,AMBULANTA DEMŠAR D.O.O.,IZPOSTAVA ŠKOFJA LOKA,Visoko pri Poljanah 5,4220 Škofja Loka,Visoko pri Poljanah,Log,Škofja Loka,46.12637,14.21316,04 513 88 88,http://www.ambulanta-demsar.si
18,7061535,"AMBULANTA DOLENC, DRUŽBA ZA ZDRAVSTVENE STORITVE, IZOBRAŽEVANJE IN SVETOVANJE, D.O.O.",IZPOSTAVA ŠKOFJA LOKA,Stara cesta 10,4220 Škofja Loka,Škofja Loka,Kamnitnik,Škofja Loka,46.16618,14.31281,,http://www.ambulanta-dolenc.si
19,4671180,AMBULANTA DRUŽINSKE MEDICINE EMIR ČOLIĆ DR.MED.SPEC.,OE LJUBLJANA,Litijska cesta 161,1000 Ljubljana,Ljubljana,Četrtna skupnost Golovec,Ljubljana,46.04539,14.56288,05 907 57 50,https://zdravniki-zobozdravniki.net/Clan/Emir-COLIC-1202
20,4156067,"AMBULANTA DRUŽINSKE MEDICINE JANA GOLUB, DR. MED.",IZPOSTAVA SLOVENSKA BISTRICA,Partizanska ulica 30,2310 Slovenska Bistrica,Slovenska Bistrica,Pohorski odred,Slovenska Bistrica,46.39552,15.56233,(02) 818 17 22,https://www.zd-sb.si/sl/ambulante/ambulanta-druzinske-medicine-jana-golub-drmed
21,7651182,AMBULANTA DRUŽINSKE MEDICINE NELI GROSEK,OE LJUBLJANA,Ulica Vladimirja Dolničarja 11,1356 Dobrova,Dobrova,Dobrova,Dobrova-Polhov Gradec,46.05355,14.41726,040 314 410,https://www.grosek.net/
22,7711778,AMBULANTA DRUŽINSKE MEDICINE SAŠO ŽITNIK,OE MARIBOR,Knafelčeva ulica 31,2000 Maribor,Maribor,Nova vas,Maribor,46.53891,15.63321,02 320 00 09,https://zdravniki-zobozdravniki.net/Clan/Saso-ZITNIK-1552
23,8016266,AMBULANTA DRUŽINSKE MEDICINE URŠKA FERK,OE MARIBOR,Sladki Vrh 5,2214 Sladki Vrh,Sladki Vrh,Sladki Vrh,Šentilj,46.69756,15.7368,02 645 33 70,http://ambulantaferk.si/
24,6049984,"AMBULANTA DRUŽINSKE MEDICINE, ADM MARN VODOVNIK D.O.O.",IZPOSTAVA ŠKOFJA LOKA,Sv. Duh 162,4220 Škofja Loka,Sv. Duh,Sveti Duh,Škofja Loka,46.18482,14.32198,04 510 17 77,http://www.ambulanta-zelezniki.si
25,4491357,"AMBULANTA DRUŽINSKE MEDICINE, NINA MILEUSNIĆ DR. MED. SPEC. DRUŽ. MED.",IZPOSTAVA PTUJ,Dornava 135A,2252 Dornava,Dornava,,Dornava,46.43405,15.95139,(02) 755 00 40,https://zdravniki-zobozdravniki.net/Clan/Nina-MILEUSNIC-1107
26,6238146,"AMBULANTA IGOR MIHAJLOVIĆ, ZDRAVSTVENE IN DRUGE STORITVE, D.O.O.",IZPOSTAVA RADLJE OB DRAVI,Partizanska ulica 38,2360 Radlje ob Dravi,Radlje ob Dravi,Radlje ob Dravi,Radlje ob Dravi,46.61458,15.22869,(02) 877 08 12,https://dzdravje.si/igormihajlovic/
27,5746963,"AMBULANTA JERKOVIĆ, ZDRAVSTVENE STORITVE IN SVETOVANJE, D.O.O.",IZPOSTAVA PTUJ,Osojnikova cesta 9,2250 Ptuj,Ptuj,"Četrt Center,Jadranska ulica 6",Ptuj,46.42061,15.87558,(02) 748 10 36,https://zdravniki-zobozdravniki.net/Clan/Branko-JERKOVIC-1408
28,3112672,AMBULANTA KOŠIR D.O.O.,IZPOSTAVA ŠKOFJA LOKA,Podlubnik 307,4220 Škofja Loka,Škofja Loka,Stara Loka - Podlubnik,Škofja Loka,46.17254,14.29175,04 510 17 17,http://www.ambulanta-kosir.si/index.html
29,7725009,"AMBULANTA KUS, AMBULANTA DRUŽINSKE MEDICINE, D.O.O.",OE LJUBLJANA,Prijateljeva ulica 2,1000 Ljubljana,Ljubljana,Četrtna skupnost Center,Ljubljana,46.04409,14.5084,051 36 33 66,http://www.ambulantakus.si
30,7214841,"AMBULANTA LAH, D.O.O., AMBULANTA SPLOŠNE IN DRUŽINSKE MEDICINE",IZPOSTAVA ŠKOFJA LOKA,Bizantova cesta 14,1215 Medvode,Medvode,Preska - Žlebe,Medvode,46.13248,14.41437,04 518 05 00,https://www.ambulantalah.si/
31,6997488,"AMBULANTA POLHEK, PEDIATRIČNA AMBULANTA, D.O.O.",IZPOSTAVA ŠKOFJA LOKA,Praproče 3,1355 Polhov Gradec,Praproče,Polhov Gradec,Dobrova-Polhov Gradec,46.05929,14.295,"04 620 88 70, 04 620 88 88",http://www.ambulantapolhek.si
32,6178252,"AMBULANTA POLJČANE, AMBULANTA SPLOŠNE IN DRUŽINSKE MEDICINE, D.O.O.",IZPOSTAVA SLOVENSKA BISTRICA,Bistriška cesta 62,2319 Poljčane,Poljčane,,Poljčane,46.3129,15.57823,(02) 802 52 90,https://zdravniki-zobozdravniki.net/Clan/Midhat-PERENDA-868
33,5649502,"AMBULANTA ROSIČ, ZDRAVSTVENE STORITVE IN SVETOVANJE, D.O.O.",IZPOSTAVA PTUJ,Pot v toplice 9,2250 Ptuj,Ptuj,"Četrt Breg-Turnišče,Mestni trg 1",Ptuj,46.42154,15.85575,02 788 52 00,http://www.ambulanta-rosic.si
34,4155439,"AMBULANTA SPLOŠNE IN DRUŽINSKE MEDICINE DAMIJANA ŠINIGOJ, DR.MED., SPEC. SPLOŠNE MEDICINE",OE NOVA GORICA,Rejčeva ulica 4,5000 Nova Gorica,Nova Gorica,Krajevna skupnost Nova Gorica,Nova Gorica,45.95794,13.64553,,https://www.damijanasinigoj.si/o_ordinaciji/urnik/
35,4155408,"AMBULANTA SPLOŠNE IN DRUŽINSKE MEDICINE PRIM. MAJA PAVLIN KLEMENC, DR.MED.,SPEC. SPLOŠNE MEDICINE",OE NOVA GORICA,Rejčeva ulica 4,5000 Nova Gorica,Nova Gorica,Krajevna skupnost Nova Gorica,Nova Gorica,45.95794,13.64553,,http://drmaja.com
36,4103757,"AMBULANTA SPLOŠNE MEDICINE ALENKA ALEKSEJEV, DR. MED., SPEC. SPL. MED.",OE MARIBOR,Knafelčeva ulica 31,2000 Maribor,Maribor,Nova vas,Maribor,46.53891,15.63321,02 320 00 07,https://www.zdravniki-zobozdravniki.net/clan/Alenka-ALEKSEJEV-1171/
37,4491542,"AMBULANTA SPLOŠNE MEDICINE EVA MEJAČ DR. MED., SPEC. SPLOŠNE MEDICINE",IZPOSTAVA SLOVENSKA BISTRICA,Mladinska ulica 12,2314 Zgornja Polskava,Zgornja Polskava,Zgornja Polskava,Slovenska Bistrica,46.42702,15.61079,(02) 803 61 93,http://www.ambulantamejac.si/
38,4350649,"AMBULANTA SPLOŠNE MEDICINE JURE BIĆANIĆ, DR. MED., SPEC. SPL. MED.",IZPOSTAVA SLOVENSKE KONJICE,Kovaška cesta 22,3214 Zreče,Zreče,Zreče,Zreče,46.37959,15.38343,03 752 13 40,https://www.zdravniki-zobozdravniki.net/clan/Jure-BICANIC-1016/
39,4345255,"AMBULANTA SPLOŠNE MEDICINE MAGDA ČEČ DOLES DR. MED, SPEC. SPL. MED.",IZPOSTAVA POSTOJNA,Prečna ulica 2,6230 Postojna,Postojna,Postojna,Postojna,45.77205,14.21042,05 905 02 67,https://www.zdravniki-zobozdravniki.net/clan/Magda-CEC-DOLES-1044/
40,4346705,"AMBULANTA SPLOŠNE MEDICINE MARTA TETIČKOVIČ RANFL, DR. MED. SPEC.",IZPOSTAVA ORMOŽ,Ulica dr. Hrovata 4,2270 Ormož,Ormož,Ormož,Ormož,46.40724,16.14333,040 290 699,https://zdravniki-zobozdravniki.net/Clan/Marta-TETICKOVIC-RANFL-1062
41,4347302,"AMBULANTA SPLOŠNE MEDICINE MATEJA GUŠTIN, DR. MED., SPEC. SPL. MED.",OE NOVO MESTO,Trg 27,8216 Mirna Peč,Mirna Peč,,Mirna Peč,45.85842,15.08385,07 307 87 90,http://www.zdravniki-zobozdravniki.net/clan/Mateja-GUSTIN-1217/
42,4346432,"AMBULANTA SPLOŠNE MEDICINE TIBOR IBRIŠIMOVIĆ DR. MED., SPEC.",IZPOSTAVA ORMOŽ,Ulica dr. Hrovata 4,2270 Ormož,Ormož,Ormož,Ormož,46.40724,16.14333,(02) 741 09 40,https://ezdravnik.si/zdravnik/ibrisimovic-tibor/
43,8255715,"AMBULANTA SPLOŠNE MEDICINE, ALENKA SIMONIČ S.P.",IZPOSTAVA ORMOŽ,Ulica dr. Hrovata 4,2270 Ormož,Ormož,Ormož,Ormož,46.40724,16.14333,,https://www.ambulantasimonic.com/
44,6188458,"AMBULANTA STRAŽA, SPLOŠNA ZDRAVSTVENA DEJAVNOST, D.O.O.",OE NOVO MESTO,Ulica talcev 17,8351 Straža pri Novem mestu,Straža,,Straža,45.78181,15.07112,07 384 73 10,http://www.ambulanta-straza.eu
45,5636453,"AMBULANTA TOMINC, ZDRAVSTVENA DEJAVNOST, D.O.O.",IZPOSTAVA PTUJ,Pot v toplice 9,2250 Ptuj,Ptuj,"Četrt Breg-Turnišče,Mestni trg 1",Ptuj,46.42154,15.85575,(02) 787 08 06,"https://s-tominc.si/, https://www.b-tominc.si/"
46,4417834,"AMBULANTA VITA, DRUŽINSKA MEDICINA, D.O.O.",IZPOSTAVA TRŽIČ,Blejska cesta 10,4290 Tržič,Tržič,Tržič - mesto,Tržič,46.36361,14.30654,,
47,4709079,"AMBULANTA ZA OTROKE IN ŠOLARJE PEDENJPED, ZDRAVSTVENE IN DRUGE STORITVE,D.O.O.",IZPOSTAVA LENART,Maistrova ulica 22,2230 Lenart v Slov. goricah,Lenart v Slov. goricah,Lenart,Lenart,46.57734,15.82896,(02) 729 18 41,https://www.zdravniki-zobozdravniki.net/clan/Bernarda-VOGRIN-1111/
48,5105267,"AMBULANTA ZA OTROKE IN ŠOLARJE ŽIVŽAV, D.O.O.",OE MURSKA SOBOTA,Kocljeva ulica 10,9000 Murska Sobota,Murska Sobota,Center,Murska Sobota,46.66002,16.16316,,http://zdravniki-zobozdravniki.net misleta ternar mira
49,5689022,"AMBULANTA ZA VSE GENERACIJE, ZDRAVSTVENE STORITVE IN SVETOVANJE, D.O.O.",IZPOSTAVA PTUJ,Potrčeva cesta 15,2250 Ptuj,Ptuj,"Četrt Center,Jadranska ulica 6",Ptuj,46.42472,15.87653,(02) 746 76 01,https://www.zdravniki-zobozdravniki.net/clan/Lidija-LETONJA-JAUSOVEC-667/
50,3702896,"AMBULANTA ŠUBIC, ZASEBNA ZDRAVSTVENA DEJAVNOST, D.O.O.",IZPOSTAVA ŠKOFJA LOKA,Stara cesta 10,4220 Škofja Loka,Škofja Loka,Kamnitnik,Škofja Loka,46.16618,14.31281,04 515 11 21,https://www.ambulantasubic.si/
51,5561015,"AMIGDALA, DRUŽBA ZA ZDRAVSTVENE, DRUGE STORITVE IN SVETOVANJE, D.O.O.",IZPOSTAVA LENART,Radehova 5C,2230 Lenart v Slov. goricah,Radehova,Lenart,Lenart,46.56767,15.84591,02 729 18 31,https://www.amigdala.si/
52,3125064,ANDERLE ALOJZIJA - ZASEBNA ORDINACIJA ZA GINEKOLGIJO IN PORODNIŠTVO,IZPOSTAVA RADOVLJICA,Kopališka cesta 7,4240 Radovljica,Radovljica,Radovljica,Radovljica,46.34702,14.17201,,http://www.ordinacija-anderle.si
53,2907488,ANDREJ DERNIKOVIČ - DOKTOR MEDICINE,IZPOSTAVA IZOLA,Ulica oktobrske revolucije 11,6310 Izola - Isola,Izola,Haliaetum,Izola,45.53464,13.66078,05 640 35 63,https://dzdravje.si/derandr/
54,6527879,ANDREJA BORINC BEDEN - ZASEBNA ZDRAVSTVENA DELAVKA,IZPOSTAVA DOMŽALE,Zoranina ulica 3,1234 Mengeš,Mengeš,,Mengeš,46.16207,14.571,01 729 10 30,https://ezdravnik.si/zdravnik/andreja-borinc-beden/
55,816804,"ANDROMEDA, RAČUNALNIŠKI INŽENIRING IN TRGOVINA, D.O.O.",OE CELJE,Cesta v Zadobrovo 12,3000 Celje,Trnovlje pri Celju,Trnovlje,Celje,46.25725,15.29632,041 446 623,https://www.zdravniki-zobozdravniki.net/clan/Irena-ZAVODNIK-1273/
56,3957750,"ANJA TROBEC, DR.DENT.MED. - ZASEBNA ZOBNA AMBULANTA",IZPOSTAVA ŠENTJUR PRI CELJU,Cesta Leona Dobrotinška 5,3230 Šentjur,Šentjur,Šentjur-mesto,Šentjur,46.21421,15.39394,03 749 04 70,http://www.zobozdravnica-anjatrobec.com
57,6124094,ANKA PERPAR - BELI DENT ZOBNA ORDINACIJA,IZPOSTAVA GROSUPLJE,Sokolska ulica 5,1295 Ivančna Gorica,Ivančna Gorica,Ivančna Gorica,Ivančna Gorica,45.93826,14.8047,,http://www.slovenski-zobozdravniki.si/anka-perpar
58,3568571,"APEKS, KARDIOLOGIJA IN ZOBOZDRAVSTVO, D.O.O.",IZPOSTAVA RADOVLJICA,Gorenjska cesta 8,4240 Radovljica,Radovljica,Radovljica,Radovljica,46.34202,14.17349,,
59,3961188,"APEX-T.A ZOBOZDRAVSTVO, STORITVE IN TRGOVINA D.O.O.",IZPOSTAVA HRASTNIK,Novi dom 11,1430 Hrastnik,Hrastnik,Rudnik,Hrastnik,46.1403,15.08513,03 565 44 61,https://apex-ta.si/
60,3006622,"ARISTOTEL, ZDRAVSTVENI CENTER D.O.O.",OE KRŠKO,Ulica Ilije Gregoriča 18A,8270 Krško,Krško,Krško,Krško,45.9589,15.50201,07 49 03 000,https://www.aristotel.si/
61,5758164,"AS.MED, DRUŽBA ZA ZDRAVO ŽIVLJENJE D.O.O.",OE MURSKA SOBOTA,Kocljeva ulica 10,9000 Murska Sobota,Murska Sobota,Center,Murska Sobota,46.66002,16.16316,02 526 11 44,https://dzdravje.si/asmed/
62,4574404,"ATELJE D, ZOBOZDRAVSTVO, STORITVE IN SVETOVANJE, D.O.O.",OE MARIBOR,Koroška cesta 113C,2000 Maribor,Maribor,Koroška vrata,Maribor,46.56093,15.62844,(02) 252 75 74,https://www.cakalnedobe.si/ambulante/atelje-d-zobozdravstvo-storitve-in-svetovanje-d-o-o
63,617685,BABIT ZOBOZDRAVSTVENI CENTER D.O.O.,OE LJUBLJANA,Kolezijska ulica 25,1000 Ljubljana,Ljubljana,Četrtna skupnost Trnovo,Ljubljana,46.04145,14.4975,(01) 283 61 70,https://www.babit.si/
64,3454818,BAKLAN BRIGITA - ZASEBNA AMBULANTA SPLOŠNE MEDICINE,IZPOSTAVA PTUJ,Markovci 43,2281 Markovci,Markovci,,Markovci,46.3943,15.93041,(02) 788 82 10,https://www.zdravniki-zobozdravniki.net/clan/Brigita-BAKLAN-692/
65,3096695,BAN-FRIŠČIČ GORDANA - DOKTOR STOMATOLOGIJE,IZPOSTAVA IDRIJA,Ulica Otona Župančiča 3,5280 Idrija,Idrija,Idrija,Idrija,46.0022,14.03036,,
66,3122986,BANKO MILAN - ZASEBNA SPLOŠNA AMBULANTA,IZPOSTAVA DOMŽALE,Mestni trg 2,1230 Domžale,Domžale,Domžale - Slavka Šlandra,Domžale,46.13975,14.59617,01 724 52 34,https://ezdravnik.si/zdravnik/milan-banko/
67,579548,"BARSOS-MC, ZDRAVSTVENE STORITVE D.O.O.",OE LJUBLJANA,Gregorčičeva ulica 11,1000 Ljubljana,Ljubljana,Četrtna skupnost Center,Ljubljana,46.04822,14.50041,,https://barsos.si/
68,3438973,BARTOLIĆ-MARTINEZ ŽELJKA - ZASEBNA ZOBNA AMBULANTA,IZPOSTAVA PTUJ,Cirkulane 28,2282 Cirkulane,Cirkulane,,Cirkulane,46.34593,15.99901,(02) 761 04 73,https://www.cakalnedobe.si/ambulante/bartolic-martinez-zeljka-zasebna-zobna-ambulanta
69,3640828,BEIGOT FRANC - DEJAVNOST SPLOŠNE MEDICINE,OE MARIBOR,Slovenski trg 4,2352 Selnica ob Dravi,Selnica ob Dravi,,Selnica ob Dravi,46.5515,15.49303,(02) 671 04 11,https://www.ambulanta-selnica.si/sl/o-ambulanti/franc-beigot/
70,3208966,BENEDIČIČ NIKOLAJ - ORDINACIJA SPLOŠNE MEDICINE,IZPOSTAVA LITIJA,Partizanska pot 8A,1270 Litija,Litija,Mestna skupnost Litija,Litija,46.05389,14.83656,01 898 04 90,https://www.zdravniki-zobozdravniki.net/clan/Nikolaj-BENEDICIC-620/
71,3122128,BERANIČ STANISLAV - DOKTOR STOMATOLOGIJE,IZPOSTAVA SLOVENSKE KONJICE,Na vasi 11,3205 Vitanje,Vitanje,Trška skupnost Vitanje,Vitanje,46.38261,15.29604,03 577 50 43,https://www.zdravniki-zobozdravniki.net/clan/Stanislav-BERANIC-26/
72,3236185,BERNOT MARTINA - ZASEBNA AMBULANTA ZA OTROKE IN MLADINO,IZPOSTAVA KAMNIK,Novi trg 26,1241 Kamnik,Kamnik,Novi trg,Kamnik,46.22139,14.61328,01 831 86 37,http://www.zdravniki-zobozdravniki.net
73,4519040,BH AJA DRUŽBA ZA STORITVE IN SVETOVANJE D.O.O.,IZPOSTAVA SLOVENSKA BISTRICA,Trg svobode 26,2310 Slovenska Bistrica,Slovenska Bistrica,Dr. Jagodiča,Slovenska Bistrica,46.39244,15.57267,(02) 843 14 73,http://www.zobozdravstvo-bhaja.si/
74,6475639,"BIOZOBOZDRAVSTVO, ZOBOZDRAVSTVENE STORITVE D.O.O.",IZPOSTAVA RADOVLJICA,Prešernova ulica 8,4240 Radovljica,Radovljica,Radovljica,Radovljica,46.34525,14.17034,,https://www.zobozdravnik-bled.si/
75,3155933,BLAHA JASNA - ORDINACIJA SPLOŠNE MEDICINE,OE LJUBLJANA,Tbilisijska ulica 59,1000 Ljubljana,Ljubljana,Četrtna skupnost Vič,Ljubljana,46.03762,14.47887,01 256 15 73,https://www.zdravniki-zobozdravniki.net/clan/Jasna-BLAHA-29/
76,4540144,"BLAŽ KALAN, DR. DENT. MED., ZASEBNA ZOBNA ORDINACIJA",OE KRANJ,Gosposvetska ulica 10A,4000 Kranj,Kranj,Zlato polje,Kranj,46.24862,14.35322,04 208 24 13,
77,4718174,"BLAŽ KNEZ, DR. DENT. MED., ZOBNA ORDINACIJA",IZPOSTAVA POSTOJNA,Prečna ulica 2,6230 Postojna,Postojna,Postojna,Postojna,45.77205,14.21042,05 726 48 25,https://www.zdravniki-zobozdravniki.net/clan/Blaz-KNEZ-1199/
78,6289953,"BLIMED D.O.O., ZDRAVSTVENE STORITVE, SVETOVANJE IN IZOBRAŽEVANJE",IZPOSTAVA MOZIRJE,Podvrh 24,3330 Mozirje,Mozirje,Mozirje,Mozirje,46.33896,14.95551,(03) 839 13 80,https://blimed.si
79,5831052,"BOBNAR MOJCA DR. DENT. MED., ZASEBNA ZOBOZDRAVSTVENA ORDINACIJA",IZPOSTAVA ŠKOFJA LOKA,Frankovo naselje 51,4220 Škofja Loka,Škofja Loka,Trata,Škofja Loka,46.16964,14.32918,,http://www.zobozdravstvo-bobnar.si
80,5104660,"BODENT, ZOBOZDRAVSTVENE IN DRUGE STORITVE D.O.O.",OE MURSKA SOBOTA,Ulica ob igrišču 3,9226 Moravske Toplice,Moravske Toplice,Moravske Toplice,Moravske Toplice,46.68736,16.21683,,http://www.zobozdravniki-pomurja.si/profil/17/opis.html
81,4016493,BOKADENT ZOBOZDRAVSTVO IN ZOBOTEHNIŠTVO D.O.O.,OE RAVNE NA KOROŠKEM,Trg 58A,2391 Prevalje,Prevalje,,Prevalje,46.54639,14.91692,(02) 82 34 173,https://bokadent.si
82,2663127,BOLDAN JOŽICA - AMBULANTA SPLOŠNE MEDICINE,IZPOSTAVA KOČEVJE,Ljubljanska cesta 1A,1330 Kočevje,Kočevje,Kočevje-mesto,Kočevje,45.63986,14.85913,01 893 13 53,https://www.zdravniki-zobozdravniki.net/clan/Jozica-BOLDAN-1140/
83,3181438,BOLJKA DUŠA - ZOBNA ORDINACIJA,OE LJUBLJANA,Litijska cesta 43,1000 Ljubljana,Ljubljana,Četrtna skupnost Golovec,Ljubljana,46.04812,14.54356,01/548 01 05,http://www.slovenski-zobozdravniki.si/dusa-boljka
84,89582,BOLNIŠNICA ZA GINEKOLOGIJO IN PORODNIŠTVO KRANJ,OE KRANJ,Kidričeva cesta 38A,4000 Kranj,Kranj,Zlato polje,Kranj,46.24863,14.35402,04 208 28 00,https://www.bolnisnica-kranj.si/
85,751745,BOLNIŠNICA ZA ŽENSKE BOLEZNI IN PORODNIŠTVO POSTOJNA,IZPOSTAVA POSTOJNA,Prečna ulica 4,6230 Postojna,Postojna,Postojna,Postojna,45.77151,14.2102,05 700 07 25,http://www.bolnisnica-po.si
86,3122435,BOŠNIK - JURHAR FRANČIŠKA - DOKTOR STOMATOLOGIJE,IZPOSTAVA SLOVENJ GRADEC,Partizanska pot 16,2380 Slovenj Gradec,Slovenj Gradec,Center,Slovenj Gradec,46.50693,15.08202,(02) 884 10 33,https://www.cakalnedobe.si/ambulante/bosnik-jurhar-franciska
87,4463791,BP ZOBOZDRAVSTVENA IN ZDRAVSTVENA DEJAVNOST D.O.O.,IZPOSTAVA GORNJA RADGONA,Police 96,9250 Gornja Radgona,Police,KS ČREŠNJEVCI-ZBIGOVCI,Gornja Radgona,46.66371,15.96145,,http://www.zobozdravniki-pomurja.si/profil/2/opis.html
88,408096,BRANČURNIK DENT DENTALNO MEDICINSKI CENTER D.O.O.,OE RAVNE NA KOROŠKEM,Pri Brančurniku 10,2391 Prevalje,Prevalje,,Prevalje,46.54492,14.93243,(02) 823 10 83,https://brancurnikdent.si
89,3118399,BUDNA MAJDA - DOKTOR STOMATOLOGIJE,IZPOSTAVA VELENJE,Vodnikova cesta 1,3320 Velenje,Velenje,Velenje - desni breg,Velenje,46.36151,15.11636,(03) 897 20 50,http://www.majda-budna.si
90,5807207,"CASERMAN, ZASEBNA PEDIATRIČNA AMBULANTA, D.O.O.",IZPOSTAVA VRHNIKA,Cesta 6. maja 11,1360 Vrhnika,Vrhnika,Vrhnika Center,Vrhnika,45.96278,14.29358,01 755 48 32,http://moj-pediater.si
91,3208659,CHUM - ZIERER VESNA - ZOBNA AMBULANTA,OE MARIBOR,Vrbanska cesta 97,2351 Kamnica,Kamnica,Kamnica,Maribor,46.57321,15.61582,(02) 624 03 20,https://www.zdravniki-zobozdravniki.net/clan/Vesna-CHUM-ZIERER-668/
92,2990899,CIGLER MARIJA - DOKTOR STOMATOLOGIJE,IZPOSTAVA SLOVENJ GRADEC,Partizanska pot 16,2380 Slovenj Gradec,Slovenj Gradec,Center,Slovenj Gradec,46.50693,15.08202,(02) 882 12 02,https://ordinacijacigler.si/
93,3113738,CIMAN ROBERT - ZOBNA ORDINACIJA,OE NOVA GORICA,Ulica Gradnikove brigade 7,5000 Nova Gorica,Nova Gorica,Krajevna skupnost Nova Gorica,Nova Gorica,45.95843,13.64623,,https://www.zdravniki-zobozdravniki.net/clan/Robert-CIMAN-555/
94,2954711,COLARIĆ MARJAN - ZDRAVNIK SPLOŠNE MEDICINE,IZPOSTAVA SLOVENSKA BISTRICA,Bistriška cesta 62,2319 Poljčane,Poljčane,,Poljčane,46.3129,15.57823,(02) 802 59 97,https://zdravniki-zobozdravniki.net/Clan/Marjan-COLARIC-396
95,3434270,COLJA LOVŠIN BRANKA - ZASEBNA GINEKOLOŠKA ORDINACIJA,OE LJUBLJANA,Linhartova cesta 5,1000 Ljubljana,Ljubljana,Četrtna skupnost Bežigrad,Ljubljana,46.06405,14.50981,01 434 05 10,
96,820549,"CORONA DENTIS ZOBOZDRAVSTVENA DEJAVNOST, ZOBOTEHNIČNA DEJAVNOST IN TRGOVINA D.O.O.",OE MARIBOR,Pesnica pri Mariboru 42C,2211 Pesnica pri Mariboru,Pesnica pri Mariboru,Pesnica pri Mariboru,Pesnica,46.60846,15.67654,(02) 654 41 30,https://www.corona-dentis.si/
97,4107515,"CUSPIS ZOBOZDRAVSTVO, TRGOVINA IN OSTALE STORITVE D.O.O.",IZPOSTAVA PTUJ,Podgorci 48,2273 Podgorci,Podgorci,Podgorci,Ormož,46.42049,16.04944,(02) 764 00 74,https://www.cakalnedobe.si/ambulante/cuspis-d-o-o-pe-ambulanta-videm-pri-ptuju
98,3579790,CVELBAR JUDITA - ZASEBNA ZOBOZDRAVSTVENA ORDINACIJA,IZPOSTAVA VRHNIKA,Cesta 6. maja 11,1360 Vrhnika,Vrhnika,Vrhnika Center,Vrhnika,45.96278,14.29358,(01) 755 37 85,http://www.slovenski-zobozdravniki.si/judita-cvelbar
99,5189793,CYCLOPET RADIOFARMAKI IN DIAGNOSTIKA D.O.O.,OE LJUBLJANA,Martinčeva ulica 30,1000 Ljubljana,Ljubljana,Četrtna skupnost Dravlje,Ljubljana,46.07876,14.46871,01/437 01 61,http://www.zobest.si
100,3055940,DAVOR ŠTANFEL DR.DENT.MED.-ZASEBNA STOMATOLOŠKA ORDINACIJA,OE KOPER,Obrtniška ulica 30,6000 Koper - Capodistria,Koper,Škocjan,Koper,45.53069,13.73563,(05) 639 76 26,http://www.slovenski-zobozdraniki.si/davor-stanfel
101,3109703,DEBELAK SIMONA - ZOBOZDRAVSTVENA ORDINACIJA,OE KRANJ,Tekstilna ulica 17,4000 Kranj,Kranj,Primskovo,Kranj,46.24628,14.36588,,https://www.simona-debelak.si/
102,3858762,DEJAN EBENŠPANGER - ZOBNA ORDINACIJA,OE MURSKA SOBOTA,Lendavska ulica 18,9000 Murska Sobota,Murska Sobota,Center,Murska Sobota,46.6641,16.16828,02 532 15 98,http://www.zobozdravniki-pomurja.si
103,7477715,"DEJAN STOJANOV, DR.DENT.MED. ZASEBNI ZOBOZDRAVNIK",OE LJUBLJANA,Jezero 1,1352 Preserje,Jezero,Preserje,Brezovica,45.97634,14.41959,(01) 363 30 70,https://zobar.eu/
104,4223760,DENIS AČKO JARKOVIČ DR.DENT.MED. ZOBNA AMBULANTA,OE KOPER,Dellavallejeva ulica 3,6000 Koper - Capodistria,Koper,Koper - Center,Koper,45.5487,13.73094,05 664 72 31,https://www.zdravniki-zobozdravniki.net/clan/Denis-ACKO-JARKOVIC-964/
105,6884304,"DENIS DŽANKOVIĆ, DR.DENT.MED., ZASEBNA ZOBOZDRAVSTVENA ORDINACIJA",OE NOVO MESTO,Pod Cvingerjem 33,8350 Dolenjske Toplice,Dolenjske Toplice,,Dolenjske Toplice,45.75434,15.05436,07 393 75 00,http://www.d-dent.si
106,4343942,DENS BARLIČ ZOBOZDRAVSTVO D.O.O.,IZPOSTAVA BREŽICE,Pleteršnikova ulica 1,8250 Brežice,Brežice,Brežice,Brežice,45.90908,15.59631,(07) 499 22 08,https://www.dens-barlic.si/
107,8455936,"DENT MEDICO TERAN, ZOBOZDRAVSTVENE STORITVE, D.O.O.",OE KRANJ,Zgornje Duplje 101A,4203 Duplje,Zgornje Duplje,Duplje,Naklo,46.30397,14.29648,,
108,3715291,"DENTA B, ZOBOZDRAVSTVENA DEJAVNOST IN OSTALE STORITVE, D.O.O.",IZPOSTAVA ŠKOFJA LOKA,Podlubnik 341,4220 Škofja Loka,Škofja Loka,Stara Loka - Podlubnik,Škofja Loka,46.17432,14.29072,,http://ordinacija-denta-b.com
109,5664508,"DENTAL B, ZOBOZDRAVSTVENE, ZDRAVSTVENE IN DRUGE STORITVE, D.O.O.",OE MARIBOR,Cesta Osvobodilne fronte 44,2000 Maribor,Maribor,Pobrežje,Maribor,46.54946,15.66849,041 281 388,https://www.dental-b.si/
110,4370487,"DENTAL CENTER ZOBOZDRAVSTVO, TRGOVINA IN STORITVE D.O.O.",OE MARIBOR,Cankarjeva ulica 23A,2000 Maribor,Maribor,Ivan Cankar,Maribor,46.56374,15.65253,(02) 250 09 84,https://www.cakalnedobe.si/ambulante/dental-center-zobozdravstvo-trgovina-in-storitve-d-o-o
111,3746308,"DENTAL DESIGN, ZOBOZDRAVSTVENE IN ZOBOTEHNIČNE STORITVE, SVETOVANJE, UVOZ IN IZVOZ, D.O.O.",OE LJUBLJANA,Javorškova ulica 9,1315 Velike Lašče,Velike Lašče,,Velike Lašče,45.83502,14.63767,041/331 199,https://www.dentaldesign.si
112,4106949,DENTALCARE PREVENTIVNA IN OTROŠKA ZOBOZDRAVSTVENA DEJAVNOST D.O.O.,OE KRŠKO,Cesta krških žrtev 132C,8270 Krško,Krško,Krško,Krško,45.94307,15.48349,(07) 488 02 72,http://www.dentalcare.si/
113,803482,"DENTALEN - TERJAK, DRUŽBA ZA ZOBOZDRAVSTVENO DEJAVNOST D.O.O.",OE MARIBOR,Spodnji Slemen 11,2352 Selnica ob Dravi,Spodnji Slemen,,Selnica ob Dravi,46.56018,15.52055,(02) 252 68 57,https://www.cakalnedobe.si/ambulante/dentalen-terjak-druzba-za-zobozdravstveno-dejavnost-d-o-o
114,4553883,"DENTALNI ATELJE MATIJA BRVAR, DR. DENT. MED.",OE MARIBOR,Tomšičeva ulica 23,2000 Maribor,Maribor,Ivan Cankar,Maribor,46.56585,15.65337,(02) 250 83 61,http://dentalni-atelje.si/
115,4377667,DENTALNI CENTER DR. LAH KRAVANJA D.O.O.,IZPOSTAVA TOLMIN,Mala vas 56,5230 Bovec,Bovec,Bovec,Bovec,46.34016,13.55752,,https://mydentist.si
116,5738161,DENTALNI CENTER TATALOVIČ ZOBOZDRAVSTVO D.O.O.,OE KRŠKO,Cesta krških žrtev 112,8270 Krško,Krško,Krško,Krško,45.95115,15.48664,07 49 22 012,http://www.tatalovic.si/
117,5091710,"DENTALNI IN ESTETSKI STUDIO VB, ZOBOZDRAVSTVENE IN DRUGE ZDRAVSTVENE DEJAVNOSTI, D.O.O.",OE MARIBOR,Jezdarska ulica 7,2000 Maribor,Maribor,Magdalena,Maribor,46.55122,15.64209,(02) 320 58 66,https://dentalni-estetski.si/
118,4109013,DENTALNI STUDIO BARBARA ŠKRLJ GOLOB,IZPOSTAVA DOMŽALE,Ulica Ivana Pengova 20,1230 Domžale,Domžale,Domžale - Slavka Šlandra,Domžale,46.14446,14.59689,00 386 512 209 99,http://www dentalnistudio.com
119,5745940,"DENTALNI STUDIO MB, ZOBOZDRAVSTVENA AMBULANTA IN STORITVE MIHAELA BENKO, DR. DENT. MED., D.O.O.",OE MARIBOR,Gregorčičeva ulica 1,2230 Lenart v Slov. goricah,Lenart v Slov. goricah,Lenart,Lenart,46.57373,15.83203,040/ 336 066,http://www.drbenko.si/
120,317177,"DENTAMEDICA, TRGOVINA, ZOBOZDRAVSTVENE IN DRUGE STORITVE, D.O.O.",IZPOSTAVA SLOVENSKA BISTRICA,Ljubljanska cesta 80,2310 Slovenska Bistrica,Slovenska Bistrica,Pohorski odred,Slovenska Bistrica,46.38414,15.56447,(02) 818 53 33,https://www.cakalnedobe.si/ambulante/dentamedica-trgovina-zobozdravstvene-in-druge-storitve-d-o-o
121,3195712,"DENTART D.O.O., ZOBOZDRAVSTVENA DEJAVNOST",OE LJUBLJANA,Petkovškovo nabrežje 57,1000 Ljubljana,Ljubljana,Četrtna skupnost Center,Ljubljana,46.05204,14.51312,051 654 674,http://www.dentart.si/
122,444328,"DENTEC - ZDRAVSTVENE STORITVE, D.O.O. KOPER",OE KOPER,Dolinska cesta 17C,6000 Koper - Capodistria,Koper,Olmo-Prisoje,Koper,45.52901,13.73041,05 62 603 36,"http://www.zobozdravnik-koper.si,"
123,4669390,"DENTEX, ZOBOZDRAVSTVENE STORITVE, D.O.O.",OE LJUBLJANA,Cesta v Mestni log 55,1000 Ljubljana,Ljubljana,Četrtna skupnost Trnovo,Ljubljana,46.0362,14.48957,,http://www.dentex.si/
124,5091771,"DENTIKO, ZOBOZDRAVSTVENE IN DRUGE ZDRAVSTVENE DEJAVNOSTI, D.O.O.",OE MARIBOR,Radvanjska cesta 134,2000 Maribor,Maribor,Radvanje,Maribor,46.53554,15.62451,(02) 480 56 14,http://dentiko.si/
125,6048822,DENTIM ZOBOZDRAVSTVO D.O.O.,OE NOVO MESTO,Škocjan 67,8275 Škocjan,Škocjan,,Škocjan,45.90725,15.28993,07 307 77 50,http://www.cakalnedobe.si/ambulante/dentim-zobozdravstvo-d-o-o-zobozdravstvena-dejavnost/
126,4165421,DENTIN DRUŽBA ZA ZOBOZDRAVSTVENO DEJAVNOST D.O.O.,IZPOSTAVA PTUJ,Na tratah 4,2250 Ptuj,Ptuj,"Četrt Jezero, Belšakova ulica 20a",Ptuj,46.41683,15.87719,02 779 63 21,http://www..slovenski-zobozdravniki.si//dentin-irena-skornik-kostanjevec
127,5704706,"DENTMED, ZOBOZDRAVSTVENE STORITVE, D.O.O.",OE MARIBOR,Ulica Pariške komune 42,2000 Maribor,Maribor,Tabor,Maribor,46.54732,15.64697,(02) 331 57 41,http://www.dentmed.si/
128,742835,"DEPIK PODJETJE ZA PROIZVODNJO, INTELEKTUALNE STORITVE IN TRGOVINO D.O.O., LJUBLJANA",OE LJUBLJANA,Cesta 24. junija 31,1231 Ljubljana - Črnuče,Ljubljana,Četrtna skupnost Črnuče,Ljubljana,46.09537,14.52704,,
129,4461820,DERMASTJA DIMOV DESISLAVA - ZASEBNA ZOBOZDRAVSTVENA ORDINACIJA,OE LJUBLJANA,Cesta Ljubljanske brigade 23,1000 Ljubljana,Ljubljana,Četrtna skupnost Dravlje,Ljubljana,46.08665,14.47871,05 903 35 05,https://www.zdravniki-zobozdravniki.net/clan/Desislava-DERMASTJA-1087/#ordinacija
130,2929663,DEVETAK ANDREJ - ZOBNA AMBULANTA,IZPOSTAVA IZOLA,Kajuhova ulica 1B,6310 Izola - Isola,Izola,Livade,Izola,45.53446,13.66402,05 641 51 95,https://www.informacija.net/podjetja/prosti-cas-in-zdravje/zdravje/zobna-ordinacija-devetak-andrej-d
131,4029448,"DIAGNOSTIČNI CENTER ŠENTJUR, ZDRAVSTVENE IN DRUGE STORITVE, TRGOVINA IN INŽENIRING, D.O.O.",IZPOSTAVA ŠENTJUR PRI CELJU,Ulica Dušana Kvedra 27,3230 Šentjur,Šentjur,Šentjur-mesto,Šentjur,46.21817,15.39597,(03) 746 25 50,http://www.dc-sentjur.com/sl/
132,2907548,DIANA OKRETIČ - ZOBOZDRAVSTVENA ORDINACIJA,IZPOSTAVA IZOLA,Ulica oktobrske revolucije 11,6310 Izola - Isola,Izola,Haliaetum,Izola,45.53464,13.66078,05 641 45 68,http://www.slovenski-zobozdravniki.si/diana-okretic
133,5699657,"DIDENT, ZOBOZDRAVSTVENA DEJAVNOST D.O.O.",IZPOSTAVA ŠKOFJA LOKA,Stara cesta 10,4220 Škofja Loka,Škofja Loka,Kamnitnik,Škofja Loka,46.16618,14.31281,,https://www.zdravniki-zobozdravniki.net/clan/Diana-TERLEVIC-DABIC-1484/
134,3092020,DIKIĆ KRSTINIĆ SNEŽANA - ZOBOZDRAVSTVO ODRASLIH,IZPOSTAVA LITIJA,Partizanska pot 8A,1270 Litija,Litija,Mestna skupnost Litija,Litija,46.05389,14.83656,,http://zobozdravstvo-dikic-krstinic.si/
135,4449791,DINA ŠKRBINC DR. DENT. MED. - ZOBOZDRAVSTVENA ORDINACIJA,OE LJUBLJANA,Mirje 2,1000 Ljubljana,Ljubljana,Četrtna skupnost Trnovo,Ljubljana,46.04487,14.50172,(01)200 51 21,https://www.zobozdravnik-skrbinc.si/
136,4226082,DISPANZER ZA ZDRAVSTVENO VARSTVO OTROK IN MLADOSTNIKOV D.O.O.,IZPOSTAVA ŽALEC,Prešernova ulica 6,3310 Žalec,Žalec,Mestna skupnost Žalec,Žalec,46.25093,15.16216,(03) 713 43 14,https://www.dom-zalec.si/index.php/2014-05-13-19-05-45
137,4165327,"DIVINA MEDICA PODJETJE ZA ZDRAVSTVENO DEJAVNOST, TRGOVINO IN STORITVE D.O.O.",OE MARIBOR,Betnavska cesta 13,2000 Maribor,Maribor,Magdalena,Maribor,46.54967,15.64086,(02) 320 20 10,
138,3562716,DOBNIKAR IRENA - ZASEBNA ZOBNA ORDINACIJA,IZPOSTAVA KAMNIK,Novi trg 26,1241 Kamnik,Kamnik,Novi trg,Kamnik,46.22139,14.61328,,
139,3446567,DOBNIKAR MARTA - ORDINACIJA SPLOŠNE MEDICINE,OE LJUBLJANA,Metelkova ulica 15,1000 Ljubljana,Ljubljana,Četrtna skupnost Center,Ljubljana,46.05705,14.51547,01 438 59 50,http://www.zasebnizdravnik.si/marta-dobnikar/#ordinacija
140,6635595,"DOBRAVEC D.O.O., STORITVE ZA ZDRAVJE, NARAVO IN KULTURO",IZPOSTAVA RADOVLJICA,Kranjska cesta 27,4240 Radovljica,Radovljica,Radovljica,Radovljica,46.34662,14.17529,04 533 75 22,http://zobna.dobravec.si
141,3410781,"DODODENT, ZDRAVSTVENE STORITVE IN TRGOVINA, D.O.O.",OE LJUBLJANA,Jelovškova ulica 7,1230 Domžale,Spodnje Jarše,Jarše - Rodica,Domžale,46.15214,14.59054,059 059 000,
142,6369009,"DOKTOR M, ZDRAVSTVENE STORITVE D.O.O.",IZPOSTAVA ŠMARJE PRI JELŠAH,Spodnje Negonje 16C,3250 Rogaška Slatina,Spodnje Negonje,Rogaška Slatina,Rogaška Slatina,46.25074,15.62346,,http://www.doktor-m.si
143,2993679,DOKTOR MEDICINE HERMINA OSOJNIK,OE RAVNE NA KOROŠKEM,Ob Suhi 5,2390 Ravne na Koroškem,Ravne na Koroškem,TRG,Ravne na Koroškem,46.54372,14.96774,(02) 821 55 55,https://www.zdravniki-zobozdravniki.net/clan/Hermina-OSOJNIK-344/
144,3190089,DOLINAR- KRESE HERMINA - ZASEBNA OTROŠKA IN ŠOLSKA ORDINACIJA,IZPOSTAVA TRŽIČ,Blejska cesta 10,4290 Tržič,Tržič,Tržič - mesto,Tržič,46.36361,14.30654,04 596 10 64,http://www.krese.si
145,3066330,"DOMICIJAN, POTOVALNA IN TURISTIČNA AGENCIJA TER ZOBOZDRAVSTVO, D.O.O.",OE KRANJ,Pante 11,4000 Kranj,Kranj,Stražišče,Kranj,46.23346,14.34361,,http://www.domicijan.si
146,3655301,"DR. DANEU, SPECIALISTIČNA AMBULANTA ZA OTROKE IN MLADINO D.O.O.",IZPOSTAVA PIRAN,Cesta solinarjev 1,6320 Portorož - Portorose,Lucija,Lucija,Piran,45.50452,13.60205,(05) 677 90 80,https://www.zd-piran.si/oddelek.php?zdravnik=27
147,7995315,"DR. IRINA VOSTRUEVA, SPECIALISTIČNA ZDRAVSTVENA DEJAVNOST, D.O.O.",OE LJUBLJANA,Peričeva ulica 29,1000 Ljubljana,Ljubljana,Četrtna skupnost Bežigrad,Ljubljana,46.06668,14.51192,(01) 436 43 00,https://ginekologijabezigrad.si/
148,2674956,"DR. ČOK DENTAL, ZOBOZDRAVSTVO D.O.O.",IZPOSTAVA PIRAN,Obala 114,6320 Portorož - Portorose,Lucija,Lucija,Piran,45.50349,13.60337,05 677 17 00,http://www.drcokdental.si
149,3743500,DR.STOMA.KOBOLT ZOBNA AMBULANTA D.O.O.,OE RAVNE NA KOROŠKEM,Gačnikova pot 3,2390 Ravne na Koroškem,Ravne na Koroškem,TRG,Ravne na Koroškem,46.54417,14.96289,(02) 821 74 50,https://www.cakalnedobe.si/ambulante/dr-stoma-kobolt-zobna-ambulanta
150,3123080,DRENIK IRENA - ZASEBNA ZOBNA AMBULANTA,OE CELJE,Nazorjeva ulica 14,3000 Celje,Celje,Medlog,Celje,46.23485,15.24024,(03) 492 12 40,https://www.zdravniki-zobozdravniki.net/clan/Irena-DRENIK-170/
151,6381897,"DRUŽINSKA MEDICINA BILIĆ, MEDICINSKE STORITVE, D.O.O.",IZPOSTAVA ŠMARJE PRI JELŠAH,Pilštanj 20,3261 Lesično,Pilštanj,Lesično,Kozje,46.10006,15.52495,,http://www.zdravniki-zobozdravniki.net/clan/Brankica-BILIC-PETROVIC-783/
152,6381804,"DRUŽINSKA MEDICINA BOŽIČEK, ZDRAVSTVENE STORITVE D.O.O.",IZPOSTAVA ŠMARJE PRI JELŠAH,Bistrica ob Sotli 61,3256 Bistrica ob Sotli,Bistrica ob Sotli,,Bistrica ob Sotli,46.05571,15.66327,,http://medicinabozicek.spisarna.si/
153,7139250,DRUŽINSKA MEDICINA DR. ANJA ČERNE - ZASEBNA ZDRAVNICA,OE LJUBLJANA,Videm 17,1262 Dol pri Ljubljani,Videm,Dol,Dol pri Ljubljani,46.0867,14.63413,068 696 622,http://www.medicina-cerne.si/
154,6374025,"DRUŽINSKA MEDICINA LONČAR, ZDRAVSTVENE STORITVE, D.O.O.",IZPOSTAVA ŠMARJE PRI JELŠAH,Lastine 17,3250 Rogaška Slatina,Rogaška Slatina,Rogaška Slatina,Rogaška Slatina,46.22959,15.64148,03 812 16 30,"http:// www.zdravniki-zobozdravniki.net-Anica Lončar, dr.med."
155,6186000,"DRUŽINSKA MEDICINA ŽAGAR, D.O.O.",OE NOVO MESTO,Jurčičeva ulica 32,8360 Žužemberk,Žužemberk,,Žužemberk,45.83205,14.93017,073 888 069,https://druzinska-medicina-zagar.weebly.com/
156,6123864,"DUA DENT, ZOBOZDRAVSTVENE STORITVE, D.O.O.",IZPOSTAVA TOLMIN,Trg maršala Tita 7,5220 Tolmin,Tolmin,Tolmin,Tolmin,46.183,13.73269,,https://www.zdravniki-zobozdravniki.net/clan/Dejan-ZAGAR-927/
157,3796435,"E & A, ZDRAVSTVENE IN DRUGE STORITVE, D.O.O.",IZPOSTAVA MOZIRJE,Ob železnici 26,3313 Polzela,Polzela,,Polzela,46.27866,15.07283,(03) 838 12 60,https://www.zdravniki-zobozdravniki.net/clan/Edita-ARH-745/
158,5715483,"ECHINACEA DRUŽBA ZA ZDRAVSTVENE STORITVE, SVETOVANJE IN TRGOVINO, D.O.O.",OE MARIBOR,Malečnik 14,2229 Malečnik,Malečnik,Malečnik-Ruperče,Maribor,46.5541,15.70257,(02) 473 07 44,https://zdravniki-zobozdravniki.net/Clan/Darja-BELEC-1284
159,4348356,"ERNA SAJOVIC ROGLIČ, DR. MED., SPEC. SPL. MED., ZASEBNA AMBULANTA DRUŽINSKE MEDICINE, CESTA ZMAGE 1, 1410 ZAGORJE OB SAVI",IZPOSTAVA ZAGORJE,Cesta zmage 1,1410 Zagorje ob Savi,Zagorje ob Savi,Jože Marn,Zagorje ob Savi,46.13384,14.9957,,http://ezdravnik.si/zdravnik/erna-sajovic/
160,3136510,ERŠTE BOŽENA - ZASEBNA STOMATOLOŠKA ORDINACIJA,OE MARIBOR,Vezna pot 1,2000 Maribor,Ribniško selo,Center,Maribor,46.57373,15.64297,(02) 251 03 33,https://www.cakalnedobe.si/ambulante/erste-bozena
161,303793,ESKULAP DRUŽBA ZA ZDRAVSTVENE STORITVE D.O.O.,OE LJUBLJANA,Redelonghijeva ulica 12,1000 Ljubljana,Ljubljana,Četrtna skupnost Vič,Ljubljana,46.04099,14.48579,01 281 13 76,http://www.eskulap.si
162,2694806,"ESPOIR STORITVE IN TRGOVINA, D.O.O.",IZPOSTAVA ZAGORJE,Dunajska cesta 59,1000 Ljubljana,Ljubljana,Četrtna skupnost Bežigrad,Ljubljana,46.06581,14.50894,03/565 50 27,https://ezdravnik.si/zdravnik/zasebna-ambulanta-espoir-d-o-o/
163,609753,"EVA PODJETJE ZA ZDRAVSTVENO DEJAVNOST, KRŠKO D.O.O.",OE KRŠKO,Pleterje 24,8272 Zdole,Pleterje,Zdole,Krško,45.97319,15.53447,07 488 02 26,https://eva-doo.si/
164,7119750,"FA-DENTAL, ZOBOZDRAVSTVENE STORITVE, D.O.O.",IZPOSTAVA SLOVENSKA BISTRICA,Trg Alfonza Šarha 18,2310 Slovenska Bistrica,Slovenska Bistrica,Alfonz Šarh,Slovenska Bistrica,46.39443,15.57367,(02) 840 17 16,http://www.fadental.si/
165,3112121,FEBRIS ZDRAVNIŠKE USLUGE IN SVETOVANJE D.O.O.,IZPOSTAVA POSTOJNA,Kolodvorska cesta 24,6257 Pivka,Pivka,Pivka,Pivka,45.68043,14.1946,(05) 757 25 61,http://www.febris.si
166,3092190,FELE ŽUJIČ ANICA - ZASEBNA ZOBNA ORDINACIJA,IZPOSTAVA HRASTNIK,Novi dom 11,1430 Hrastnik,Hrastnik,Rudnik,Hrastnik,46.1403,15.08513,03 565 44 60,https://www.zdravniki-zobozdravniki.net/clan/Anica-FELE-ZUJIC-516/
167,5088219,"FERDENT, ZOBOZDRAVSTVENE STORITVE, D.O.O.",IZPOSTAVA ŠENTJUR PRI CELJU,Cesta Leona Dobrotinška 6A,3230 Šentjur,Šentjur,Šentjur-mesto,Šentjur,46.21416,15.39336,03 746 24 70,http://www.ferdent.si
168,3844807,FIDELITAS ZOBNA AMBULANTA IN STORITVE D.O.O.,IZPOSTAVA POSTOJNA,Cankarjeva ulica 6,6230 Postojna,Postojna,Postojna,Postojna,45.77464,14.21517,05 754 01 10,https://www.fidelitas.si/default.asp
169,3236916,FILIPIČ IRENA - DOKTOR STOMATOLOGIJE,OE MARIBOR,Cesta k Dravi 8,2241 Spodnji Duplek,Spodnji Duplek,Spodnji Duplek,Duplek,46.50113,15.74875,(02) 684 01 23,https://www.cakalnedobe.si/ambulante/filipic-irena-doktor-stomatologije-zobozdravstvena-dejavnost/
170,4753354,"FITLAB, ZAVOD ZA CELOSTNO ZDRAVSTVENO IN KINEZIOLOŠKO OBRAVNAVO",IZPOSTAVA ŠKOFJA LOKA,Partizanska ulica 8A,1370 Logatec,Logatec,Naklo,Logatec,45.91832,14.22152,820 501 70,http://arcusmedici.si
171,3859694,"FLAVIANO TONELLO, DR.MED. SPEC.SPL.MED. ZASEBNA SPECIALISTIČNA AMBULANTA SPLOŠNE MEDICINE S KONCESIJO",OE KOPER,Dekani 191,6271 Dekani,Dekani,Dekani,Koper,45.54809,13.8119,"(05) 658 00 79,",http://www.zd-koper.si/si/ambulante/zasebna-specialisticna-ambulanta-splosne-medicine-tonello-flaviano/
172,3236168,FTIČAR TEREZIJA - ZASEBNA AMBULANTA ZA OTROKE IN MLADINO,IZPOSTAVA KAMNIK,Novi trg 26,1241 Kamnik,Kamnik,Novi trg,Kamnik,46.22139,14.61328,01 831 86 39,https://ambulanta-fticar.eu/
173,3137729,FUNDUK ANDREJČIČ SONJA - ZOBOZDRAVSTVO,OE LJUBLJANA,Dalmatinova ulica 7,1000 Ljubljana,Ljubljana,Četrtna skupnost Center,Ljubljana,46.05425,14.50563,,https://www.zdravniki-zobozdravniki.net/clan/Sonja-FUNDUK-ANDREJCIC-1601/
174,3089360,GABRIEL IGOR - SPLOŠNA AMBULANTA PODPEČ,OE LJUBLJANA,Jezero 1,1352 Preserje,Jezero,Preserje,Brezovica,45.97634,14.41959,(01)363 30 56,https://www.zdravniki-zobozdravniki.net/clan/Igor-GABRIEL-792/
175,5220515,"GAIA MED, KLINIKA ZA SPLOŠNO MEDICINO IN OSTEOPOROZO, D.O.O.",IZPOSTAVA POSTOJNA,Jamska cesta 23,6230 Postojna,Postojna,Postojna,Postojna,45.77731,14.20921,(05) 720 33 33,http://gaiamed.si/si/ambulante/ambulanta-splosne-medicine-gaia-med/
176,5783502,"GALENIA, AMBULANTNA DIAGNOSTIKA IN ZDRAVLJENJE, D.O.O.",OE LJUBLJANA,Čučkova ulica 17,1000 Ljubljana,Ljubljana,Četrtna skupnost Vič,Ljubljana,46.03501,14.45303,01 363 41 76,http://www.galenia.si/
177,2936450,GARMUŠ SONJA - ZASEBNA SPLOŠNA AMBULANTA,IZPOSTAVA POSTOJNA,Kolodvorska cesta 24,6257 Pivka,Pivka,Pivka,Pivka,45.68043,14.1946,(05) 757 05 40,http://www.ambulanta-garmus.si
178,5713360,"GDENT SPLOŠNO IN ESTETSKO ZOBOZDRAVSTVO UROŠ FRANC GAŠPERIN, DR.DENT.MED.",IZPOSTAVA DOMŽALE,Prešernova cesta 21B,1230 Domžale,Domžale,Domžale - Venclja Perka,Domžale,46.1407,14.58948,041 394 980,http://gdent.si
179,4666700,"GEMINI, SPECIALISTIČNA AMBULANTA ZA GINEKOLOGIJO, PERINATOLOGIJO IN ULTRAZVOČNO DIAGNOSTIKO, SIMONA ČOPI",OE MURSKA SOBOTA,Puconci 251,9201 Puconci,Puconci,Puconci,Puconci,46.69401,16.17399,,http://www.gemini-ambulanta.si/
180,3122878,GERIĆ MARTA - ZOBOZDRAVSTVENA AMBULANTA,IZPOSTAVA DOMŽALE,Vegova ulica 22,1251 Moravče,Moravče,Moravče,Moravče,46.13743,14.74729,,
181,4496920,GERONTOLOŠKA IN SPLOŠNA AMBULANTA POLONCA VOBOVNIK GROBELNIK,OE MARIBOR,Železnikova ulica 4,2000 Maribor,Maribor,Pobrežje,Maribor,46.55037,15.66738,(05) 912 95 00,https://www.ambulanta-grobelnik.si/
182,5823780,"GINEKOLOGIJA DR. FRANIĆ, ZDRAVSTVENE IN IZOBRAŽEVALNE DEJAVNOSTI, D.O.O.",IZPOSTAVA ŠMARJE PRI JELŠAH,Celjska cesta 10,3250 Rogaška Slatina,Rogaška Slatina,Rogaška Slatina,Rogaška Slatina,46.23916,15.6342,03 581 55 50,http://www.ginekologija.si
183,7663617,"GINEKOLOGIJA MEGLIČ, SPECIALISTIČNA DEJAVNOST NA PODROČJU GINEKOLOGIJE, PERINATOLOGIJE, ULTRAZVOČNE DIAGNOSTIKE, OPERATIVNE IN ESTETSKE GINEKOLOGIJE, D.O.O.",OE LJUBLJANA,Cesta 25,8213 Veliki Gaber,Cesta,Veliki Gaber,Trebnje,45.94446,14.89143,01 439 49 10,http://www.ginekologijameglic.si
184,6492911,GINEKOLOGIJA STRAŽAR D.O.O.,IZPOSTAVA ŠKOFJA LOKA,Hafnerjevo naselje 24,4220 Škofja Loka,Škofja Loka,Trata,Škofja Loka,46.16977,14.33432,,http://www.ginekologija-strazar.si
185,7089870,"GINEKOLOŠKA ORDINACIJA, DR. BOJAN GRULOVIĆ DR. MED., SPEC. GIN. IN POROD.",IZPOSTAVA ČRNOMELJ,Delavska pot 4,8340 Črnomelj,Črnomelj,Črnomelj,Črnomelj,45.57549,15.18753,07 356 79 20,http://www.ginekoloska-ordinacija.si
186,6063507,"GINEKOMED FORUM, ZDRAVSTVENE STORITVE IN SVETOVANJE, D.O.O.",OE MARIBOR,Cankarjeva ulica 6D,2000 Maribor,Maribor,Ivan Cankar,Maribor,46.56117,15.65419,(02) 228 20 95,http://www.ezdravnik.si/zdravnik/zavrsnik-mihic
187,3187856,GLINTIĆ NEBOJŠA - ZOBNA AMBULANTA,OE KOPER,Ulica Pri velikih vratih 18,6000 Koper - Capodistria,Koper,Koper - Center,Koper,45.54563,13.72888,(05) 626 10 30,https://www.zdravniki-zobozdravniki.net/clan/Nebojsa-GLINTIC-1082/
188,4313210,"GNAMUŠ DENTAL, SPLOŠNO ZOBOZDRAVSTVO, D.O.O.",OE RAVNE NA KOROŠKEM,Partizanska cesta 4,2390 Ravne na Koroškem,Ravne na Koroškem,TRG,Ravne na Koroškem,46.54452,14.9653,"(02) 821 88 10, (02) 822 19 48",http://www.gnamus.si/
189,4351752,"GOR.COM ZOBOZDRAVSTVO, PROIZVODNJA, POSREDNIŠTVO IN STORITVE D.O.O.",OE CELJE,Gorica pri Šmartnem 13,3201 Šmartno v Rožni dolini,Gorica pri Šmartnem,Šmartno v Rožni dolini,Celje,46.27219,15.23887,03 781 07 07,http://www.gorcom.si
190,3759558,GORENC MOJCA - ZASEBNA ZOBNA AMBULANTA,IZPOSTAVA ZAGORJE,Cesta zmage 1,1410 Zagorje ob Savi,Zagorje ob Savi,Jože Marn,Zagorje ob Savi,46.13384,14.9957,03/565 50 23,https://www.cakalnedobe.si/ambulante/gorenc-mojca-zasebna-zobna-ambulanta-zobozdravstvena-dejavnost/
191,3579815,GOVC-ČETINA IRENA - ZASEBNA GINEKOLOŠKA AMBULANTA ZA ŽENE,IZPOSTAVA ŽALEC,Rimska cesta 70,3311 Šempeter v Savinjski dolini,Šempeter v Savinj. dolini,Šempeter,Žalec,46.25651,15.12077,03 700 20 20,https://ezdravnik.si/zdravnik/govc-cetina/
192,3036090,"GPD GINEKOLOGIJA IN PORODNIŠTVO, POSREDNIŠTVO IN STORITVE, D.O.O.",IZPOSTAVA VELENJE,Sončni grič 7,3320 Velenje,Velenje,Gorica,Velenje,46.35393,15.12586,(03) 897 27 00,https://feminamedico.si/
193,3110378,GRABAR - KRAJNC MILENA - ZOBNA AMBULANTA,OE MURSKA SOBOTA,Cankarjeva ulica 113,9000 Murska Sobota,Murska Sobota,Turopolje,Murska Sobota,46.65595,16.15589,,http://www.zobozdravniki-pomurja.si
194,3445987,GRAND-RABIČ SIMONA - ZOBNA AMBULANTA,OE MARIBOR,Ribniška ulica 5,2000 Maribor,Maribor,Center,Maribor,46.56844,15.6487,(02) 251 52 14,https://www.cakalnedobe.si/ambulante/grand-rabic-simona-zobna-ambulanta-zobozdravstvena-dejavnost/
195,3770639,GRANDOŠEK KSENIJA - ZASEBNA ZOBOZDRAVNICA,OE MARIBOR,Slovenski trg 4,2352 Selnica ob Dravi,Selnica ob Dravi,,Selnica ob Dravi,46.5515,15.49303,(02) 671 11 10,https://www.cakalnedobe.si/ambulante/grandosek-ksenija-zasebna-zobozdravnica
196,3444933,GROBOLJŠEK ROMAN - ZASEBNA ZOBNA ORDINACIJA,IZPOSTAVA SEVNICA,Trg svobode 9,8290 Sevnica,Sevnica,Sevnica,Sevnica,46.00977,15.30294,07 814 12 42,https://www.zdravniki-zobozdravniki.net/clan/Roman-GROBOLJSEK-741/
197,3416705,GROSEK PŠENIČNIK MARJANA - ORDINACIJA SPLOŠNE MEDICINE,OE LJUBLJANA,Dunajska cesta 22,1000 Ljubljana,Ljubljana,Četrtna skupnost Bežigrad,Ljubljana,46.06212,14.5093,,https://www.zdravniki-zobozdravniki.net/clan/marjana-grosek-psenicnik-558/
198,4490638,"GROZNIK MATEVŽ, DR. DENT. MED., ZASEBNA ZOBNA ORDINACIJA, ZASEBNI ZOBOZDRAVNIK",OE LJUBLJANA,Savska cesta 10,1000 Ljubljana,Ljubljana,Četrtna skupnost Jarše,Ljubljana,46.06433,14.52589,01/280 32 70,http://zobozdravnik-ljubljana.eu/
199,2936416,GRUJIĆ SPOMENKA - ZASEBNA ZOBOZDRAVSTVENA AMBULANTA OTROK IN MLADINE,IZPOSTAVA POSTOJNA,Prečna ulica 2,6230 Postojna,Postojna,Postojna,Postojna,45.77205,14.21042,"(05) 720 20 00, 041 567 012",https://www.zd-po.si/zasebna-zobna-ambulanta-otrok-in-mladine-spomenka-grujic-dr-dent-med/
200,3221804,GRUJIČIĆ DRAGAN - AMBULANTA SPLOŠNE MEDICINE,OE LJUBLJANA,Kopitarjev trg 1,1217 Vodice,Vodice,,Vodice,46.18729,14.49116,(01) 832 40 88,https://www.zdravniki-zobozdravniki.net/clan/Dragan-GRUJICIC-384/
201,3125110,GRČAR MATEJA - ZOBOZDRAVSTVO,IZPOSTAVA RADOVLJICA,Kopališka cesta 7,4240 Radovljica,Radovljica,Radovljica,Radovljica,46.34702,14.17201,,https://www.zdravniki-zobozdravniki.net/clan/Mateja-GRCAR-1159/
202,3095732,GUNA JERNEJ - ZASEBNA ZOBNA ORDINACIJA,IZPOSTAVA HRASTNIK,Novi dom 11,1430 Hrastnik,Hrastnik,Rudnik,Hrastnik,46.1403,15.08513,03 565 44 59,https://zobozdravnik-guna.si/
203,3200135,HABJANIČ-MERC BRIGITA - ZASEBNA ORDINACIJA ZA PREDŠOLSKE OTROKE IN DRUŽINSKO MEDICINO,IZPOSTAVA PTUJ,Rogozniška cesta 32,2250 Ptuj,Ptuj,"Četrt Jezero, Belšakova ulica 20a",Ptuj,46.4261,15.88611,(02) 748 12 20,https://ordinacija-habjanic.si/
204,6321460,HEPI-DENT ZOBOZDRAVSTVENA ORDINACIJA D.O.O.,IZPOSTAVA CERKNICA,Cesta Notranjskega odreda 36,1386 Stari trg pri Ložu,Stari trg pri Ložu,,Loška dolina,45.71325,14.47221,(01) 709 53 05,http://hepi-dent.si/
205,4296073,HOLIMED DRUŽBA ZA ZDRAVSTVENE STORITVE IN SVETOVANJE D.O.O.,OE MARIBOR,Ulica kneza Koclja 11,2000 Maribor,Maribor,Center,Maribor,46.55769,15.65032,(02) 250 21 80,https://zdravniki-zobozdravniki.net/Clan/Krsto-NASTOVSKI-785
206,3209012,HOSTNIK BOŠTJAN - SPLOŠNA AMBULANTA,OE LJUBLJANA,Tbilisijska ulica 59,1000 Ljubljana,Ljubljana,Četrtna skupnost Vič,Ljubljana,46.03762,14.47887,,http://www.zdravniki-zobozdravniki.net/clan/Bostjan-HOSTNIK-709/
207,2940210,HRVATIN-MAHNIČ DANICA - SPECIALISTIČNA AMBULANTA ZA GINEKOLOGIJO IN PORODNIŠTVO,IZPOSTAVA ILIRSKA BISTRICA,Prečna ulica 2,6230 Postojna,Postojna,Postojna,Postojna,45.77205,14.21042,05 726 42 20,http://drdanicahrvatin.si
208,5091922,HUMANIKDENT DENTALNA MEDICINA D.O.O.,OE RAVNE NA KOROŠKEM,Smrečnikovo 20,2392 Mežica,Mežica,,Mežica,46.52036,14.84696,(08) 205 38 40,https://www.cakalnedobe.si/ambulante/humanikdent-dentalna-medicina-d-o-o-zobozdravstvena-dejavnost/
209,6156995,"IDENS, ZOBOZDRAVSTVENE STORITVE D.O.O.",IZPOSTAVA RADOVLJICA,Seliška cesta 3,4260 Bled,Bled,Bled,Bled,46.37275,14.1096,,http://www.zobna-ordinacija.si
210,3137317,ILIJAŠ KOŽELJ MARIJA - GINEKOLOŠKA AMBULANTA,IZPOSTAVA VRHNIKA,Robova cesta 6,1360 Vrhnika,Vrhnika,Vrhnika Breg,Vrhnika,45.96751,14.29722,(01) 750 45 39,https://www.zdravniki-zobozdravniki.net/clan/Marija-ILIJAS-KOZELJ-377/
211,694190,IN STORITVE D.O.O.,OE LJUBLJANA,Šišenska cesta 44,1000 Ljubljana,Ljubljana,Četrtna skupnost Šiška,Ljubljana,46.07131,14.48026,,http://www.zambulanta-vodnik.si
212,3139582,JAHIĆ ZAIM - ZASEBNA ZOBNA ORDINACIJA,IZPOSTAVA ŠMARJE PRI JELŠAH,Celjska cesta 7,3250 Rogaška Slatina,Rogaška Slatina,Rogaška Slatina,Rogaška Slatina,46.23915,15.63321,03 581 41 81,http://zobozdravnik - jahic.si/wp-login.php
213,2907565,JAKLJEVIĆ VLATKO - ZOBOZDRAVSTVENA AMBULANTA ZA OTROKE IN MLADINO,IZPOSTAVA ILIRSKA BISTRICA,Gregorčičeva cesta 8,6250 Ilirska Bistrica,Ilirska Bistrica,Ilirska Bistrica,Ilirska Bistrica,45.56848,14.24324,(05) 714 22 21,https://www.ezobozdravnik.si/seznam-zobozdravnikov/zobozdravstvena-ambulanta-jakljevic-vlatko/
214,2954543,JAMAL TAFI MOHAMED - ZASEBNA ZOBOZDRAVSTVENA ORDINACIJA,IZPOSTAVA SLOVENSKA BISTRICA,Bistriška cesta 97,2319 Poljčane,Poljčane,,Poljčane,46.30821,15.57729,(02) 829 04 20,https://www.cakalnedobe.si/ambulante/jamal-tafi-mohamed-zasebna-zobozdravstvena-ordinacija
215,4547798,JANADENTAL ZOBNA ORDINACIJA D.O.O.,OE RAVNE NA KOROŠKEM,Partizanska cesta 17,2392 Mežica,Mežica,,Mežica,46.51905,14.85387,(02) 823 54 53,https://www.zdravniki-zobozdravniki.net/clan/Tatjana-ROZEJ-486/
216,2954756,JANEŽIČ IVAN - ZASEBNA ZOBNA AMBULANTA,IZPOSTAVA VELENJE,Efenkova cesta 61,3320 Velenje,Velenje,Šmartno,Velenje,46.3624,15.12419,(03) 897 34 00,https://www.cakalnedobe.si/ambulante/janezic-ivan-zasebna-zobna-ambulanta-zobozdravstvena-dejavnost/
217,3194276,JANČAR BLAŽI - ZOBOZDRAVSTVENA ORDINACIJA,OE LJUBLJANA,Peričeva ulica 25,1000 Ljubljana,Ljubljana,Četrtna skupnost Bežigrad,Ljubljana,46.06616,14.51125,,http://zobozdravstvo-jancar.si
218,3957869,"JASMINA VENGUST, DR.DENT.MED. - ZASEBNA ZOBOZDRAVSTVENA AMBULANTA",IZPOSTAVA ŽALEC,Glavni trg 15,3313 Polzela,Polzela,,Polzela,46.2795,15.07495,03 705 07 22,http://zdravniki-zobozdravniki.net
219,3208983,JEREB MATJAŽ - AMBULANTA SPLOŠNE MEDICINE,OE LJUBLJANA,Metelkova ulica 15,1000 Ljubljana,Ljubljana,Četrtna skupnost Center,Ljubljana,46.05705,14.51547,01 439 86 40,https://www.zdravniki-zobozdravniki.net/clan/Matjaz-JEREB-1135/
220,3193509,JEROMEL TANJA - ZOBOZDRAVSTVO,IZPOSTAVA SLOVENJ GRADEC,Kopališka ulica 29,2380 Slovenj Gradec,Slovenj Gradec,Center,Slovenj Gradec,46.50613,15.08509,02 882 25 90,https://www.zdravniki-zobozdravniki.net/clan/Tanja-JEROMEL-1162/
221,3156038,JEZERC KRIŽANIČ TATJANA - ORDINACIJA SPLOŠNE MEDICINE,OE LJUBLJANA,Kočevska cesta 25,1291 Škofljica,Škofljica,Škofljica,Škofljica,45.98069,14.57676,01 366 31 20,http://www.ordinacija.jezerc
222,3125138,JEŠE MATEJA - ZOBOZDRAVSTVO,IZPOSTAVA RADOVLJICA,Begunjska cesta 7,4248 Lesce,Lesce,Lesce,Radovljica,46.36184,14.1617,,https://www.zobozdravstvena-jese.si/
223,7376150,"JO-DENT, ZASEBNA ZOBNA AMBULANTA, JULA JOŠT, DR. DENT. MEDICINE",IZPOSTAVA ŠKOFJA LOKA,Jobstova cesta 22,4226 Žiri,Žiri,,Žiri,46.04573,14.10868,,http://jo-dent.si
224,3227397,JURIČEV MARIN - ZASEBNA ZOBNA AMBULANTA,IZPOSTAVA POSTOJNA,Kolodvorska cesta 24,6257 Pivka,Pivka,Pivka,Pivka,45.68043,14.1946,(05) 757 25 64,https://www.zdravniki-zobozdravniki.net/clan/Marin-JURICEV-627/
225,5582899,"JUTA SIMONA PISK, DR. DENT. MED., ZASEBNA ŠOLSKA ZOBNA AMBULANTA",IZPOSTAVA ŠKOFJA LOKA,Trata 7,4224 Gorenja vas,Gorenja vas,Gorenja vas,Gorenja vas-Poljane,46.10233,14.14218,,http://www.zobozdravnica-juta.si
226,5736663,"JUVENTINA CLINIC, SPECIALISTIČNA ZUNAJBOLNIŠNIČNA ZDRAVSTVENA DEJAVNOST D.O.O.",OE LJUBLJANA,Vilharjev podhod 7,1000 Ljubljana,Ljubljana,Četrtna skupnost Bežigrad,Ljubljana,46.06035,14.51578,,http://www.juventina.si
227,5487104,"JUVIS, ZDRAVSTVENE STORITVE, D.O.O.",IZPOSTAVA LENDAVA,Dobrovnik 12A,9223 Dobrovnik - Dobronak,Dobrovnik,KS DOBROVNIK,Dobrovnik,46.65094,16.3519,,https://juvis.si/
228,5091629,"JVP DENTAL, ZOBOZDRAVSTVENE STORITVE, D.O.O.",OE MARIBOR,Pohorska ulica 21B,2000 Maribor,Maribor,Radvanje,Maribor,46.53831,15.60509,(02) 614 22 51,https://www.zdravniki-zobozdravniki.net/clan/jasmina-vranicar-pece-908/
229,6724496,"KALAMED D.O.O., AMBULANTA DRUŽINSKE MEDICINE",IZPOSTAVA VELENJE,Prešernova cesta 9A,3320 Velenje,Velenje,Velenje - levi breg - zahod,Velenje,46.35935,15.10963,(059) 056 860,https://ezdravnik.si/zdravnik/kalamed/
230,3434266,"KAMA-DENT D.O.O., ZOBOZDRAVSTVENA DEJAVNOST, LJUBLJANA",IZPOSTAVA DOMŽALE,Filipičeva ulica 1,1000 Ljubljana,Ljubljana,Četrtna skupnost Trnovo,Ljubljana,46.04113,14.49404,,http://www.kamadent.si/
231,1566071,KANSKY GABERŠEK MARINA - ZOBOZDRAVSTVENA ORDINACIJA,OE LJUBLJANA,Dunajska cesta 22,1000 Ljubljana,Ljubljana,Četrtna skupnost Bežigrad,Ljubljana,46.06212,14.5093,01/232 76 79,https://www.zdravniki-zobozdravniki.net/clan/Marina-KANSKY-GABERSEK-1222/
232,6540995,"KARDIOLOGIJA MARINŠEK & GINEKOLOGIJA PETERNELJ, ZDRAVSTVENE STORITVE, SVETOVANJE IN IZOBRAŽEVANJE D.O.O.",OE CELJE,Dobriša vas 81,3301 Petrovče,Dobriša vas,Petrovče,Žalec,46.24659,15.1821,03 543 44 54,http://www.ginekologija-peternelj.si
233,3137243,KASTELEC STANOVNIK LADKA - ZASEBNA ZOBOZDRAVSTVENA ORDINACIJA,IZPOSTAVA VRHNIKA,Cesta 6. maja 11,1360 Vrhnika,Vrhnika,Vrhnika Center,Vrhnika,45.96278,14.29358,,http://www.slovenski-zobozdravniki.si/
234,6555560,"KATARINA JERMAN, DR. MED., AMBULANTA ZA GINEKOLOGIJO IN PORODNIŠTVO",OE LJUBLJANA,Metelkova ulica 15,1000 Ljubljana,Ljubljana,Četrtna skupnost Center,Ljubljana,46.05705,14.51547,(01) 439 26 50,http://ginekologija-galic-jerman.si
235,5827275,KATARINA PLANINEC - AMBULANTA DRUŽINSKE MEDICINE,OE LJUBLJANA,Nova pot 5,1351 Brezovica pri Ljubljani,Vnanje Gorice,Vnanje Gorice,Brezovica,46.0097,14.41547,01 363 41 77,http://www.ambulanta-brezovica.si
236,3122404,KATAVIĆ MIRNA - DOKTOR STOMATOLOGIJE,IZPOSTAVA SLOVENJ GRADEC,Partizanska pot 16,2380 Slovenj Gradec,Slovenj Gradec,Center,Slovenj Gradec,46.50693,15.08202,(02) 884 10 50,http://mirnakatavic-drstom.mywebcommunity.org/
237,4531737,KAURI-S ZOBOZDRAVSTVENE IN ZDRAVSTVENE STORITVE D.O.O.,IZPOSTAVA AJDOVŠČINA,Vipavska cesta 4A,5270 Ajdovščina,Ajdovščina,Krajevna skupnost Ajdovščina,Ajdovščina,45.88449,13.91053,05 366 36 03,https://www.zdravniki-zobozdravniki.net/clan/Sonja-CUK-KAVCIC-1214/
238,3096221,KEKEC LILJANA - ZASEBNA ZOBNA AMBULANTA ZA ODRASLE,IZPOSTAVA PTUJ,Na tratah 4,2250 Ptuj,Ptuj,"Četrt Jezero, Belšakova ulica 20a",Ptuj,46.41683,15.87719,(02) 779 38 01,https://www.zdravniki-zobozdravniki.net/clan/Liljana-KEKEC-522/
239,7053128,"KG-DENT, ZOBOZDRAVSTVENE STORITVE D.O.O.",OE LJUBLJANA,Laporje 30,1311 Turjak,Laporje,,Velike Lašče,45.87088,14.61679,,
240,3601737,KLANČIČ LUCIJA - ZOBNA AMBULANTA,OE NOVA GORICA,Cesta Prekomorskih brigad 3,5290 Šempeter pri Gorici,Šempeter pri Gorici,,Šempeter-Vrtojba,45.93034,13.63913,,https://www.klanmedic.si/sl/zobna-ambulanta
241,4491420,"KLINIKA DOKTOR 24, ZASEBNA ZDRAVSTVENA ORDINACIJA, D.O.O.",OE LJUBLJANA,Savska cesta 3,1000 Ljubljana,Ljubljana,Četrtna skupnost Bežigrad,Ljubljana,46.0644,14.52522,,
242,4173475,KLINKON ZDRAVSTVENI ZAVOD,IZPOSTAVA PTUJ,Potrčeva cesta 49,2250 Ptuj,Ptuj,"Četrt Ljudski vrt, Rimska ploščad 24",Ptuj,46.42764,15.88104,(02) 780 10 56,https://klinkon-zdravstveni-zavod.webador.com/
243,3156041,KMET JANEZ - ORDINACIJA SPLOŠNE MEDICINE,OE LJUBLJANA,Tbilisijska ulica 89,1000 Ljubljana,Ljubljana,Četrtna skupnost Vič,Ljubljana,46.03612,14.47919,(01) 423 81 30,https://www.zdravniki-zobozdravniki.net/clan/Janez-KMET-221/
244,3188635,KOMATAR MAJA - ZOBOZDRAVSTVENA ORDINACIJA,IZPOSTAVA DOMŽALE,Mestni trg 2,1230 Domžale,Domžale,Domžale - Slavka Šlandra,Domžale,46.13975,14.59617,01 724 52 52,https://www.zdravniki-zobozdravniki.net/clan/Maja-KOMATAR-1190/
245,2954990,KOPRIVC - BUJAN MOJCA - ZOBOZDRAVSTVENA DEJAVNOST,IZPOSTAVA VELENJE,Trg Jožeta Lampreta 1,3325 Šoštanj,Šoštanj,Šoštanj,Šoštanj,46.37648,15.0485,03 891 12 22,https://www.zdravniki-zobozdravniki.net/clan/Mojca-KOPRIVC-BUJAN-570/
246,4702910,"KOPRIVEC, DRUŽINSKA MEDICINA, D.O.O.",IZPOSTAVA ŠKOFJA LOKA,Podreber 12C,1355 Polhov Gradec,Podreber,Polhov Gradec,Dobrova-Polhov Gradec,46.06336,14.32001,04 518 06 04,https://www.koprivec-druzinskamedicina.si/
247,3123444,KOVAČ MOHAR GABRIJELA - AMBULANTA ZA SPLOŠNO MEDICINO IN AKUPUNKTURO,IZPOSTAVA DOMŽALE,Zoranina ulica 3,1234 Mengeš,Mengeš,,Mengeš,46.16207,14.571,01 / 723 09 50,http://www.ambulanta-kovac-mohar.si
248,3181532,KOVAČEVIČ TESSENYI IRENA - ZOBNA ORDINACIJA,OE LJUBLJANA,Parmova ulica 51,1000 Ljubljana,Ljubljana,Četrtna skupnost Bežigrad,Ljubljana,46.06408,14.5027,,https://zobnaordinacija.com/
249,4450420,KOVAČIČ MAJA DDM ZASEBNA ZOBNA ORDINACIJA,OE LJUBLJANA,Kogovškova ulica 1,1000 Ljubljana,Ljubljana,Četrtna skupnost Šiška,Ljubljana,46.07318,14.46775,01 444 00 32,https://www.cakalnedobe.si/ambulante/kovacic-maja-ddm-zasebna-zobna-ordinacija-zobozdravstvena-dejav
250,3137777,KOŠAK MARINA - ZOBOZDRAVSTVENA ORDINACIJA,OE LJUBLJANA,Beethovnova ulica 6,1000 Ljubljana,Ljubljana,Četrtna skupnost Center,Ljubljana,46.05163,14.502,01/425 08 89,https://www.ezobozdravnik.si/seznam-zobozdravnikov/marina-kosak-zobozdravstvena-ordinacija/
251,3208680,KRALJ ROMAN - ZASEBNA AMBULANTA SPLOŠNE MEDICINE,IZPOSTAVA ZAGORJE,Cesta zmage 1,1410 Zagorje ob Savi,Zagorje ob Savi,Jože Marn,Zagorje ob Savi,46.13384,14.9957,03 565 50 13,http://www.zdravniki-zobozdravniki.net/clan/Roman-KRALJ-445/
252,3193466,KRALJ ZLATKA - ZASEBNA SPLOŠNA ORDINACIJA,OE LJUBLJANA,Zaloška cesta 149,1000 Ljubljana,Ljubljana,Četrtna skupnost Moste,Ljubljana,46.05654,14.55551,01 431 52 52,https://ordinacijakralj.weebly.com/
253,3091120,KRANJEC LEOPOLDINA - ZOBNA ORDINACIJA,OE LJUBLJANA,Kopitarjev trg 1,1217 Vodice,Vodice,,Vodice,46.18729,14.49116,,
254,2940178,KREZOVIĆ-LOVKO LJILJANA - ZASEBNA ZOBOZDRAVSTVENA ORDINACIJA,IZPOSTAVA POSTOJNA,Gregorčičev drevored 11,6230 Postojna,Postojna,Postojna,Postojna,45.77434,14.21615,(05) 720 20 30,https://www.zdravniki-zobozdravniki.net/clan/Ljiljana-KREZOVIC-LOVKO-293/
255,3815618,KRIŽAJ STORITVE D.O.O.,IZPOSTAVA GROSUPLJE,Slomškova ulica 17,1000 Ljubljana,Ljubljana,Četrtna skupnost Center,Ljubljana,46.05559,14.5127,,https://klinikakrizaj.si/
256,3156072,KRIŽAJ ZILJANA - ORDINACIJA GINEKOLOGIJE IN PORODNIŠTVA,OE LJUBLJANA,Cesta v Mestni log 55,1000 Ljubljana,Ljubljana,Četrtna skupnost Trnovo,Ljubljana,46.0362,14.48957,(01) 283 42 98,https://www.ginekolog-ljubljana.si/
257,3092034,KRSTINIĆ GORAN - ZOBOZDRAVSTVO ODRASLIH,IZPOSTAVA LITIJA,Partizanska pot 8A,1270 Litija,Litija,Mestna skupnost Litija,Litija,46.05389,14.83656,,http://zobozdravstvo-dikic-krstinic.si/
258,5688170,"KSP DENT, ZOBOZDRAVSTVENE STORITVE, D.O.O.",IZPOSTAVA LENART,Maistrova ulica 22,2230 Lenart v Slov. goricah,Lenart v Slov. goricah,Lenart,Lenart,46.57734,15.82896,(02) 720 64 33,https://www.zdravniki-zobozdravniki.net/clan/Katja-SESTANJ-PUKLAVEC-1593/
259,3121963,KULAŠEVIĆ SINIŠA - ZOBOZDRAVSTVENA ORDINACIJA,IZPOSTAVA TREBNJE,Šentrupert 124,8232 Šentrupert,Šentrupert,,Šentrupert,45.9768,15.0885,07 343 40 90,http://www.cakalnedobe.si/ambulante/kulasevic-sinisa-zobozdravstvena-ordinacija-zobozdravstvena-dejavnost/
260,3095931,KUSANOVIĆ JADRANKO - ZOBNI ATELJE - ZASEBNA ZOBOZDRAVSTVENA AMBULANTA ZA ODRASLE,IZPOSTAVA PTUJ,Volkmerjeva cesta 63,2250 Ptuj,Ptuj,"Četrt Ljudski vrt, Rimska ploščad 24",Ptuj,46.43203,15.86728,(02) 778 75 91,https://www.cakalnedobe.si/ambulante/kusanovic-jadranko-zobni-atelje
261,2905274,KUZMANOVIĆ ČEDOMIR - ZASEBNI ZOBOZDRAVNIK,IZPOSTAVA TREBNJE,Gubčeva cesta 9A,8210 Trebnje,Trebnje,Trebnje,Trebnje,45.90828,15.00976,07 346 13 90,http://www.cakalnedobe.si/ambulante/kuzmanovic-cedomir-zasebni-zobozdravnik-zobozdravstvena-dejavnost/
262,4492625,KUŠAR PRIMOŽ - AMBULANTA DRUŽINSKE MEDICINE POLHOV GRADEC,OE LJUBLJANA,Polhov Gradec 13,1355 Polhov Gradec,Polhov Gradec,Polhov Gradec,Dobrova-Polhov Gradec,46.06521,14.31457,01 364 03 36,https://www.zdravniki-zobozdravniki.net/
263,3078187,LAKOVIČ-BOSSMAN KARMEN - ZASEBNA SPECIALISTIČNA AMBULANTA SPLOŠNE MEDICINE,IZPOSTAVA PIRAN,Seča 197A,6320 Portorož - Portorose,Seča,Lucija,Piran,45.50205,13.60181,082 003 022,https://www.karmenlakovicbossman.com/
264,4223803,"LANTANA - ZDRAVSTVENE STORITVE, D.O.O.",IZPOSTAVA LITIJA,Zasavska cesta 3,1270 Litija,Litija,Mestna skupnost Litija,Litija,46.05899,14.83352,01 898 11 93,http://www.lantana.si
265,4191861,"LARA MED, PODJETJE ZA ZDRAVSTVENE STORITVE, D.O.O.",IZPOSTAVA SLOVENSKE KONJICE,Dobroveljska cesta 1,3214 Zreče,Zreče,Zreče,Zreče,46.36625,15.39544,03 757 65 50,http://laramed.si/
266,3137288,LAVRENČIČ DAROSLAV DARKO - ZASEBNA SPLOŠNA AMBULANTA,IZPOSTAVA VRHNIKA,Cesta 6. maja 11,1360 Vrhnika,Vrhnika,Vrhnika Center,Vrhnika,45.96278,14.29358,041 642 240,https://www.med-lavrencic.si
267,6615558,LC DENT ZOBOZDRAVSTVO D.O.O.,IZPOSTAVA RADOVLJICA,Dolina 12,4248 Lesce,Lesce,Lesce,Radovljica,46.35462,14.15573,,http://www.zobozdravnik-cvetek.si
268,4489797,"LE-AN DENT, ZASEBNA ZOBNA ORDINACIJA, D.O.O.",IZPOSTAVA TRŽIČ,Blejska cesta 10,4290 Tržič,Tržič,Tržič - mesto,Tržič,46.36361,14.30654,,http://www.zobozdravstvo-marin.si
269,4413326,"LEGAT DENT, ZOBOZDRAVSTVENE STORITVE D.O.O.",IZPOSTAVA VRHNIKA,Cesta na polje 2,1358 Log pri Brezovici,Log pri Brezovici,,Log-Dragomer,46.00732,14.35305,,http://www.legatdent.si/
270,639081,"LEONARDO, RAZVOJ, RAZISKAVE, TRGOVINA IN STORITVE, D.O.O., KRANJ",OE LJUBLJANA,Storžiška ulica 4,4000 Kranj,Kranj,Orehek - Drulovka,Kranj,46.21864,14.37676,,
271,4705430,"LEP NASMEH, ZOBOZDRAVSTVENO PODJETJE D.O.O.",IZPOSTAVA PTUJ,Potrčeva cesta 33,2250 Ptuj,Ptuj,"Četrt Ljudski vrt, Rimska ploščad 24",Ptuj,46.4266,15.87898,(02) 766 82 91,https://www.zdravniki-zobozdravniki.net/clan/Stjepan-PINTARIC-655/
272,3719400,"LESKOVEC, STORITVE, D.O.O.",IZPOSTAVA KAMNIK,Plešičeva ulica 15,1000 Ljubljana,Ljubljana,Četrtna skupnost Dravlje,Ljubljana,46.08009,14.46711,070 677 500,
273,2954682,LEVAK - HOZJAN SONJA - ZASEBNA GINEKOLOŠKA AMBULANTA,IZPOSTAVA VELENJE,Vodnikova cesta 1,3320 Velenje,Velenje,Velenje - desni breg,Velenje,46.36151,15.11636,(03) 897 29 30,http://www.ginekologija-levak.si
274,5699280,"LILIMED, ZUNAJBOLNIŠNIČNA ZDRAVSTVENA DEJAVNOST IN TRGOVINA, D.O.O.",IZPOSTAVA PTUJ,Breg 6A,2322 Majšperk,Breg,Krajevna skupnost Majšperk,Majšperk,46.33947,15.73623,(02) 794 51 01,https://zdravniki-zobozdravniki.net/Clan/Liljana-JOVANOVIC-699
275,3124393,LOBNIK - GOMILŠEK BOJANA - DOKTOR STOMATOLOGIJE,OE MARIBOR,Nova ulica 5,2327 Rače,Rače,Rače,Rače-Fram,46.45384,15.67405,(02) 609 50 30,https://www.zdravniki-zobozdravniki.net/clan/Bojana-LOBNIK-GOMILSEK-634/
276,2665878,LOGAR-DERNIČ TJAŠA - ZOBNA AMBULANTA,OE KOPER,Staničev trg 1,6000 Koper - Capodistria,Koper,Koper - Center,Koper,45.54603,13.72777,"(05) 626 02 88, 041 896 978",https://www.cakalnedobe.si/ambulante/logar-dernic-tjasa-zobna-ambulanta-zobozdravstvena-dejavnost/
277,2663360,LOLIĆ DAMIR - AMBULANTA SPLOŠNE MEDICINE,IZPOSTAVA KOČEVJE,Roška cesta 18,1330 Kočevje,Kočevje,Kočevje-mesto,Kočevje,45.63938,14.86562,01/893 15 26,https://www.zdkocevje.si/portfolio-view/lolic-damir-spec-druz-med/
278,2905806,LOLIČ VERICA - ORDINACIJA SPLOŠNE MEDICINE,IZPOSTAVA KOČEVJE,Roška cesta 22,1330 Kočevje,Kočevje,Kočevje-mesto,Kočevje,45.64005,14.86716,01 893 02 47,https://www.zdkocevje.si/portfolio-view/dr-verica-lolic/
279,3445498,LOVREC ANDREJ - DOKTOR MEDICINE,OE MARIBOR,Pupinova ulica 2,2000 Maribor,Maribor,Magdalena,Maribor,46.55272,15.64503,(02) 250 24 83,https://zdravniki-zobozdravniki.net/Clan/Andrej-LOVREC-716
280,3630991,LOVŠIN URŠKA - ZOBOZDRAVSTVENA ORDINACIJA,IZPOSTAVA LITIJA,Partizanska pot 8A,1270 Litija,Litija,Mestna skupnost Litija,Litija,46.05389,14.83656,,
281,3123489,LOŽAR OLGA - SPLOŠNA AMBULANTA ZGORNJE JARŠE,IZPOSTAVA DOMŽALE,Kamniška cesta 24,1235 Radomlje,Preserje pri Radomljah,Preserje,Domžale,46.168,14.5949,01 721 00 90,https://www.zdravniki-zobozdravniki.net/clan/Olga-LOZAR-337/
282,3092693,LUKAČ MIRKO - ZOBNA AMBULANTA,IZPOSTAVA LENDAVA,Mlinska ulica 6E,9220 Lendava - Lendva,Lendava,Lendava,Lendava,46.56214,16.45301,,http://www.zobozdravniki-pomurja.si
283,3122972,LUKIČ MERELA ANA - ZOBOZDRAVSTVENA AMBULANTA,IZPOSTAVA DOMŽALE,Pelechova cesta 18,1235 Radomlje,Preserje pri Radomljah,Preserje,Domžale,46.16801,14.59744,,
284,3124484,LUPŠE - ŠTAMPAR JASNA - DEJAVNOST SPLOŠNE MEDICINE,OE MARIBOR,Partizanska cesta 59,2000 Maribor,Maribor,Ivan Cankar,Maribor,46.56358,15.6579,(02) 250 17 20,https://www.zdravniki-zobozdravniki.net/clan/Jasna-LUPSE-STAMPAR-243/
285,3122466,LUŽNIK PETER - DOKTOR STOMATOLOGIJE,IZPOSTAVA SLOVENJ GRADEC,Prešernova ulica 3C,2380 Slovenj Gradec,Slovenj Gradec,Legen-mesto,Slovenj Gradec,46.51484,15.0839,(02) 884 29 33,http://orodent.si/zobna.html
286,4682913,"M-MEDIKO, ZOBOZDRAVSTVENA IN ZDRAVSTVENA DEJAVNOST, D.O.O.",IZPOSTAVA TRBOVLJE,Cesta 9. avgusta 8B,1410 Zagorje ob Savi,Zagorje ob Savi,Jože Marn,Zagorje ob Savi,46.13429,14.99599,,http://www.m-mediko.si/trbovlje
287,6610456,"MADENS, ZOBOZDRAVSTVO IN DRUGE STORITVE, D.O.O.",OE MARIBOR,Železnikova ulica 4,2000 Maribor,Maribor,Pobrežje,Maribor,46.55037,15.66738,(02) 601 71 00,http://www.madens.eu/slo/domov/index.html?id=30
288,6119110,MAEDENTIS NEVENA JOSIPOVIĆ DR.DENT.MED.,OE MARIBOR,Dvořakova ulica 10,2000 Maribor,Maribor,Magdalena,Maribor,46.55362,15.64424,031 240 782,http://www.mae-dentis.si; www.slovenski-zobozdravniki.si/nevena-josipovic
289,4617825,"MAG. VOJIN RAŠIĆ, DDM ZASEBNA ZOBNA ORDINACIJA",IZPOSTAVA ZAGORJE,Cesta zmage 1,1410 Zagorje ob Savi,Zagorje ob Savi,Jože Marn,Zagorje ob Savi,46.13384,14.9957,,
290,3137980,MAJC MARTINA - ZOBOZDRAVSTVENA ORDINACIJA,OE KRANJ,Gosposvetska ulica 10A,4000 Kranj,Kranj,Zlato polje,Kranj,46.24862,14.35322,,http://www.slovenski-zobozdravniki.si/martina-majc
291,5918513,"MAJOMA, ZOBOZDRAVSTVENE STORITVE, D.O.O.",OE MARIBOR,Betettova ulica 11,2000 Maribor,Maribor,Nova vas,Maribor,46.54059,15.63068,(02) 331 11 73,https://www.zdravniki-zobozdravniki.net/clan/Marija-MARKOLI-JOVANOVIC-758/
292,3759150,MALINGER MARTIN LUKA DR.STOM. - STOMATOLOŠKA ORDINACIJA,OE CELJE,Lava 7,3000 Celje,Celje,Medlog,Celje,46.24025,15.25318,040 559 959,http://www.slovenski-zobozdravniki.si/martin-luka-malinger
293,5759719,"MAMELON, ZOBOZDRAVSTVENA OSKRBA IN STORITVE D.O.O.",OE MURSKA SOBOTA,Plese 2,9000 Murska Sobota,Murska Sobota,Ledava,Murska Sobota,46.65833,16.1761,,http://www.zobozdravniki-pomurja.si/profil/6/opis.html
294,5104781,"MARDENS ZDRAVSTVO, TRGOVINA, GOSTINSTVO, STORITVE D.O.O.",IZPOSTAVA LENART,Ilaunigova ulica 15,2230 Lenart v Slov. goricah,Lenart v Slov. goricah,Lenart,Lenart,46.57697,15.82809,(02) 729 29 55,https://www.zdravniki-zobozdravniki.net/clan/Sabina-MARKOLI-756/
295,4227273,"MARGITA ZUPANC PORENTA, DR. DENT. MED. ZASEBNA ZOBNA ORDINACIJA",IZPOSTAVA JESENICE,Selo pri Žirovnici 8A,4274 Žirovnica,Selo pri Žirovnici,,Žirovnica,46.40034,14.14153,,http://zdravniki-zobozdravniki.net
296,3970019,"MARIDENT, STOMATOLOŠKA ORDINACIJA IN ZOBNI LABORATORIJ D.O.O.",IZPOSTAVA PIRAN,Istrska cesta 89B,6000 Koper - Capodistria,Koper,Žusterna,Koper,45.54636,13.70418,052 674 10 18,http://www.marident.si
297,8113236,MARIJA UJEVIĆ ŠALKOVIĆ - ZOBOZDRAVSTVENA DEJAVNOST,IZPOSTAVA ŠKOFJA LOKA,Racovnik 29,4228 Železniki,Železniki,Železniki,Železniki,46.22219,14.15786,,http://zobozdravstvo-salkovic.com/
298,3858088,MARKELJ MIHA - ZOBNA ORDINACIJA VIDEM,IZPOSTAVA GROSUPLJE,Videm 37A,1312 Videm - Dobrepolje,Videm,Videm,Dobrepolje,45.84819,14.69546,,
299,3193617,MARČUN MATEJA - ZASEBNA ZOBOZDRAVSTVENA ORDINACIJA,OE KRANJ,Pipanova cesta 43,4208 Šenčur,Šenčur,Šenčur,Šenčur,46.2486,14.41889,,https://www.zdravniki-zobozdravniki.net/clan/Mateja-MARCUN-724/
300,1950560,MATANIČ JASENKA - ZOBOZDRAVNIK,IZPOSTAVA IZOLA,Prešernova cesta 53,6310 Izola - Isola,Izola,Livade,Izola,45.53019,13.65195,05 640 40 40,http://zobozdravnik-matanic.com
301,3219790,MATEK IVAN - ZASEBNA ZOBNA AMBULANTA,IZPOSTAVA ŽALEC,Petrovče 95,3301 Petrovče,Petrovče,Petrovče,Žalec,46.24465,15.18767,03 710 15 50,http://www.matek.si
302,5934315,"MATRIKS V&R, ZOBOZDRAVSTVENE STORITVE, D.O.O.",IZPOSTAVA TOLMIN,Trg maršala Tita 7,5220 Tolmin,Tolmin,Tolmin,Tolmin,46.183,13.73269,,https://www.matriks.si
303,3864017,MC KAC DISPANZER ZA OTROKE IN MLADOSTNIKE D.O.O.,IZPOSTAVA SLOVENJ GRADEC,Partizanska pot 16,2380 Slovenj Gradec,Slovenj Gradec,Center,Slovenj Gradec,46.50693,15.08202,(02) 882 98 76,http://www.mckac.si/
304,724054,"MD MEDICINA, ZDRAVSTVENE IN DRUGE STORITVE, D.O.O.",OE LJUBLJANA,Bohoričeva ulica 5,1000 Ljubljana,Ljubljana,Četrtna skupnost Center,Ljubljana,46.05543,14.52005,,http://www.md-medicina.si
305,,"MDENT, ZOBOZDRAVSTVENE STORITVE, MIHAJLO FRANGOV S.P.",IZPOSTAVA SLOVENJ GRADEC,Trg svobode 18A,2390 Ravne na Koroškem,Ravne na Koroškem,TRG,Ravne na Koroškem,46.54428,14.96559,,
306,5091800,"MEDENS, ZOBOZDRAVSTVENA DEJAVNOST IN DRUGE ZDRAVSTVENE DEJAVNOSTI D.O.O.",IZPOSTAVA MOZIRJE,Savinjska cesta 6,3330 Mozirje,Mozirje,Mozirje,Mozirje,46.33885,14.95935,(03) 839 53 40,http://medens.si/
307,2681670,"MEDI CENTER ZDRAVSTVENI CENTER, D.O.O.",OE LJUBLJANA,Topniška ulica 4,1000 Ljubljana,Ljubljana,Četrtna skupnost Bežigrad,Ljubljana,46.0674,14.51179,,
308,4224155,"MEDIARH, PODJETJE ZA ZDRAVSTVENE IN PROJEKTANTSKE STORITVE D.O.O.",OE RAVNE NA KOROŠKEM,Ob Suhodolnici 31,2380 Slovenj Gradec,Slovenj Gradec,Štibuh,Slovenj Gradec,46.50331,15.0727,02 87 23 440,http://www.mediarh.si
309,6038809,"MEDICA PRIMA, ZDRAVSTVENE STORITVE, SVETOVANJE, TRGOVINA, D.O.O.",OE MARIBOR,Na trati 2,2000 Maribor,Maribor,Brezje-Dogoše-Zrkovci,Maribor,46.53586,15.68739,(02) 461 73 29,http://ambulanta-brezje.si/
310,3744645,"MEDICARD SPECIALISTIČNA ORDINACIJA ZA VARSTVO OTROK, ŠOLSKE MLADINE IN ODRASLIH D.O.O.",OE RAVNE NA KOROŠKEM,Trg 4. julija 4,2370 Dravograd,Dravograd,Dravograd,Dravograd,46.58962,15.0247,(02) 872 34 47,https://ezdravnik.si/zdravnik/medicard/
311,6024723,"MEDICINA ILJAŽ,STORITVE, D.O.O.",IZPOSTAVA BREŽICE,Bizeljska cesta 104,8259 Bizeljsko,Bizeljsko,Bizeljsko,Brežice,46.02057,15.69163,"08 20 17 494, 07 49 65 032",https://www.iljaz.si/
312,4617140,"MEDICINA MLINAR, SPLOŠNA MEDICINA, D.O.O.",OE NOVA GORICA,Srebrničeva ulica 31,5210 Deskle,Deskle,Anhovo-Deskle,Kanal,46.05307,13.61428,,https://www.medicinamlinar.si/
313,3346923,"MEDICINA STOPAR ALOJZ DR.MED. S.P., ZASEBNA AMBULANTA SPLOŠNE MEDICINE",IZPOSTAVA SEVNICA,Krmelj 53,8296 Krmelj,Krmelj,Krmelj,Sevnica,45.98651,15.18517,(07) 818 41 34,https://www.zd-sevnica.si/zdravstvena-postaja-krmelj/druzinska-medicina/alojz-stopar-dr-med
314,3095581,MEDICINA VIVAMED IZUDIN KANLIČ DR MED,IZPOSTAVA PTUJ,Osojnikova cesta 9,2250 Ptuj,Ptuj,"Četrt Center,Jadranska ulica 6",Ptuj,46.42061,15.87558,(02) 779 07 91,https://www.zdravniki-zobozdravniki.net/clan/Izudin-KANLIC-1156/
315,5751520,"MEDICINSKE STORITVE A MEDICA, D.O.O.",OE MURSKA SOBOTA,Trstenjakova ulica 34,9000 Murska Sobota,Murska Sobota,Partizan,Murska Sobota,46.65416,16.16627,,http://www.a-medica.si
316,3270251,MEDICINSKI CENTER GORJANC,OE RAVNE NA KOROŠKEM,Trg 32,2391 Prevalje,Prevalje,,Prevalje,46.54497,14.91429,(02) 824 06 60,http://www.gorjanc.si
317,3742323,"MEDICINSKI CENTER KRKA, D.O.O.",OE NOVO MESTO,Šmarješka cesta 4,8000 Novo mesto,Novo mesto,Krajevna skupnost Ločna-Mačkovec,Novo mesto,45.81476,15.178,07 292 70 00,http://www.mc-krka.si
318,4351480,"MEDICINSKI CENTER MIRJAM VIDE KATIČ, DR. MED., SPEC. SPL. MED.",OE NOVO MESTO,Škocjan 67,8275 Škocjan,Škocjan,,Škocjan,45.90725,15.28993,07 307 61 02,http://www.zdravniki-zobozdravniki.net/clan/Mirjam-VIDE-KATIC-1080/
319,4108629,"MEDICINSKI CENTER ŽELJKO HALAPIJA AMBULANTA MEDICINE DELA, PROMETA IN ŠPORTA IN SPLOŠNA AMBULANTA D.O.O. SEVNICA",IZPOSTAVA SEVNICA,Trg svobode 14,8290 Sevnica,Sevnica,Sevnica,Sevnica,46.0106,15.30248,07 81 61 529,https://www.zd-sevnica.si/druzinska-medicina/zeljko-halapija-dr-med
320,787045,"MEDICO - DENTES, ZOBOZDRAVSTVENA DEJAVNOST, D.O.O.",OE LJUBLJANA,Vodovodna cesta 109,1000 Ljubljana,Ljubljana,Četrtna skupnost Šiška,Ljubljana,46.07871,14.50194,,
321,4208691,"MEDICODENT, ZOBOZDRAVSTVENE STORITVE D.O.O.",OE RAVNE NA KOROŠKEM,Mariborska cesta 38,2370 Dravograd,Dravograd,Dravograd,Dravograd,46.59024,15.02867,(02) 871 04 60,http://www.medicodent.si
322,657070,MEDICUS PARTNER ZDRAVSTVENE STORITVE D.O.O.,IZPOSTAVA TOLMIN,Dijaška ulica 12,5220 Tolmin,Tolmin,Tolmin,Tolmin,46.18062,13.73435,,http://www.medicuspartner.si
323,4221648,"MEDIKMIKO, STORITVE IN SVETOVANJE D.O.O.",OE CELJE,Zadobrova 49B,3211 Škofja vas,Zadobrova,Škofja vas,Celje,46.25981,15.29581,03 543 42 31,http://www.medikmiko.si
324,5089080,"MEDIKUS, ZDRAVSTVENA DEJAVNOST, D.O.O.",OE MARIBOR,Cesta k Dravi 8,2241 Spodnji Duplek,Spodnji Duplek,Spodnji Duplek,Duplek,46.50113,15.74875,02 620 24 80,https://medikus.si/
325,4234273,"MEDIM, AMBULANTA DRUŽINSKE MEDICINE IN OSTALE STORITVE, D.O.O.",IZPOSTAVA ŠKOFJA LOKA,Reteče 154,4220 Škofja Loka,Reteče,Reteče - Gorenja vas,Škofja Loka,46.15978,14.36722,04 511 17 17,http://www.medim.si
326,6485376,"MEDIZOB, ZOBOZDRAVSTVENA DEJAVNOST, D.O.O.",OE MARIBOR,Stadionska ulica 4,2342 Ruše,Ruše,,Ruše,46.54277,15.50623,(05) 995 39 49,https://www.medizob.si/
327,3122560,MEHLE NENAD - DOKTOR STOMATOLOGIJE,IZPOSTAVA ŠMARJE PRI JELŠAH,Kidričeva ulica 53,3250 Rogaška Slatina,Rogaška Slatina,Rogaška Slatina,Rogaška Slatina,46.22564,15.64458,03 581 55 00,http://www.zobna-mehle.si
328,4350285,MEL DENT ZASEBNE ZOBOZDRAVSTVENE IN DRUGE STORITVE D.O.O.,OE KRANJ,Ulica Juleta Gabrovška 19,4000 Kranj,Kranj,Bratov Smuk,Kranj,46.23974,14.36458,,http://www.slovenski-zobozdravniki.si/melita-franko
329,6098929,MELADENS STORITVE IN SVETOVANJE D.O.O.,IZPOSTAVA ŽALEC,Vransko 130D,3305 Vransko,Vransko,,Vransko,46.24591,14.95101,(03) 705 50 00,https://www.meladens.com/
330,6273647,"MELANIJA NIKIĆ GAČEŠA - ZASEBNA ZDRAVNICA, AMBULANTA DRUŽINSKE MEDICINE",OE LJUBLJANA,Zoranina ulica 3,1234 Mengeš,Mengeš,,Mengeš,46.16207,14.571,01 724 39 90,http://www.ambulantagacesa.si
331,8195821,"MENS MEDICA, ZDRAVSTVENE IN DRUGE STORITVE, D.O.O.",OE MARIBOR,Žolgarjeva ulica 14,2000 Maribor,Maribor,Magdalena,Maribor,46.54949,15.6417,(02) 614 02 96,
332,4487384,"MERIDIUS TOP, ZDRAVSTVENE IN ZOBOZDRAVSTVENE STORITVE, D.O.O.",OE MARIBOR,Cesta na Žavcerja 15,2354 Bresternica,Jelovec,Bresternica-Gaj,Maribor,46.56716,15.571,031 296 188,http://aidadental.si/
333,2988942,METLIČAR ANTON - DOKTOR STOMATOLOGIJE,OE NOVA GORICA,Ulica tolminskih puntarjev 4,5000 Nova Gorica,Nova Gorica,Krajevna skupnost Nova Gorica,Nova Gorica,45.95594,13.64904,,https://www.mojzobozdravnik.net/item/stomatoloska-ambulanta-anton-metlicar-dr-stom/
334,4494860,"MEVITA - ZASEBNA AMBULANTA SPLOŠNE MEDICINE META ČAMPA, DR. MED., SPEC. SPL. MED.",OE NOVO MESTO,Ulica Maksa Henigmana 57,8350 Dolenjske Toplice,Dolenjske Toplice,,Dolenjske Toplice,45.75493,15.06221,07 306 68 70,http://www.zdravniki-zobozdravniki.net/clan/Meta-CAMPA-1215/
335,3211475,MIJATOVIČ JOVAN - ZOBNA AMBULANTA,IZPOSTAVA KAMNIK,Laze v Tuhinju 29,1219 Laze v Tuhinju,Laze v Tuhinju,Tuhinj,Kamnik,46.21946,14.75656,,https://www.zdravniki-zobozdravniki.net/clan/Jovan-MIJATOVIC-246/
336,4138966,MIKMAR DRUŽBA ZA TRGOVINO IN STORITVE D.O.O.,OE MARIBOR,Kettejeva ulica 14,2000 Maribor,Maribor,Tabor,Maribor,46.54801,15.63859,02 320 24 93,https://www.zdravniki-zobozdravniki.net/clan/Branka-ILJADICA-MIKECIN-615/
337,2954665,MILAKOVIĆ RANKO - DEJAVNOST SPLOŠNE MEDICINE,IZPOSTAVA SLOVENSKA BISTRICA,Kolodvorska ulica 3,2331 Pragersko,Pragersko,Pragersko,Slovenska Bistrica,46.39521,15.66135,(02) 803 91 36,http://ambulanta-pragersko.si/
338,3790740,"MILUMED, ZDRAVSTVENE STORITVE D.O.O.",IZPOSTAVA PTUJ,Langusova ulica 8,2250 Ptuj,Ptuj,"Četrt Ljudski vrt, Rimska ploščad 24",Ptuj,46.43101,15.88301,(02) 780 09 30,https://ginekologija-lukman.si/
339,4110090,"MLADINSKO ZOBOZDRAVSTVO MOIDENT NATALIJA DONAJ MAGAŠIĆ, DR. DENT. MED.",IZPOSTAVA RADLJE OB DRAVI,Mladinska ulica 17,2367 Vuzenica,Vuzenica,,Vuzenica,46.59873,15.1644,(02) 876 48 55,http://www.slovenski-zobozdravniki.si/mladinsko-zobozdravstvo-moident
340,4222032,"MLADINSKO ZOBOZDRAVSTVO TANJA RIHTAR, DR. DENT. MED.",OE NOVO MESTO,Kandijska cesta 4,8000 Novo mesto,Novo mesto,Krajevna skupnost Drska,Novo mesto,45.80129,15.1627,07 332 40 30,http://www.zdravniki-zobozdravniki.net/clan/Tanja-RIHTAR-990/
341,3759652,MLINARIČ MARKO - GINEKOLOG IN PORODNIČAR,IZPOSTAVA ZAGORJE,Cesta zmage 1,1410 Zagorje ob Savi,Zagorje ob Savi,Jože Marn,Zagorje ob Savi,46.13384,14.9957,03 565 50 38,https://www.ginekoloska-ambulanta.si/
342,4975642,MOJCA KOS - ZASEBNA SPLOŠNA AMBULANTA,OE MARIBOR,Kalohova ulica 18,2000 Maribor,Maribor,Studenci,Maribor,46.55507,15.61747,(02) 429 00 90,https://www.zdravniki-zobozdravniki.net/clan/Mojca-KOS-444/
343,7956514,"MOJCA ZUPANČIČ, DR.DENT.MED. - ZASEBNI ZOBOZDRAVNIK",OE NOVO MESTO,Mušičeva ulica 2,8000 Novo mesto,Novo mesto,Krajevna skupnost Kandija - Grm,Novo mesto,45.79951,15.17239,041 764 400,http://www.doktor-mojca.si
344,4204411,MOLAR ZOBNA AMBULANTA D.O.O.,IZPOSTAVA PTUJ,Potrčeva cesta 17,2250 Ptuj,Ptuj,"Četrt Center,Jadranska ulica 6",Ptuj,46.42485,15.87672,02 779 23 11,https://zdravniki-zobozdravniki.net/Clan/Majda-ZORKO-725
345,3435198,"NAGLIDENT, DRUŽBA ZA ZOBOZDRAVSTVENE IN OSTALE STORITVE, D.O.O.",IZPOSTAVA TRŽIČ,Predilniška cesta 6,4290 Tržič,Tržič,Tržič - mesto,Tržič,46.36187,14.30768,,
346,4110908,"NAL, ZOBOZDRAVSTVENA DEJAVNOST, D.O.O.",IZPOSTAVA ŠKOFJA LOKA,Podgornikova ulica 1,1000 Ljubljana,Ljubljana,Četrtna skupnost Šiška,Ljubljana,46.07375,14.47954,,http://www.nal.si
347,3727990,NASMEH ZOBOZDRAVSTVO ZOBOZDRAVSTVENE STORITVE D.O.O.,OE NOVO MESTO,Kandijska cesta 62,8000 Novo mesto,Novo mesto,Krajevna skupnost Žabja vas,Novo mesto,45.79919,15.17787,07 332 20 10,http://www.nasmehzobozdravstvo.wordpress.com
348,7956636,"NATAŠA ŠLAJKOVEC, ZASEBNI ZOBOZDRAVNIK",OE NOVO MESTO,Šmarjeta 66,8220 Šmarješke Toplice,Šmarjeta,,Šmarješke Toplice,45.88826,15.24703,07 384 41 68,http://www.ordinacija-slajkovec.si
349,3155825,NEMEC VLADIMIR - ZASEBNA ZOBNA ORDINACIJA,IZPOSTAVA LJUTOMER,Moravci v Slov. goricah 34B,9243 Mala Nedelja,Moravci v Slov. goricah,Mala Nedelja,Ljutomer,46.51465,16.05219,,http://www.zobozdravniki-pomurja.si/profil/25/opis.html
350,3962520,"NEŠKOVIĆ DANKA, DR. DENT. MED. - ZASEBNA STOMATOLOŠKA ORDINACIJA",IZPOSTAVA KOČEVJE,Ljubljanska cesta 19,1330 Kočevje,Kočevje,Kočevje-mesto,Kočevje,45.64149,14.85688,(01) 895 48 19,
351,4108680,"NIKA PODBREGAR, DR.DENT.MED. - ZASEBNA ZOBNA AMBULANTA",IZPOSTAVA ŽALEC,Prešernova ulica 6,3310 Žalec,Žalec,Mestna skupnost Žalec,Žalec,46.25093,15.16216,(03) 710 05 75,http://www.ambulanta-podbregar.si/
352,3112823,NIKIČ ALENKA - DOKTOR STOMATOLOGIJE,OE NOVO MESTO,Trubarjeva cesta 5,8310 Šentjernej,Šentjernej,Šentjernej,Šentjernej,45.84409,15.33708,07 337 39 80,http://www.cakalnedobe.si/ambulante/nikic-alenka-doktor-stomatologije-zobozdravstvena-dejavnost/
353,4527321,"NIKL KRAVOS, ZDRAVSTVENA DEJAVNOST, PROIZVODNJA, TRGOVINA, GOSTINSTVO IN STORITVE, D.O.O.",OE MARIBOR,Tomšičeva ulica 6,2000 Maribor,Maribor,Ivan Cankar,Maribor,46.5654,15.6509,082 056 876,http://niklkravos.com/Mira/Splosna.html
354,2929862,NIKOLIČ LILJANA - ZASEBNA ZOBNA ORDINACIJA - NIKOLIĆ LILJANA,IZPOSTAVA BREŽICE,Ulica Stanka Škalerja 29,8250 Brežice,Brežice,Zakot-Bukošek-Trnje,Brežice,45.90939,15.59756,(07) 499 36 75,https://www.zobozdravnik-brezice.si/
355,7012374,"NINA LOKOVŠEK, AMBULANTA DRUŽINSKE MEDICINE",OE LJUBLJANA,Podpeška cesta 380,1357 Notranje Gorice,Notranje Gorice,Notranje Gorice,Brezovica,45.98948,14.40273,082 003 085,https://www.ambulanta-lokovsek.si/
356,4344874,"NIVES KREBELJ ŠKOF, DR.DENT.MED., ZOBNA AMBULANTA OLMO",OE KOPER,Cesta na Markovec 1,6000 Koper - Capodistria,Koper,Olmo-Prisoje,Koper,45.53529,13.72805,05 664 74 19,https://www.zdravniki-zobozdravniki.net/clan/Nives-KREBELJ-SKOF-1038/
357,4527170,"NO DOL, ZOBOZDRAVSTVENE IN PROTIBOLEČINSKE STORITVE, D.O.O.",IZPOSTAVA PTUJ,Trnovska vas 42A,2254 Trnovska vas,Trnovska vas,Vaška sk. Trnovska vas,Trnovska vas,46.51993,15.88594,02 757 00 22,http://www.slovenski-zobozdravniki.si/irena-skornik-kostanjevec
358,3662730,NORČIČ-BERCE ANDREJA - ZOBNA AMBULANTA,OE MURSKA SOBOTA,Cvetkova ulica 10,9000 Murska Sobota,Murska Sobota,Center,Murska Sobota,46.66089,16.16751,,http://www.zobozdravniki-pomurja.si/profil/13/opis.html
359,3859402,"NOVAK ZORAN - ZASEBNI ZDRAVNIK NA PODROČJU MEDICINE DELA , PROMETA IN ŠPORTA IN NA PODROČJU SPLOŠNE MEDICINE",OE MARIBOR,Prvomajska ulica 25,2000 Maribor,Maribor,Tezno,Maribor,46.53329,15.66758,(02) 426 02 12,https://zdravniki-zobozdravniki.net/Clan/Zoran-NOVAK-802
360,4223530,OBLAK - ZDOLŠEK JANJA DR.DENT.MED. ZOBOZDRAVSTENA ORDINACIJA,OE LJUBLJANA,Vilharjeva cesta 27,1000 Ljubljana,Ljubljana,Četrtna skupnost Bežigrad,Ljubljana,46.0602,14.51545,,https://www.zdravniki-zobozdravniki.net/clan/Janja-OBLAK--ZDOLSEK-1603/
361,4544865,OBRADOVIĆ ZDRAVSTVO ZDRAVSTVENE IN DRUGE STORITVE D.O.O.,OE KRŠKO,Cankarjeva ulica 3A,8270 Krško,Krško,Krško,Krško,45.95739,15.49688,074 880 227,https://www.obradovic.si/
362,3096100,OCEPEK-VEBER MOJCA - ZASEBNA ZOBNA AMBULANTA,OE CELJE,Cesta na Dobrovo 114,3000 Celje,Celje,Nova vas,Celje,46.25016,15.26509,03 491 35 30,http://www.slovenski-zobozdravniki.si/mojca-ocepek-veber
363,2660347,ODORČIĆ LIDIJA - ORDINACIJA SPLOŠNE MEDICINE,IZPOSTAVA KOČEVJE,Kekčeva ulica 3,1330 Kočevje,Kočevje,Kočevje-mesto,Kočevje,45.64144,14.85424,01 893 11 30,http://www.ordinacija-odorcic.com/
364,1565807,ODORČIĆ TIHOMIR - ORDINACIJA SPLOŠNE MEDICINE,IZPOSTAVA KOČEVJE,Kekčeva ulica 3,1330 Kočevje,Kočevje,Kočevje-mesto,Kočevje,45.64144,14.85424,01 8931130,http://www.ordinacija-odorcic.com/
365,3137209,OGRIN MARIJA - STOMATOLOGINJA,IZPOSTAVA VRHNIKA,Pod Hruševco 33,1360 Vrhnika,Vrhnika,Vrhnika Breg,Vrhnika,45.97336,14.29506,,
366,4352562,"ORDINACIJA DRUŽINSKE MEDICINE DANICA SIMONČIČ, DR. MED., SPEC. SPL. MED.",OE NOVO MESTO,Prvomajska cesta 5,8310 Šentjernej,Šentjernej,Šentjernej,Šentjernej,45.84414,15.33949,073 082 411,http://www.zdravniki-zobozdravniki.net/clan/Danica-SIMONCIC-1043/
367,6985310,"ORDINACIJA GAŠPERLIN DOVNIK, GINEKOLOGIJA IN DENZITOMETRIJA D.O.O.",OE CELJE,Jenkova ulica 20,3000 Celje,Celje,Dolgo polje,Celje,46.23594,15.26216,03 543 44 34,http://nuhalna-svetlina.com
368,4492045,"ORDINACIJA SPLOŠNE MEDICINE JASMINKA DUKIĆ, DR. MED. SPECIALIST SPLOŠNE MEDICINE",IZPOSTAVA LJUTOMER,Križevci pri Ljutomeru 34A,9242 Križevci pri Ljutomeru,Križevci pri Ljutomeru,,Križevci,46.56666,16.13705,,http://www.ordinacija-dukic.si
369,7290564,"ORDINACIJA SPLOŠNE MEDICINE MIRO VUKOVIĆ, DR. MED. SPEC. DRUŽ. MED.",IZPOSTAVA ČRNOMELJ,Delavska pot 4,8340 Črnomelj,Črnomelj,Črnomelj,Črnomelj,45.57549,15.18753,07 305 62 67,http://www.vukovic.pro
370,4523256,ORDINIJA ZDRAVSTVENA IN STORITVENA DEJAVNOST D.O.O.,OE MARIBOR,Pod hribom 12,2212 Šentilj v Slov. goricah,Šentilj v Slov. goricah,Šentilj,Šentilj,46.67974,15.65495,(02) 650 50 90,https://zdravniki-zobozdravniki.net/Clan/Maksimiljan-DAMJAN-447
371,6297075,"ORTO4U, ZOBOZDRAVSTVENA DEJAVNOST, D.O.O.",OE KRANJ,Ulica bratov Komel 25,1210 Ljubljana - Šentvid,Ljubljana,Četrtna skupnost Šentvid,Ljubljana,46.09548,14.47256,,http://ORTO4U D.O.O.
372,5104639,OSKAR IN BARBARA ZOBOZDRAVSTVENE STORITVE D.O.O.,OE KOPER,Ulica 15.maja 19,6000 Koper - Capodistria,Koper,Semedela,Koper,45.53713,13.72967,05 624 11 11,http://www.pepermint-dental.si
373,,"OSNOVNO ZDRAVSTVO GORENJSKE, OE ZDRAVSTVENI DOM BLED, ZDRAVSTVENI DOM BOHINJ",IZPOSTAVA RADOVLJICA,Mladinska cesta 1,4260 Bled,Bled,Bled,Bled,46.3714,14.10909,,
374,,"OSNOVNO ZDRAVSTVO GORENJSKE, OE ZDRAVSTVENI DOM JESENICE",IZPOSTAVA JESENICE,Cesta maršala Tita 78,4270 Jesenice,Jesenice,Plavž,Jesenice,46.44,14.04461,,
375,,"OSNOVNO ZDRAVSTVO GORENJSKE, OE ZDRAVSTVENI DOM KRANJ",OE KRANJ,Gosposvetska ulica 10,4000 Kranj,Kranj,Zlato polje,Kranj,46.2489,14.35325,,
376,,"OSNOVNO ZDRAVSTVO GORENJSKE, OE ZDRAVSTVENI DOM RADOVLJICA",IZPOSTAVA RADOVLJICA,Kopališka cesta 7,4240 Radovljica,Radovljica,Radovljica,Radovljica,46.34702,14.17201,,
377,,"OSNOVNO ZDRAVSTVO GORENJSKE, OE ZDRAVSTVENI DOM TRŽIČ",IZPOSTAVA TRŽIČ,Blejska cesta 10,4290 Tržič,Tržič,Tržič - mesto,Tržič,46.36361,14.30654,,
378,,"OSNOVNO ZDRAVSTVO GORENJSKE, OE ZDRAVSTVENI DOM ŠKOFJA LOKA",IZPOSTAVA ŠKOFJA LOKA,Stara cesta 10,4220 Škofja Loka,Škofja Loka,Kamnitnik,Škofja Loka,46.16618,14.31281,,
379,4341907,"OTROŠKA AMBULANTA MESNER, AMBULANTA ZA ZDRAVSTVENO VARSTVO OTROK D.O.O.",IZPOSTAVA SLOVENJ GRADEC,Partizanska pot 16,2380 Slovenj Gradec,Slovenj Gradec,Center,Slovenj Gradec,46.50693,15.08202,(02) 884 50 81,http://www.ambulanta-mesner.si/
380,7780044,"OTROŠKI ZDRAVNIK, ZDRAVSTVENA DEJAVNOST, D.O.O.",OE LJUBLJANA,Dolenja Brezovica 11,1352 Preserje,Dolenja Brezovica,Preserje,Brezovica,45.94773,14.42655,082 014 091,https://dzdravje.si/otroskizdravnik/
381,3112959,PALIČ ANDREJA - ZOBOZDRAVSTVO ODRASLIH,IZPOSTAVA ČRNOMELJ,Ulica Otona Župančiča 3,8340 Črnomelj,Črnomelj,Črnomelj,Črnomelj,45.57421,15.19108,07 30 51 453,http://www.cakalnedobe.si/ambulante/palic-andreja-zobozdravstvo-odraslih-zobozdravstvena-dejavnost/
382,3122526,PANJEK EDITA - DOKTOR STOMATOLOGIJE,IZPOSTAVA SLOVENJ GRADEC,Partizanska pot 16,2380 Slovenj Gradec,Slovenj Gradec,Center,Slovenj Gradec,46.50693,15.08202,(02) 884 10 88,https://www.zdravniki-zobozdravniki.net/
383,3112334,PAVLOVIĆ RADE - DOKTOR STOMATOLOGIJE,IZPOSTAVA JESENICE,Cesta maršala Tita 78,4270 Jesenice,Jesenice,Plavž,Jesenice,46.44,14.04461,,http://www.slovenski-zobozdravniki.si/rade-pavlovic
384,3861500,"PEDIATRIJA BORŠTNIKOVA, ZDRAVSTVENE STORITVE IN IZOBRAŽEVANJE, D.O.O.",OE MARIBOR,Borštnikova ulica 79,2000 Maribor,Maribor,Radvanje,Maribor,46.53511,15.62851,(02) 429 02 22,http://www.pediatrija.si/
385,5708833,PEDIATRIJA HELENA MOLE,OE LJUBLJANA,Cesta v Mestni log 55,1000 Ljubljana,Ljubljana,Četrtna skupnost Trnovo,Ljubljana,46.0362,14.48957,01 283 96 84,https://www.zdravniki-zobozdravniki.net/clan/Helena-MOLE-1286/
386,7015856,"PEDIATRIJA MOJCA ŠVAB ZAVRATNIK, DR. MED.",OE MARIBOR,Na soseski 14,2000 Maribor,Maribor,Nova vas,Maribor,46.53872,15.63408,(08) 200 26 65,http://www.pediatrija-sentilj.si/
387,4519019,"PEDIATRIJA, DRUŽBA ZA PREVENTIVO IN ZDRAVLJENJE OTROK, D.O.O.",OE MARIBOR,Kalohova ulica 18,2000 Maribor,Maribor,Studenci,Maribor,46.55507,15.61747,02 420 18 87,http://pediatrijakrebs.si/
388,5088847,"PEDIATRINJA SUZANA ŠKORJANC ANTOLIČ, ZDRAVSTVENA DEJAVNOST, D.O.O.",OE MARIBOR,Hrenova ulica 6,2000 Maribor,Maribor,Studenci,Maribor,46.55432,15.62367,(02) 429 09 11,https://pediatrinjasuzana.si/
389,5755570,"PEDIATRIČNA ORDINACIJA BARBARA DIETNER MERKAN, ZDRAVSTVENE STORITVE IN SVETOVANJE, D.O.O.",OE MARIBOR,Pobreška cesta 6,2000 Maribor,Maribor,Magdalena,Maribor,46.55441,15.64665,082 057 530,http://www.pediatrija-tezno.si/index.html
390,3097258,PEREZA IVAN - ZASEBNA ZOBNA AMBULANTA,IZPOSTAVA GORNJA RADGONA,Radgonska cesta 2,9252 Radenci,Radenci,KS RADENCI,Radenci,46.64125,16.04391,,http://www.zobozdravniki-pomurja.si
391,6961668,"PERUN MED, ZDRAVSTVENE STORITVE IN SVETOVANJE, D.O.O.",IZPOSTAVA POSTOJNA,Levstikova ulica 2,6210 Sežana,Sežana,Sežana,Sežana,45.7087,13.87106,05 75 73 199,http://www.ordinacija-dukic-pivka.net
392,3434877,PERŠIČ OJSTERŠEK ALENKA - ORDINACIJA SPLOŠNE MEDICINE,OE LJUBLJANA,Cesta v Mestni log 55,1000 Ljubljana,Ljubljana,Četrtna skupnost Trnovo,Ljubljana,46.0362,14.48957,(01)521 13 51,https://www.zdravniki-zobozdravniki.net/clan/Alenka-PERSIC-OJSTERSEK-737/
393,8016542,PETRINA KRAJNC REPA - ZASEBNA ZOBNA ORDINACIJA,OE MARIBOR,Korenska cesta 31,2241 Spodnji Duplek,Spodnji Duplek,Spodnji Duplek,Duplek,46.50402,15.75597,040/ 427-988,https://zasebna-zobna-ordinacija-petrina-krajnc-repa.business.site/
394,3168052,PETROVIČ MIRJANA - ZASEBNA ZOBNA AMBULANTA,OE MURSKA SOBOTA,Cankova 65B,9261 Cankova,Cankova,,Cankova,46.71858,16.0185,,http://www.zobozdravniki-pomurja.si
395,3435565,PEČNIK SANJA LUCIJA - ZOBOZDRAVNIŠKA ORDINACIJA,OE LJUBLJANA,Dunajska cesta 129,1000 Ljubljana,Ljubljana,Četrtna skupnost Bežigrad,Ljubljana,46.07794,14.51189,(01) 565 14 25,
396,3307417,PLEŠNAR CVIRN DAMJANA - AMBULANTA SPLOŠNE MEDICINE,IZPOSTAVA KAMNIK,Novi trg 26A,1241 Kamnik,Kamnik,Novi trg,Kamnik,46.22082,14.61321,(01) 839 15 98,http://www.medkam.com
397,3858179,POKERŽNIK PETER - ZASEBNI ZOBOZDRAVNIK,OE MARIBOR,Zrkovska cesta 67,2000 Maribor,Maribor,Pobrežje,Maribor,46.55598,15.67174,040/ 690 459,https://zdravniki-zobozdravniki.net/Clan/Peter-POKERZNIK-903
398,734107,"POLIKLINIKA AMBER, ZDRAVSTVENE STORITVE, D.O.O.",OE MARIBOR,Ljubljanska ulica 9,2000 Maribor,Maribor,Magdalena,Maribor,46.55337,15.64665,(02) 420 77 55,http://www.poliklinika-amber.si
399,3136373,POLIMAC DUŠAN - ZASEBNA ZDRAVNIŠKA ORDINACIJA,OE CELJE,Ulica bratov Vošnjakov 12,3000 Celje,Celje,Nova vas,Celje,46.24598,15.26429,(03) 490 49 00,http://poli.kozel.be/about-us/
400,4225667,POLJE HARMONIJE DRUŽBA ZA KAKOVOST ŽIVLJENJA D.O.O.,OE NOVO MESTO,Štefan pri Trebnjem 40,8210 Trebnje,Štefan pri Trebnjem,Štefan,Trebnje,45.90867,14.98839,07 332 30 66,http://www.poljeharmonije.si
401,3601740,POLJŠAK ALENKA - ZASEBNA ZOBNA ORDINACIJA,OE NOVA GORICA,Cesta Prekomorskih brigad 25,5290 Šempeter pri Gorici,Šempeter pri Gorici,,Šempeter-Vrtojba,45.93053,13.63792,,https://www.zdravniki-zobozdravniki.net/clan/Alenka-POLJSAK-762/
402,3647540,"POLO - DENT, ZOBOZDRAVSTVENA DEJAVNOST, D.O.O.",OE LJUBLJANA,Petkova ulica 16,1231 Ljubljana - Črnuče,Ljubljana,Četrtna skupnost Črnuče,Ljubljana,46.09907,14.52792,(01) 519 21 03,https://zemljevid.najdi.si/podjetje/1673831000/polo-dent-zobozdravstvena-dejavnost-doo
403,3181577,POTOKAR MOJCA - ZOBNA ORDINACIJA,OE LJUBLJANA,Zasavska cesta 95,1231 Ljubljana - Črnuče,Ljubljana,Četrtna skupnost Črnuče,Ljubljana,46.09189,14.57495,041/595 006,https://www.zdravniki-zobozdravniki.net/clan/Mojca-POTOKAR-600/
404,5603597,"POTOČNIK ŠPELA, DR. DENT. MED. ZASEBNA ZOBNA ORDINACIJA",OE LJUBLJANA,Dolsko 55,1262 Dol pri Ljubljani,Dolsko,Dolsko,Dol pri Ljubljani,46.09385,14.67776,,
405,4226463,"POTUŠEK KUHAR KATARINA, DR. MED. SPEC. PEDIATRIJE - ZASEBNA PEDIATRIČNA ORDINACIJA",IZPOSTAVA HRASTNIK,Novi dom 11,1430 Hrastnik,Hrastnik,Rudnik,Hrastnik,46.1403,15.08513,03 565 44 52,http://www.zdravniki-zobozdravniki.net
406,3645748,POŽRL MARKO DR.DENT.MED. - ZOBOZDRAVSTVENA ORDINACIJA,IZPOSTAVA IZOLA,Kajuhova ulica 34,6310 Izola - Isola,Izola,Livade,Izola,45.53002,13.66787,(05) 640 12 60,http://www.markopozrl.si
407,3007142,PRAPROTNIK IGOR - DOKTOR STOMATOLOGIJE,IZPOSTAVA DOMŽALE,Kamniška cesta 24,1235 Radomlje,Preserje pri Radomljah,Preserje,Domžale,46.168,14.5949,(01) 721 57 45,https://www.mojzobar.si/igor-praprotnik-doktor-stomatologije/
408,3097170,PRAZNIK IGOR - ZASEBNA ZDRAVNIŠKA ORDINACIJA,OE CELJE,Celjska cesta 24B,3212 Vojnik,Vojnik,Vojnik,Vojnik,46.29098,15.30088,(03) 577 35 04,https://www.zdravniki-zobozdravniki.net/clan/Igor-PRAZNIK-502/
409,4530165,"PRELOG-DENTAL, DRUŽBA ZA STORITVE IN SVETOVANJE, D.O.O.",OE MARIBOR,Lackova cesta 269,2341 Limbuš,Limbuš,Limbuš,Maribor,46.55387,15.58161,(05) 992 89 18,https://www.zdravniki-zobozdravniki.net/clan/Zvonko-PRELOG-1035/
410,4318036,PREMEDIKO ZDRAVSTVENE STORITVE D.O.O.,OE MARIBOR,Ljubljanska ulica 5,2000 Maribor,Maribor,Magdalena,Maribor,46.55289,15.64858,(02) 332 33 99,https://premediko.si/
411,4384485,"PRENADENT, ZOBOZDRAVSTVENE STORITVE D.O.O.",OE KRANJ,Draga 1,1292 Ig,Draga,,Ig,45.94726,14.54796,,http://www.prenadent.si
412,3454821,PRIBOŽIČ DARJA - ZASEBNA AMBULANTA SPLOŠNE MEDICINE,IZPOSTAVA PTUJ,Gorišnica 65,2272 Gorišnica,Gorišnica,,Gorišnica,46.41047,16.01167,(02)743 02 60,https://pribozic.si/
413,3125050,"PRIVATNA ZOBNA ORDINACIJA RENATA AMBROŽIČ ČOP, DR. DENT. MED.",IZPOSTAVA RADOVLJICA,Prešernova cesta 52,4260 Bled,Bled,Bled,Bled,46.37308,14.1042,04 576 74 00,http://www.zobozdravnik-bled.com
414,3089391,PRIVŠEK IZTOK - ZOBOZDRAVSTVO,OE LJUBLJANA,Opekarska cesta 11,1000 Ljubljana,Ljubljana,Četrtna skupnost Trnovo,Ljubljana,46.03951,14.50753,(01) 283 92 38,https://www.mojzobar.si/iztok-privsek-zobozdravstvo/
415,6083150,PROMEDICO PLUS ZAVOD ZA ZDRAVSTVENE IN DRUGE STORITVE,OE LJUBLJANA,Sneberska cesta 128B,1260 Ljubljana - Polje,Ljubljana,Četrtna skupnost Polje,Ljubljana,46.07327,14.58924,(01) 759 13 06,http://www.promedico.si
416,4567864,PUKLAVEC GROZNIK JANJA DR.DENT.MED. - ZASEBNA ZOBOZDRAVNICA,OE LJUBLJANA,Savska cesta 10,1000 Ljubljana,Ljubljana,Četrtna skupnost Jarše,Ljubljana,46.06433,14.52589,(01) 280 32 59,
417,3118428,PUPIČ - GABERŠEK VESNA - DOKTOR STOMATOLOGIJE,IZPOSTAVA VELENJE,Vodnikova cesta 1,3320 Velenje,Velenje,Velenje - desni breg,Velenje,46.36151,15.11636,(03) 897 19 90,http://www.vesnagabersek.si
418,757444,"PUŠNIK-NOVLJAN OKULISTIKA, OPTIKA, ZOBOZDRAVSTVO D.O.O.",OE NOVO MESTO,Turkova ulica 8,8000 Novo mesto,Novo mesto,Krajevna skupnost Bučna vas,Novo mesto,45.83041,15.15729,07 393 55 55,http://www.pusnik-novljan.si/
419,2954603,RAFOT - BERLOT MARIJA - ZDRAVNIK - SPLOŠNA MEDICINA,IZPOSTAVA SLOVENSKA BISTRICA,Ulica Pohorskega bataljona 11,2317 Oplotnica,Oplotnica,,Oplotnica,46.38817,15.44733,031/ 613 455,https://zdravniki-zobozdravniki.net/Clan/Marija-RAFOT-BERLOT-433
420,3110410,RAJNAR - VOROŠ ZVEZDICA - SANA VITA ZASEBNA SPLOŠNA AMBULANTA,OE MURSKA SOBOTA,Cvetkova ulica 10,9000 Murska Sobota,Murska Sobota,Center,Murska Sobota,46.66089,16.16751,,https://www.zdravniki-zobozdravniki.net/clan/Zvezdica-RAJNAR-VOROS-1274/
421,3645080,RAN ZOBOZDRAVSTVENA DEJAVNOST D.O.O.,IZPOSTAVA ŠKOFJA LOKA,Reteče 205,4220 Škofja Loka,Reteče,Reteče - Gorenja vas,Škofja Loka,46.15779,14.37091,,
422,6464867,"REMEDIA ZDRAVSTVO, IZOBRAŽEVANJE IN SOCIALNE STORITVE D.O.O.",OE LJUBLJANA,Hruševska cesta 6A,1000 Ljubljana,Ljubljana,Četrtna skupnost Golovec,Ljubljana,46.04676,14.54206,01 286 38 33,https://dzdravje.si/remedia/
423,3122219,REPNIK NADA - ZASEBNA ZOBNA AMBULANTA,IZPOSTAVA SLOVENSKE KONJICE,Mestni trg 17,3210 Slovenske Konjice,Slovenske Konjice,Slovenske Konjice,Slovenske Konjice,46.33998,15.42862,03 575 54 05,http://www.zdravniki-zobozdravniki.net/nadarepnik
424,3137166,RIHTARŠIČ IRENA - SPLOŠNA AMBULANTA,OE MURSKA SOBOTA,Ulica Staneta Rozmana 11A,9000 Murska Sobota,Murska Sobota,Center,Murska Sobota,46.66162,16.16734,,https://www.zdravniki-zobozdravniki.net/clan/Irena-RIHTARSIC-184/
425,3126073,RITUPER BOJNEC MIRA - ZOBNA AMBULANTA,OE MURSKA SOBOTA,Kocljevo naselje 9,9231 Beltinci,Beltinci,Beltinci,Beltinci,46.6088,16.23201,,http://wwwzobozdravniki-pomurja.si
426,5651459,RODNA STORITVE ZA ZDRAVJE D.O.O.,OE KRANJ,Zasavska cesta 58D,4000 Kranj,Kranj,Orehek - Drulovka,Kranj,46.21782,14.36865,,http://www.rodna.si
427,3234548,ROJC PEČNIK VESNA - AMBULANTA SPLOŠNE MEDICINE,OE LJUBLJANA,Vodovodna cesta 109,1000 Ljubljana,Ljubljana,Četrtna skupnost Šiška,Ljubljana,46.07871,14.50194,01 568 26 66,https://www.zdravniki-zobozdravniki.net/clan/Vesna-ROJC-PECNIK-777/
428,3433899,ROJNIK BARBARA - GINEKOLOŠKA ORDINACIJA,OE LJUBLJANA,Metelkova ulica 15,1000 Ljubljana,Ljubljana,Četrtna skupnost Center,Ljubljana,46.05705,14.51547,(01) 439 69 20,
429,3631784,"ROK-LAB, ZOBOZDRAVSTVO, D.O.O.",IZPOSTAVA ŠKOFJA LOKA,Trata 7A,4224 Gorenja vas,Gorenja vas,Gorenja vas,Gorenja vas-Poljane,46.10238,14.1424,,
430,3861300,RONALD NOVAK DR.DENT.MED. - ZASEBNA ZOBOZDRAVSTVENA AMBULANTA,IZPOSTAVA ŽALEC,Prešernova ulica 6,3310 Žalec,Žalec,Mestna skupnost Žalec,Žalec,46.25093,15.16216,03 571 62 00,http://wwwzdravniki-zobozdravniki.net/clan/ronald-novak-1114
431,3583211,ROTAR TOMAŽ - ZOBOZDRAVSTVENA ORDINACIJA,IZPOSTAVA RADOVLJICA,Prešernova ulica 6,4240 Radovljica,Radovljica,Radovljica,Radovljica,46.34494,14.17058,,https://www.zobozdravnik.si/
432,3118263,RUS SERGEJ - SPECIALIST SPLOŠNE MEDICINE,IZPOSTAVA VELENJE,Vodnikova cesta 1,3320 Velenje,Velenje,Velenje - desni breg,Velenje,46.36151,15.11636,(03) 897 02 00,http://www.sergejrus.si
433,3209958,RUS SIMONKA - STOMATOLOŠKA ORDINACIJA,OE LJUBLJANA,Vodnikova cesta 187,1000 Ljubljana,Ljubljana,Četrtna skupnost Šiška,Ljubljana,46.07405,14.47528,,
434,3194293,RUS VALERIJA - ORDINACIJA SPLOŠNE MEDICINE,OE LJUBLJANA,Dolsko 55,1262 Dol pri Ljubljani,Dolsko,Dolsko,Dol pri Ljubljani,46.09385,14.67776,01 564 71 56,https://www.zdravniki-zobozdravniki.net/clan/Valerija-RUS-1191/#ordinacija
435,6212353,"SAFTIĆ, ZDRAVSTVENA DEJAVNOST, D.O.O.",IZPOSTAVA PTUJ,Mala vas 32B,2272 Gorišnica,Mala vas,,Gorišnica,46.39088,16.00524,(02) 761 80 01,https://saftic.si/
436,3201235,"SALVUS, MEDICINSKE STORITVE D.O.O.",IZPOSTAVA LENDAVA,Trimlini 56A,9220 Lendava - Lendva,Trimlini,Lendava,Lendava,46.54414,16.46532,,http://www.salvus.si
437,7152775,SAMOSTOJNA ORDINACIJA DRUŽINSKE MEDICINE SUZANA MILENKOVIĆ DR. MED.,IZPOSTAVA ČRNOMELJ,Zadružna cesta 33,8340 Črnomelj,Črnomelj,Črnomelj,Črnomelj,45.57914,15.19513,07 305 39 30,http://www.ordinacija-milenkovic.si
438,3078173,SAMOTORČAN SLAVKO - ZASEBNA ZOBNA AMBULANTA,IZPOSTAVA PIRAN,Cesta solinarjev 1,6320 Portorož - Portorose,Lucija,Lucija,Piran,45.50452,13.60205,05 673 34 30,http://www.ambulanta-samotorcan.si
439,2881549,"SANIDENT STORITVENO PODJETJE, D.O.O.",IZPOSTAVA SLOVENSKE KONJICE,Kovaška cesta 25B,3214 Zreče,Zreče,Zreče,Zreče,46.37116,15.39114,03 757 67 00,http://www.sanident.weebly.com
440,4315836,"SANJA RAŠIĆ, DDM ZASEBNA ZOBOZDRAVSTVENA ORDINACIJA",IZPOSTAVA ŽALEC,Graščinska cesta 11,3312 Prebold,Prebold,,Prebold,46.23604,15.09094,(03) 705 34 90,https://www.zdravniki-zobozdravniki.net/clan/Sanja-RASIC-1085/
441,4980058,SANJA SLADE - ZASEBNA ZOBNA AMBULANTA,OE MARIBOR,Valvasorjeva ulica 38,2000 Maribor,Maribor,Magdalena,Maribor,46.55444,15.6368,(02) 320 13 40,https://www.zdravniki-zobozdravniki.net/clan/Sanja-SLADE-79/
442,797024,"SANOS, ZOBOZDRAVSTVENE STORITVE, D.O.O.",IZPOSTAVA ŠKOFJA LOKA,Gregorčičeva ulica 10,4000 Kranj,Kranj,Center,Kranj,46.24313,14.35717,,http://www.sanjakrajnik.si
443,2661740,SARIĆ DUBRAVKO - ZASEBNI ZOBOZDRAVNIK,IZPOSTAVA RIBNICA,Majnikova ulica 1,1310 Ribnica,Ribnica,Ribnica,Ribnica,45.74238,14.72596,,https://www.cakalnedobe.si/ambulante/saric-dubravko-zasebni-zobozdravnik-zobozdravstvena-dejavnost/
444,1567276,SARIĆ LJILJANA - ZASEBNI ZOBOZDRAVNIK,IZPOSTAVA RIBNICA,Majnikova ulica 1,1310 Ribnica,Ribnica,Ribnica,Ribnica,45.74238,14.72596,,https://www.cakalnedobe.si/ambulante/saric-ljiljana-zasebni-zobozdravnik-zobozdravstvena-dejavnost/
445,5746932,"SAVA MED, ZDRAVSTVENE STORITVE IN SVETOVANJE, D.O.O.",OE MARIBOR,Cesta k Dravi 8,2241 Spodnji Duplek,Spodnji Duplek,Spodnji Duplek,Duplek,46.50113,15.74875,02 620 24 90,http://savamed.si/
446,5937785,"SAŠO HRIBAR, DR. DENT. MED. - ZASEBNA ZOBNA AMBULANTA",IZPOSTAVA ŽALEC,Prešernova ulica 6,3310 Žalec,Žalec,Mestna skupnost Žalec,Žalec,46.25093,15.16216,(03) 713 43 74,http://zobozdravstvo-hribar.si
447,4094658,"SCHAUBACH TOMAŽ, ZASEBNI ZDRAVNIK NA PODROČJU DRUŽINSKE MEDICINE",IZPOSTAVA PTUJ,Trnovska vas 42A,2254 Trnovska vas,Trnovska vas,Vaška sk. Trnovska vas,Trnovska vas,46.51993,15.88594,051/ 249 229,https://ambulantaschaubach.weebly.com/delovni-268as.html
448,4676740,"SEVER MELITA, DR.MED.,SPEC.SPL.MED., ORDINACIJA DRUŽINSKE MEDICINE",OE KRŠKO,Ljubljanska cesta 16,8311 Kostanjevica na Krki,Kostanjevica na Krki,Kostanjevica na Krki,Kostanjevica na Krki,45.8446,15.41834,(07) 49 88 323,https://www.zdravniki-zobozdravniki.net/clan/Melita-SEVER-1170/
449,3137871,SIEGL VLADIMIR - ZOBOZDRAVSTVENA ORDINACIJA,OE LJUBLJANA,Kopitarjeva ulica 4,1000 Ljubljana,Ljubljana,Četrtna skupnost Center,Ljubljana,46.05131,14.51092,,https://www.zdravniki-zobozdravniki.net/clan/Vladimir-SIEGL-157/
450,3859706,"SIMONA JUG MEHLE, DR.DENT.MED. - ZASEBNA ZOBNA ORDINACIJA",IZPOSTAVA ŠMARJE PRI JELŠAH,Celjska cesta 16,3240 Šmarje pri Jelšah,Šmarje pri Jelšah,Šmarje pri Jelšah,Šmarje pri Jelšah,46.22926,15.5161,,http://www.zobna-mehle.si
451,3631693,SIMONITI FILIP - SIMMED ZASEBNA GINEKOLOŠKA AMBULANTA,IZPOSTAVA ŠENTJUR PRI CELJU,Ulica Dušana Kvedra 27,3230 Šentjur,Šentjur,Šentjur-mesto,Šentjur,46.21817,15.39597,03 749 31 31,http://www.ginekologija-simoniti.si
452,3181668,SIMČIČ POLAK MARJANA - ORDINACIJA SPLOŠNE MEDICINE,OE LJUBLJANA,Cesta 24. junija 23,1231 Ljubljana - Črnuče,Ljubljana,Četrtna skupnost Črnuče,Ljubljana,46.09681,14.52692,01 561 23 22,https://www.zdravniki-zobozdravniki.net/clan/Marjana-SIMCIC-POLAK-440/
453,746564,"SINOPSIS D.O.O., STORITVE, TRGOVINA IN ZASEBNA SPLOŠNA AMBULANTA",IZPOSTAVA RADOVLJICA,Gorenjska ulica 37,4260 Bled,Ribno,Ribno,Bled,46.34715,14.12389,04 530 55 80,http://www.sinopsis.si
454,7824080,"SIRAMED, MEDICINSKE STORITVE IN SVETOVANJE, D.O.O.",IZPOSTAVA PTUJ,Slovenskogoriška cesta 39,2250 Ptuj,Ptuj,"Četrt Rogoznica,Slovenskogoriška cesta 18",Ptuj,46.43302,15.8883,082 057 397,http://www.siramed.si
455,4322776,"SISTEMIS ZDRAVSTVENA IN POSLOVNA DEJAVNOST, D.O.O.",OE LJUBLJANA,Vurnikova ulica 9,1000 Ljubljana,Ljubljana,Četrtna skupnost Bežigrad,Ljubljana,46.06262,14.51543,(01) 518 54 05,https://www.zdravniki-zobozdravniki.net/clan/Jasmina-ANTONIC-BABNIK-1137/
456,3958591,"SKAN, DRUŽBA ZA OPRAVLJANJE STORITEV D.O.O.",OE LJUBLJANA,Ulica Lojzeta Spacala 10,1000 Ljubljana,Ljubljana,Četrtna skupnost Šiška,Ljubljana,46.06747,14.4721,,
457,3424580,"SMAJILA BOJAN, DR. DENT. MED. - ZASEBNA ZOBNA ORDINACIJA",IZPOSTAVA ŽALEC,Braslovče 27,3314 Braslovče,Braslovče,Braslovče,Braslovče,46.2876,15.03997,03 705 03 00,https://www.zobnaordinacija-braslovce.si/
458,7133080,"SMEJKO, PETRA PRODAN ŠUMNIK, ZOBOZDRAVSTVO & ESTETIKA, D.O.O.",OE CELJE,Gubčeva ulica 10,3000 Celje,Celje,Center,Celje,46.22956,15.26637,03 548 51 19,"http://Strokovno združenje zasebnih zdravnikov in zobozdravnikov Slovenije, SMEJKO, d.o.o."
459,3166585,SOBOTKIEWICZ BOJANA - DOKTOR STOMATOLOGIJE,OE MARIBOR,Cesta XIV. divizije 30,2000 Maribor,Maribor,Pobrežje,Maribor,46.55159,15.66267,(02) 429 47 47,https://www.cakalnedobe.si/ambulante/sobotkiewicz-bojana
460,3078190,SOMRAK SAMO - DOKTOR STOMATOLOGIJE,IZPOSTAVA PIRAN,Fazan 1,6320 Portorož - Portorose,Lucija,Lucija,Piran,45.50642,13.6072,"(05) 677 18 53, 040 636 121",http://www.zdravniki-zobozdravniki.net/clan/Samo-SOMRAK-560/
461,4108507,SONJA ĐUKEZ DR.DENT.MED. ZASEBNA ZOBNA ORDINACIJA,IZPOSTAVA SEVNICA,Trg svobode 14,8290 Sevnica,Sevnica,Sevnica,Sevnica,46.0106,15.30248,078 161 508,http://www.slovenski-zobozdravniki.si/sonja-dukez
462,3168070,SORŠAK KARIN - DOKTOR STOMATOLOGIJE,OE MARIBOR,Oblakova ulica 4,2000 Maribor,Maribor,Nova vas,Maribor,46.54231,15.63117,(02) 320 24 86,https://zdravniki-zobozdravniki.net/Clan/Karin-SORSAK-607
463,4243928,SPE VIVIMUS SPECIALISTIČNE DEJAVNOSTI D.O.O.,OE KRŠKO,Pot na Polšco 21,8270 Krško,Krško,Krško,Krško,45.96386,15.49039,074 926 067,https://www.preskar.com/
464,5364003,"SPLOŠNA AMBULANTA INA HEGEDIČ, DR. MED.",OE MARIBOR,Stadionska ulica 4,2342 Ruše,Ruše,,Ruše,46.54277,15.50623,(08) 281 12 16,https://zdravniki-zobozdravniki.net/Clan/Ina-HEGEDIC-1287
465,4111996,"SPLOŠNA AMBULANTA MARJAN LOBODA, DR.MED.",IZPOSTAVA DOMŽALE,Trojanska cesta 13,1225 Lukovica,Lukovica pri Domžalah,Lukovica,Lukovica,46.17023,14.69393,01 723 50 00,https://www.zdravniki-zobozdravniki.net/clan/Marjan-LOBODA-863/
466,4706513,"SPLOŠNA AMBULANTA SLADKI VRH VLADO MARČINKO, DR. MED.",OE MARIBOR,Sladki Vrh 5,2214 Sladki Vrh,Sladki Vrh,Sladki Vrh,Šentilj,46.69756,15.7368,02 644 61 20,http://www.splosna-ambulanta-sladkivrh.si
467,140506,SPLOŠNA BOLNIŠNICA BREŽICE,IZPOSTAVA BREŽICE,Černelčeva cesta 15,8250 Brežice,Brežice,Brežice,Brežice,45.90849,15.59354,,https://www.sb-brezice.si/
468,104396,SPLOŠNA BOLNIŠNICA CELJE,OE CELJE,Oblakova ulica 5,3000 Celje,Celje,Dolgo polje,Celje,46.23463,15.26257,03 423 30 00,https://www.sb-celje.si
469,93984,SPLOŠNA BOLNIŠNICA DR. FRANCA DERGANCA NOVA GORICA,OE NOVA GORICA,Ulica padlih borcev 13A,5290 Šempeter pri Gorici,Šempeter pri Gorici,,Šempeter-Vrtojba,45.9302,13.64083,,http://www.bolnisnica-go.si/
470,92182,SPLOŠNA BOLNIŠNICA DR. JOŽETA POTRČA PTUJ,IZPOSTAVA PTUJ,Potrčeva cesta 23,2250 Ptuj,Ptuj,"Četrt Center,Jadranska ulica 6",Ptuj,46.42609,15.87709,(02) 749 14 00,http://www.sb-ptuj.si
471,3180983,SPLOŠNA BOLNIŠNICA IZOLA OSPEDALE GENERALE ISOLA,IZPOSTAVA IZOLA,Polje 40,6310 Izola - Isola,Izola,Livade,Izola,45.54442,13.68709,05 660 60 00,https://www.sb-izola.si/
472,89383,SPLOŠNA BOLNIŠNICA JESENICE,IZPOSTAVA JESENICE,Cesta maršala Tita 112,4270 Jesenice,Jesenice,Plavž,Jesenice,46.443,14.03697,04 586 80 00,http://www.sb-je.si
473,217823,SPLOŠNA BOLNIŠNICA MURSKA SOBOTA,OE MURSKA SOBOTA,Ulica dr. Vrbnjaka 6,9000 Murska Sobota,Rakičan,KS RAKIČAN,Murska Sobota,46.65013,16.18727,02 512 31 09,https://www.sb-ms.si/
474,92103,SPLOŠNA BOLNIŠNICA NOVO MESTO,OE NOVO MESTO,Šmihelska cesta 1,8000 Novo mesto,Novo mesto,Krajevna skupnost Drska,Novo mesto,45.79995,15.16385,073 916 100,http://www.sb-nm.si
475,92637,SPLOŠNA BOLNIŠNICA SLOVENJ GRADEC,IZPOSTAVA SLOVENJ GRADEC,Gosposvetska cesta 1,2380 Slovenj Gradec,Slovenj Gradec,Center,Slovenj Gradec,46.50766,15.08173,02 882 34 00,https://www.sb-sg.si/
476,92699,SPLOŠNA BOLNIŠNICA TRBOVLJE,IZPOSTAVA TRBOVLJE,Rudarska cesta 9,1420 Trbovlje,Trbovlje,Trbovlje - center,Trbovlje,46.15398,15.0471,(03) 565 25 00,http://www.sb-trbovlje.si/
477,8130250,"SPLOŠNA IN DRUŽINSKA MEDICINA GORDANA ŠĆEPANOVIĆ, DR. MED.",IZPOSTAVA RADOVLJICA,Kopališka cesta 7,4240 Radovljica,Radovljica,Radovljica,Radovljica,46.34702,14.17201,059 751 750,https://scepanovic.si/
478,4344627,SPLOŠNA MEDICINA JURIJ PESJAK D.O.O.,IZPOSTAVA SEVNICA,Drožanjska cesta 90,8290 Sevnica,Sevnica,Sevnica,Sevnica,46.01346,15.31147,(07) 816 15 37,https://www.zd-sevnica.si/druzinska-medicina/jurij-pesjak-dr-med
479,5561890,SPLOŠNA MEDICINA STANISLAV OSTANEK DR. MED.SPEC.,OE LJUBLJANA,Banija 4,1292 Ig,Ig,,Ig,45.95897,14.5272,,http://www.ambulanta-ostanek.si
480,6321672,"SPLOŠNA MEDICINA, ZDRAVSTVENE STORITVE IN SVETOVANJE, D.O.O.",OE MARIBOR,Stadionska ulica 4,2342 Ruše,Ruše,,Ruše,46.54277,15.50623,(02) 603 64 96,https://zdravniki-zobozdravniki.net/Clan/Primoz-KUHAR-1456
481,5457105,"SPLOŠNO IN ESTETSKO ZOBOZDRAVSTVO, NINA KOTNIK-TRAVNIK, S.P.",IZPOSTAVA KAMNIK,Na jasi 6,1241 Kamnik,Kamnik,Novi trg,Kamnik,46.20853,14.6118,01 831 16 12,http://www.zobozdravnik-kamnik.si
482,120872,"SREDNJA ŠOLA ZA FARMACIJO, KOZMETIKO IN ZDRAVSTVO",OE LJUBLJANA,Zdravstvena pot 1,1000 Ljubljana,Ljubljana,Četrtna skupnost Center,Ljubljana,46.04729,14.51594,01 300 72 40,http://www.ssfkz.si/
483,3123535,STARBEK MARIJA - AMBULANTA SPLOŠNE MEDICINE,IZPOSTAVA DOMŽALE,Ljubljanska cesta 104,1230 Domžale,Domžale,Domžale - Slavka Šlandra,Domžale,46.14268,14.59561,01 724 27 86,
484,3578840,"STARDENT, ZOBOZDRAVSTVENE STORITVE, TRGOVINA IN POSREDNIŠTVO D.O.O.",IZPOSTAVA ŠKOFJA LOKA,Trg svobode 9,4226 Žiri,Žiri,,Žiri,46.04754,14.11159,,
485,5880304,"STEINER, ZASEBNE AMBULANTE SPLOŠNE MEDICINE, D.O.O.",IZPOSTAVA MOZIRJE,Šmihelska cesta 7,3330 Mozirje,Mozirje,Mozirje,Mozirje,46.34067,14.96434,(03) 839 08 04,https://www.zdravniki-zobozdravniki.net/clan/Ksenija-MIJIN-STEINER-1013/
486,4130044,"STIPES, PROIZVODNJA, TRGOVINA, FINANCE, NEPREMIČNINE, ZOBOZDRAVSTVENE IN DRUGE STORITVE, D.O.O.",IZPOSTAVA SLOVENSKA BISTRICA,Ulica Borisa Winterja 10,2310 Slovenska Bistrica,Slovenska Bistrica,Dr. Jagodiča,Slovenska Bistrica,46.38857,15.5734,(02) 843 31 32,https://www.cakalnedobe.si/ambulante/stipes
487,4530009,"STOMATOLOGICA, ZOBOZDRAVSTVENE STORITVE, D.O.O.",OE MARIBOR,Pesnica pri Mariboru 42C,2211 Pesnica pri Mariboru,Pesnica pri Mariboru,Pesnica pri Mariboru,Pesnica,46.60846,15.67654,02 653 76 01,https://www.stomatologica.si/
488,3137928,"STOMATOLOŠKA ORDINACIJA JANKO E. ŠTEFANČIČ, DR. DENT. MED.",OE LJUBLJANA,Aljaževa ulica 30,1000 Ljubljana,Ljubljana,Četrtna skupnost Šiška,Ljubljana,46.06839,14.49548,,
489,2663309,"STOMATOLOŠKA ORDINACIJA NINA TOMIĆ, DR. DENT. MED.",IZPOSTAVA KOČEVJE,Roška cesta 18,1330 Kočevje,Kočevje,Kočevje-mesto,Kočevje,45.63938,14.86562,(01) 895 46 78,
490,3111953,"STRAŽIŠAR RADIĆ TANJA - PRIVATNA ZOBNA ORDINACIJA, ZOBOZDRAVSTVO ZA ODRASLE",IZPOSTAVA JESENICE,Cesta maršala Tita 78,4270 Jesenice,Jesenice,Plavž,Jesenice,46.44,14.04461,,http://www.tsrzobozdravstvo.si/
491,3630974,STRLIČ IRIS - ZOBOZDRAVSTVENA ORDINACIJA,IZPOSTAVA DOMŽALE,Mestni trg 2,1230 Domžale,Domžale,Domžale - Slavka Šlandra,Domžale,46.13975,14.59617,,
492,3122588,"STRNIŠA ZORAN, DR. DENT. MED. - ZASEBNA ZOBNA ORDINACIJA",OE CELJE,Ljubljanska cesta 14,3000 Celje,Celje,Slavko Šlander,Celje,46.23244,15.25968,(03) 548 50 07,https://www.zdravniki-zobozdravniki.net/clan/Zoran-STRNISA-1167/
493,3123046,STROSAR ROZMAN GABRIJELA - ZOBNA AMBULANTA ZA ODRASLE,IZPOSTAVA DOMŽALE,Zoranina ulica 3,1234 Mengeš,Mengeš,,Mengeš,46.16207,14.571,,https://zobnizdravnik.weebly.com/
494,4321693,STU-DENT ZOBOZDRAVSTVENE STORITVE D.O.O.,OE LJUBLJANA,Tehnološki park 20,1000 Ljubljana,Ljubljana,Četrtna skupnost Rožnik,Ljubljana,46.05045,14.4603,(041) 316 462,https://stu-dent.si/
495,4519100,"STUDIO ORALNEGA ZDRAVJA, DRUŽBA ZA STORITVE IN SVETOVANJE, D.O.O.",OE MARIBOR,Lavričeva ulica 1,2000 Maribor,Maribor,Koroška vrata,Maribor,46.55817,15.636,(02) 250 15 93,https://www.zdravniki-zobozdravniki.net/clan/Stasa-KOBLAR-PUKLAVEC-465/
496,478988,"STUDIO R, SPECIALISTIČNA ZDRAVSTVENA DEJAVNOST SPLOŠNE MEDICINE, D.O.O.",IZPOSTAVA VRHNIKA,Na klancu 22,1360 Vrhnika,Vrhnika,Vrhnika Vas,Vrhnika,45.96633,14.2934,051 400 080,https://dzdravje.si/studio-r/
497,3202321,SVATINA - CIMAN ZORKA - DEJAVNOST MLADINSKEGA ZOBOZDRAVSTVA,OE NOVA GORICA,Ulica Gradnikove brigade 7,5000 Nova Gorica,Nova Gorica,Krajevna skupnost Nova Gorica,Nova Gorica,45.95843,13.64623,,https://www.zdravniki-zobozdravniki.net/clan/Zorka-SVATINA-CIMAN-723/
498,179839,SŽ - ŽELEZNIŠKI ZDRAVSTVENI DOM LJUBLJANA,IZPOSTAVA LAŠKO,Celovška cesta 4,1000 Ljubljana,Ljubljana,Četrtna skupnost Center,Ljubljana,46.0573,14.50122,(01) 33 05 101,http://www.zzd.si/
499,179839,SŽ - ŽELEZNIŠKI ZDRAVSTVENI DOM LJUBLJANA,IZPOSTAVA POSTOJNA,Celovška cesta 4,1000 Ljubljana,Ljubljana,Četrtna skupnost Center,Ljubljana,46.0573,14.50122,(01) 33 05 101,http://www.zzd.si/
500,179839,SŽ - ŽELEZNIŠKI ZDRAVSTVENI DOM LJUBLJANA,OE LJUBLJANA,Celovška cesta 4,1000 Ljubljana,Ljubljana,Četrtna skupnost Center,Ljubljana,46.0573,14.50122,(01) 33 05 101,http://www.zzd.si/
501,179839,SŽ - ŽELEZNIŠKI ZDRAVSTVENI DOM LJUBLJANA,OE NOVA GORICA,Celovška cesta 4,1000 Ljubljana,Ljubljana,Četrtna skupnost Center,Ljubljana,46.0573,14.50122,(01) 33 05 101,http://www.zzd.si/
502,6501933,"T DENT, ZOBNA ORDINACIJA, D.O.O.",IZPOSTAVA KAMNIK,Glavarjeva cesta 61A,1218 Komenda,Komenda,,Komenda,46.20453,14.53935,,http://www.tdent.si
503,4975443,"TADEJA ŠTRUMBELJ, DR.MED., ZASEBNI ZDRAVSTVENI ZAVOD ŠTRUMBELJ",OE LJUBLJANA,Na Palcah 2,1211 Ljubljana - Šmartno,Ljubljana,Četrtna skupnost Šmarna gora,Ljubljana,46.12111,14.47331,(01) 565 40 69,https://www.zzz-strumbelj.si/
504,6162114,"TAJA DULAR POTOČAR, DR. DENT. MED., ZASEBNA ZOBOZDRAVSTVENA ORDINACIJA",IZPOSTAVA DOMŽALE,Aljaževa ulica 9,1234 Mengeš,Mengeš,,Mengeš,46.1699,14.57643,,http://dulardent.si/
505,4585559,"TANJA NEDELJKOVIĆ, DR.DENT.MED., - ZASEBNA ZOBNA ORDINACIJA",IZPOSTAVA AJDOVŠČINA,Tovarniška cesta 2B,5270 Ajdovščina,Ajdovščina,Krajevna skupnost Ajdovščina,Ajdovščina,45.88681,13.90359,05 368 00 81,https://www.zdravniki-zobozdravniki.net/clan/Tanja-NEDELJKOVIC-1128/
506,3155978,TATALOVIČ RATKO - AMBULANTA GINEKOLOGIJE IN PORODNIŠTVA,OE LJUBLJANA,Tbilisijska ulica 59,1000 Ljubljana,Ljubljana,Četrtna skupnost Vič,Ljubljana,46.03762,14.47887,(01) 257 47 90,http://www.ginekolog-tatalovic.si
507,410972,"TECHDENS, ZOBOZDRAVSTVENE IN DRUGE STORITVE, D.O.O.",OE LJUBLJANA,Tbilisijska ulica 59,1000 Ljubljana,Ljubljana,Četrtna skupnost Vič,Ljubljana,46.03762,14.47887,,https://zobozdravnikzastudente.si/
508,3125951,TENYI LASZLO - DEJAVNOST SPLOŠNE MEDICINE,OE MARIBOR,Partizanska cesta 59,2000 Maribor,Maribor,Ivan Cankar,Maribor,46.56358,15.6579,(02) 250 17 20,https://zdravniki-zobozdravniki.net/Clan/Laszlo-TENYI-478
509,3870147,TENČIČ IRENA - ZASEBNA ZOBNA ORDINACIJA,IZPOSTAVA PTUJ,Podlehnik 9,2286 Podlehnik,Podlehnik,,Podlehnik,46.33608,15.87803,(02) 768 00 40,https://www.zdravniki-zobozdravniki.net/clan/Irena-TENCIC-799/
510,5843032,"TEREZIJA.MARINA, ZOBOZDRAVSTVENA DEJAVNOST D.O.O.",OE MURSKA SOBOTA,Dolga ulica 82,9000 Murska Sobota,Černelavci,KS ČERNELAVCI,Murska Sobota,46.66544,16.14308,,http://www.zobozdravniki-pomurja.si/profil/18/opis.html
511,89028,"TERME DOBRNA, TERMALNO ZDRAVILIŠČE D.D.",OE CELJE,Dobrna 50,3204 Dobrna,Dobrna,,Dobrna,46.33966,15.22417,03 780 81 10,https://www.terme-dobrna.si/
512,3112564,TESTEN ALEKSANDER - ZASEBNA ZOBNA AMBULANTA,OE CELJE,Gregorčičeva ulica 5,3000 Celje,Celje,Dolgo polje,Celje,46.23224,15.26227,(03) 490 89 60,http://www.zobozdravstvo-testen.si/
513,4348572,TINA DENT ZOBOZDRAVSTVENE STORITVE ZA OTROKE IN MLADINO D.O.O.,OE KRANJ,Puštal 108,4220 Škofja Loka,Puštal,Škofja Loka - mesto,Škofja Loka,46.16085,14.31135,,https://www.zdravniki-zobozdravniki.net/clan/Tina-HERLEC-STURM-1256/
514,5240811,"TINA MODREJ ZADNIKAR, DR. MED. ADM AMBULANTA DRUŽINSKE MEDICINE",OE LJUBLJANA,Prijateljeva ulica 2,1000 Ljubljana,Ljubljana,Četrtna skupnost Center,Ljubljana,46.04409,14.5084,(01) 422 29 15,http://www.adm.si
515,6519293,"TINDENS, ZOBOZDRAVSTVO, PREVAJANJE, TOLMAČENJE IN DRUGE POSLOVNE STORITVE, D.O.O",OE MARIBOR,Ulica Lackovega odreda 6,2341 Limbuš,Limbuš,Limbuš,Maribor,46.55328,15.58435,(02) 250 12 80,http://www.martin-pavlin.si/
516,4109257,TOMAŽ BANKO ZASEBNI ZOBOZDRAVNIK - ZOBOZDRAVSTVENA ORDINACIJA,IZPOSTAVA DOMŽALE,Mestni trg 2,1230 Domžale,Domžale,Domžale - Slavka Šlandra,Domžale,46.13975,14.59617,01 724 52 47,https://www.banko.si
517,6600079,"TOMAŽ DRAŽUMERIČ DR. DENT. MED., ZOBNA ORDINACIJA, D.O.O.",OE MARIBOR,Ptujska cesta 13,2204 Miklavž na Dravskem polju,Miklavž na Dravskem polju,Miklavž na Dravskem polju,Miklavž na Dravskem polju,46.51263,15.6905,(02) 629 18 24,https://tomaz-drazumeric.si/
518,6242994,TOMAŽ LUKANOVIĆ - ZOBOZDRAVNIK,OE LJUBLJANA,Ulica bratov Učakar 64,1000 Ljubljana,Ljubljana,Četrtna skupnost Šiška,Ljubljana,46.07216,14.47257,01 519 87 93,http://zobozdravstvo.lukanovic.si/
519,3055953,TOMC RASTA DR.MED. - ZASEBNA ORDINACIJA SPLOŠNE MEDICINE S KONCESIJO,OE KOPER,Vojkovo nabrežje 23,6000 Koper - Capodistria,Koper,Koper - Center,Koper,45.54627,13.73404,05 626 02 94,https://www.zdravniki-zobozdravniki.net/clan/Rasta-TOMC-424/
520,3485306,TOMINEC MATEJA - ORDINACIJA SPLOŠNE MEDICINE,OE LJUBLJANA,Kolinska ulica 1,1000 Ljubljana,Ljubljana,Četrtna skupnost Jarše,Ljubljana,46.05983,14.52249,01 472 15 33,https://www.zdravniki-zobozdravniki.net/clan/Mateja-TOMINEC-82/
521,2661922,TOMŠIČ ARNALDO - ZOBNA ORDINACIJA,OE LJUBLJANA,Cesta v Mestni log 55,1000 Ljubljana,Ljubljana,Četrtna skupnost Trnovo,Ljubljana,46.0362,14.48957,,https://www.zdravniki-zobozdravniki.net/clan/Arnaldo-TOMSIC-789/
522,3407141,TOMŠIČ TONE - ZASEBNI ZOBOZDRAVNIK,OE LJUBLJANA,Gasparijeva ulica 12,1000 Ljubljana,Ljubljana,Četrtna skupnost Center,Ljubljana,46.05233,14.52825,01/544 20 81,https://www.zdravniki-zobozdravniki.net/clan/Tone-TOMSIC-194/
523,4521301,"TOP-DENTAL, DRUŽBA ZA ZOBOZDRAVSTVENE STORITVE IN SVETOVANJE, D.O.O.",OE MARIBOR,Cesta v Rošpoh 24A,2351 Kamnica,Kamnica,Kamnica,Maribor,46.57287,15.6126,02 623 22 41,https://www.zdravniki-zobozdravniki.net/clan/Marina-TOPLAK-SENCAR-1563/
524,5652207,"TOPZOB, ZOBOZDRAVSTVO ZA MLADINO IN ODRASLE, D.O.O.",IZPOSTAVA PTUJ,Rajšpova ulica 16,2250 Ptuj,Ptuj,"Četrt Jezero, Belšakova ulica 20a",Ptuj,46.41951,15.88151,02 779 51 01,https://www.topzob.si/
525,3435994,TOZON KRISTINA - ZOBOZDRAVNICA,IZPOSTAVA VRHNIKA,Mejačeva ulica 3,1353 Borovnica,Borovnica,,Borovnica,45.91998,14.36563,01 754 71 90,http://zdravniki-zobozdravniki.net/clan/kristina-TOZON-934
526,3095868,TOŠIČ ZORICA - ZASEBNA ZOBNA AMBULANTA,IZPOSTAVA PTUJ,Breg 6A,2322 Majšperk,Breg,Krajevna skupnost Majšperk,Majšperk,46.33947,15.73623,(02) 794 30 11,https://www.zdravniki-zobozdravniki.net/clan/Zorica-TOSIC-701/
527,3095854,TRIFUNAC VELEMIR - ZASEBNA ZOBNA AMBULANTA,IZPOSTAVA PTUJ,Breg 6A,2322 Majšperk,Breg,Krajevna skupnost Majšperk,Majšperk,46.33947,15.73623,(02) 794 20 01,https://www.zdravniki-zobozdravniki.net/clan/Velemir-TRIFUNAC-702/
528,5573424,"TRITRG, TRGOVINA IN POSREDNIŠTVO, D.O.O.",IZPOSTAVA ŠKOFJA LOKA,Tivolska cesta 48,1000 Ljubljana,Ljubljana,Četrtna skupnost Center,Ljubljana,46.05758,14.50466,,
529,4493543,"TRUDEN ANDREJKA, DR. DENT. MED., ZASEBNA ZOBOZDRAVNICA, DENTALNI STUDIO AS",OE LJUBLJANA,Ulica bratov Babnik 10,1000 Ljubljana,Ljubljana,Četrtna skupnost Dravlje,Ljubljana,46.07645,14.466,051 265 939,https://www.dentalnistudioas.si/
530,3123458,TRŠINAR ALEKSANDER - ZASEBNA AMBULANTA ZA OTROKE,IZPOSTAVA DOMŽALE,Mestni trg 2,1230 Domžale,Domžale,Domžale - Slavka Šlandra,Domžale,46.13975,14.59617,01 724 52 66,http://trsinar.si/
531,4563680,"TRŽAN-MAKOVEC ZOBOZDRAVSTVENA ORDINACIJA, D.O.O.",OE LJUBLJANA,Ulica Vladimirja Dolničarja 11,1356 Dobrova,Dobrova,Dobrova,Dobrova-Polhov Gradec,46.05355,14.41726,,https://www.zdravniki-zobozdravniki.net/clan/Breda-TRZAN-GROZDANOV-1271/
532,3631659,UKMAR SONJA - ORDINACIJA DRUŽINSKE MEDICINE,OE LJUBLJANA,Cesta na Brdo 63,1000 Ljubljana,Ljubljana,Četrtna skupnost Rožnik,Ljubljana,46.04564,14.46976,01 257 66 90,http://www.ordinacija-ukmar.si/
533,96838,UNIVERZITETNI KLINIČNI CENTER LJUBLJANA,OE LJUBLJANA,Zaloška cesta 2,1000 Ljubljana,Ljubljana,Četrtna skupnost Center,Ljubljana,46.05221,14.52078,,http://www.kclj.si
534,91432,UNIVERZITETNI KLINIČNI CENTER MARIBOR,OE MARIBOR,Ljubljanska ulica 5,2000 Maribor,Maribor,Magdalena,Maribor,46.55289,15.64858,(02) 321 10 00,http://www.ukc-mb.si
535,3122236,UNUK- KLANČNIK IRENA - ZASEBNA ORDINACIJA,IZPOSTAVA SLOVENSKE KONJICE,Mestni trg 17,3210 Slovenske Konjice,Slovenske Konjice,Slovenske Konjice,Slovenske Konjice,46.33998,15.42862,03 759 31 70,https://www.zdravniki-zobozdravniki.net/clan/Irena-UNUK-KLANCNIK-18/
536,3440928,URBANČIČ PEVC ANDREJKA -ZOBOZDRAVSTVENA ORDINACIJA,OE LJUBLJANA,Vodovodna cesta 109,1000 Ljubljana,Ljubljana,Četrtna skupnost Šiška,Ljubljana,46.07871,14.50194,,
537,4746766,"URBANČIČ POLONCA, DR. DENT. MED. ZOBOZDRAVSTVO",OE LJUBLJANA,Vodovodna cesta 109,1000 Ljubljana,Ljubljana,Četrtna skupnost Šiška,Ljubljana,46.07871,14.50194,031/609 400,http://www.urbancicstudiodent.com/
538,5512710,"V&V DENT, ZOBOZDRAVSTVENE STORITVE, D.O.O.",IZPOSTAVA ŠKOFJA LOKA,Stara cesta 10,4220 Škofja Loka,Škofja Loka,Kamnitnik,Škofja Loka,46.16618,14.31281,,https://vvdent.si/
539,2905823,VALENTIČ ZVONIMIR - ZOBOZDRAVNIK,IZPOSTAVA KOČEVJE,Roška cesta 18,1330 Kočevje,Kočevje,Kočevje-mesto,Kočevje,45.63938,14.86562,(01) 895 56 67,
540,4431237,VAŠI ZOBJE DENTALNI STUDIO D.O.O.,IZPOSTAVA RADLJE OB DRAVI,Glavni trg 47,2366 Muta,Muta,,Muta,46.61055,15.16488,05 995 180 002 876 19 15,http://www.vasi-zobje.si/
541,4431237,VAŠI ZOBJE DENTALNI STUDIO D.O.O.,OE RAVNE NA KOROŠKEM,Trg 4. julija 9,2370 Dravograd,Dravograd,Dravograd,Dravograd,46.58921,15.02233,05 995 180 002 876 19 15,http://www.vasi-zobje.si/
542,6031706,"VESNA DOBRAVC, DR.DENT.MED., AMBULANTA ZA ŠOLSKO IN MLADINSKO ZOBOZDRAVSTVO",IZPOSTAVA PIRAN,Prečna pot 4D,6320 Portorož - Portorose,Portorož,Portorož,Piran,45.51588,13.5873,05 673 11 56,http://www.smar-team-org.si/DobravcVesna/dobravcdomov.html
543,4106307,"VESNA JERNEJČIČ, DR. DENT. MED. ZASEBNA ZOBNA ORDINACIJA",IZPOSTAVA CERKNICA,Cesta 4. maja 17,1380 Cerknica,Cerknica,Cerknica,Cerknica,45.79122,14.36578,,http://www.slovenski-zobozdravniki.si/vesna-jernejcicdrdentmed
544,4106429,"VESNA ŠEGA - NOVAK, DR. DENT. MED., ZASEBNA ZOBNA ORDINACIJA",IZPOSTAVA CERKNICA,Cesta Notranjskega odreda 36,1386 Stari trg pri Ložu,Stari trg pri Ložu,,Loška dolina,45.71325,14.47221,01 709 60 97,http://slovenski-zobozdravniki.si/vesna-sega-novak-drdentmed
545,3232976,VEZOČNIK ERIKA - ZASEBNA ZOBNA AMBULANTA,IZPOSTAVA ŽALEC,Glavni trg 15,3313 Polzela,Polzela,,Polzela,46.2795,15.07495,03 705 04 53,http://Slovenski-zobozdravniki.si
546,4253787,VIAL ZOBOZDRAVSTVENE STORITVE D.O.O.,OE KRANJ,Gabrščkova ulica 91,1000 Ljubljana,Ljubljana,Četrtna skupnost Rožnik,Ljubljana,46.04743,14.46956,,https://www.zdravniki-zobozdravniki.net/clan/Aleksandra-VIDRIH-1115/
547,3859507,VIHAR KRISTINA - ZOBNA AMBULANTA,OE LJUBLJANA,Glonarjeva ulica 4,1000 Ljubljana,Ljubljana,Četrtna skupnost Center,Ljubljana,46.04965,14.52687,,
548,5723063,"VISAMA, ZDRAVSTVO, STORITVE IN IZOBRAŽEVANJE, D.O.O.",IZPOSTAVA PTUJ,Videm pri Ptuju 51,2284 Videm pri Ptuju,Videm pri Ptuju,Kraj.skupnost Videm pri Ptuju,Videm,46.36906,15.90255,(02) 764 00 26,https://visama.si/
549,4138631,"VITA ET SOL DRUŽBA ZA ZDRAVSTVO, STORITVE, POSREDNIŠTVO, TRGOVINO IN GOSTINSTVO D.O.O.",IZPOSTAVA SLOVENSKA BISTRICA,Devinska ulica 11,2310 Slovenska Bistrica,Slovenska Bistrica,Alfonz Šarh,Slovenska Bistrica,46.39787,15.57986,(02) 840 13 33,https://vitaetsol.wordpress.com/
550,4487808,"VITA MAR, SOCIALNO ZDRAVSTVENE STORITVE, TRGOVINA IN POSREDNIŠTVO D.O.O.",IZPOSTAVA GORNJA RADGONA,Panonska cesta 17,9252 Radenci,Radenci,KS RADENCI,Radenci,46.64428,16.03994,,https://www.zdravniki-zobozdravniki.net/clan/Bojana-MARIC-1058/
551,5089140,"VITALIJA, AMBULANTA SPLOŠNE MEDICINE, D.O.O., KRANJ",OE KRANJ,Gosposvetska ulica 10A,4000 Kranj,Kranj,Zlato polje,Kranj,46.24862,14.35322,04 238 01 84,http://www.ezdravnik.si/zdravnik/vitalija
552,4166734,"VITANA, ZOBOZDRAVSTVENA DEJAVNOST D.O.O. IZLAKE",IZPOSTAVA ZAGORJE,Izlake 13,1411 Izlake,Izlake,Izlake,Zagorje ob Savi,46.1554,14.92923,,https://vitana.si/
553,6360638,"VOMED, ZDRAVSTVENE STORITVE, D.O.O.",IZPOSTAVA ŠMARJE PRI JELŠAH,Ob progi 3,3250 Rogaška Slatina,Rogaška Slatina,Rogaška Slatina,Rogaška Slatina,46.24403,15.62204,03 819 29 21,http://www.vomed.si
554,4667966,VRAN MOJCA DR. DENT. MED. ZASEBNA ZOBNA ORDINACIJA,OE LJUBLJANA,Cesta na Brdo 43,1000 Ljubljana,Ljubljana,Četrtna skupnost Rožnik,Ljubljana,46.04527,14.4712,01/423 34 44,http://www.slovenski-zobozdravniki.si/mojca-vran
555,4250729,VRANKIČ ZOBOZDRAVSTVO IN HIPNOTERAPIJA D.O.O.,OE CELJE,Keršova ulica 1,3212 Vojnik,Vojnik,Vojnik,Vojnik,46.29133,15.30397,(03) 577 35 95,https://ezdravnik.si/zdravnik/vrankic-zeljko/
556,4535557,"VURCER, ZOBOZDRAVSTVENE STORITVE D.O.O.",IZPOSTAVA GORNJA RADGONA,Mladinska ulica 18,9252 Radenci,Radenci,KS RADENCI,Radenci,46.64462,16.03732,,http://www.zobozdravniki-pomurja.si/profil/22/opis.html
557,6277527,"WAHIBI ZDRAVSTVENE STORITVE, TRGOVINA D.O.O.",OE CELJE,Celjska cesta 26,3212 Vojnik,Vojnik,Vojnik,Vojnik,46.29015,15.30205,03 543 43 70,https://www.zdravniki-zobozdravniki.net/clan/Raid-WAHIBI-752/
558,3122955,ZAJC KRAŠEVEC MOJCA - ZASEBNA ORDINACIJA,IZPOSTAVA DOMŽALE,Mestni trg 2,1230 Domžale,Domžale,Domžale - Slavka Šlandra,Domžale,46.13975,14.59617,01 724 82 22,https://www.zdravniki-zobozdravniki.net/clan/Mojca-ZAJC-KRASEVEC-409/
559,3125215,ZAJŠEK PETER - ZOBOZDRAVSTVO,IZPOSTAVA RADOVLJICA,Mladinska cesta 1,4260 Bled,Bled,Bled,Bled,46.3714,14.10909,,http://zobna-ordinacija-bled.si/
560,4165847,ZALIVKA DRUŽBA ZA ZOBOZDRAVSTVENO DEJAVNOST D.O.O,IZPOSTAVA PTUJ,Krekova ulica 14A,2000 Maribor,Maribor,Center,Maribor,46.56236,15.64548,(02) 777 13 41,https://www.cakalnedobe.si/ambulante/zalivka-druzba-za-zobozdravstveno-dejavnost-d-o-o
561,3221943,ZAPLATIL JANA - ZOBNA ORDINACIJA,OE LJUBLJANA,V Kladeh 9,1000 Ljubljana,Ljubljana,Četrtna skupnost Šentvid,Ljubljana,46.10876,14.4593,01/519 21 26,http://www.zobozdravstvo-zaplatil.si
562,4226310,ZAPLOTNIK KRALJ KSENIJA ZASEBNA ZOBNA ORDINACIJA,IZPOSTAVA TRŽIČ,Begunjska cesta 2,4290 Tržič,Bistrica pri Tržiču,Bistrica pri Tržiču,Tržič,46.35659,14.29278,,https://www.zdravniki-zobozdravniki.net/clan/Ksenija-ZAPLOTNIK-KRALJ-996/
563,6722433,ZASEBNA AMBULANTA - MOJ PEDIATER MATJAŽ HOMŠAK,IZPOSTAVA LENART,Maistrova ulica 22,2230 Lenart v Slov. goricah,Lenart v Slov. goricah,Lenart,Lenart,46.57734,15.82896,02 729 18 33,https://www.zdravniki-zobozdravniki.net/clan/Matjaz-HOMSAK-1446/
564,4223419,"ZASEBNA AMBULANTA AMNA SARAJLIĆ, DR. MED., SPEC. SPL. MED.",IZPOSTAVA HRASTNIK,Trg borcev NOB 13,1431 Dol pri Hrastniku,Dol pri Hrastniku,Dol pri Hrastniku,Hrastnik,46.14123,15.11613,"03 564 88 27, 03 565 44 70",https://www.zdravniki-zobozdravniki.net/clan/Amna-SARAJLIC-1002/
565,4681278,"ZASEBNA AMBULANTA DRUŽINSKE MEDICINE - FRANC NOVAK, DR. MED., SPEC. SPLOŠNE MEDICINE, ORDINACIJA SPLOŠNE MEDICINE",IZPOSTAVA ZAGORJE,Cesta zmage 1,1410 Zagorje ob Savi,Zagorje ob Savi,Jože Marn,Zagorje ob Savi,46.13384,14.9957,03 56 55 017,https://www.zadm.si/
566,3857662,ZASEBNA AMBULANTA DRUŽINSKE MEDICINE BOJANA KALIŠNIK SUŠNIK DR.MED.,IZPOSTAVA TRŽIČ,Blejska cesta 10,4290 Tržič,Tržič,Tržič - mesto,Tržič,46.36361,14.30654,04 592 51 31,https://ambulantasusnik.si/
567,7151766,ZASEBNA AMBULANTA DRUŽINSKE MEDICINE DR. DAVORIN KOLARIĆ,IZPOSTAVA LJUTOMER,Šafarsko 24D,9246 Razkrižje,Šafarsko,,Razkrižje,46.52012,16.28685,05 930 82 80,https://ambulanta-razkrizje.com/
568,6244657,"ZASEBNA AMBULANTA DRUŽINSKE MEDICINE IRENA VESTER, DR. MED., SPEC. DRUŽ. MED.",OE NOVO MESTO,Šmarjeta 66,8220 Šmarješke Toplice,Šmarjeta,,Šmarješke Toplice,45.88826,15.24703,05 995 52 45,http://www.zdravniki-zobozdravniki.net/clan/Irena-VESTER-1528/
569,7279176,"ZASEBNA AMBULANTA DRUŽINSKE MEDICINE, IVAN MITROVIĆ. DR. MED. SPEC.",IZPOSTAVA LENART,Kremberk 36A,2233 Sv. Ana v Slov. goricah,Kremberk,,Sveta Ana,46.64786,15.8425,05 996 72 85,https://zdravniki-zobozdravniki.net/Clan/Ivan-MITROVIC-1488
570,4496323,"ZASEBNA AMBULANTA MARJETA MAROŠA MEOLIC, DR. MED., SPEC. PEDIATER",OE MURSKA SOBOTA,Ulica Zorana Velnarja 2,9000 Murska Sobota,Murska Sobota,Turopolje,Murska Sobota,46.65481,16.15333,02 534 10 46,http://www.ambulanta-mmm.si
571,6100177,"ZASEBNA AMBULANTA POLONA SAGADIN, DR. MED., SPEC. DRUŽINSKE MEDICINE",IZPOSTAVA ŽALEC,Glavni trg 15,3313 Polzela,Polzela,,Polzela,46.2795,15.07495,08 205 39 18,http://www.zdravniki-zobozdravniki.net/clan/Polona-SAGADIN-1316/
572,5968550,"ZASEBNA AMBULANTA ROJ, DR.MED., SPLOŠNA MEDICINA, MEDICINA DELA, PROMETA IN ŠPORTA, LEPOTNI SALON HARMONIJA, D.O.O.",IZPOSTAVA SLOVENSKA BISTRICA,Mroževa ulica 3,2310 Slovenska Bistrica,Slovenska Bistrica,Pohorski odred,Slovenska Bistrica,46.39615,15.55526,(02) 818 18 88,https://www.medicina-dela-roj.si/splosna-medicina
573,4107225,"ZASEBNA AMBULANTA SPLOŠNE IN DRUŽINSKE MEDICINE OPLOTNICA MIRAN ARBEITER, DR. MED., SPEC. SPL. MED.",IZPOSTAVA SLOVENSKA BISTRICA,Ulica Pohorskega bataljona 11,2317 Oplotnica,Oplotnica,,Oplotnica,46.38817,15.44733,(02) 801 99 33,https://www.zdravniki-zobozdravniki.net/clan/Miran-ARBEITER-889/
574,4106659,"ZASEBNA AMBULANTA SPLOŠNE MEDICINE ERIKA FAGANEL BAVCON, DR.MED. SPEC.SPL.MED.",OE NOVA GORICA,Cesta Prekomorskih brigad 25,5290 Šempeter pri Gorici,Šempeter pri Gorici,,Šempeter-Vrtojba,45.93053,13.63792,,https://www.zdravniki-zobozdravniki.net/clan/Erika-FAGANEL-BAVCON-1207/
575,4104232,ZASEBNA AMBULANTA SPLOŠNE MEDICINE FRAM IRENA STROJNIK DR. MED. SPEC. SPLOŠNE MEDICINE,OE MARIBOR,Cafova ulica 1,2313 Fram,Fram,Fram,Rače-Fram,46.45644,15.62696,(02) 601 20 20,https://zdravniki-zobozdravniki.net/Clan/Irena-STROJNIK-911
576,4226281,"ZASEBNA AMBULANTA SPLOŠNE MEDICINE MAJDA ŽAGAR, DR. MED.",IZPOSTAVA VRHNIKA,Mejačeva ulica 3,1353 Borovnica,Borovnica,,Borovnica,45.91998,14.36563,01 754 83 00,http://www.zdravniki-zobozdravniki.net
577,4222703,"ZASEBNA AMBULANTA SPLOŠNE MEDICINE MARIJA MUNDA, DR. MED.",IZPOSTAVA VRHNIKA,Mejačeva ulica 3,1353 Borovnica,Borovnica,,Borovnica,45.91998,14.36563,01 754 83 00,https://narocanjemundawixsite.com/ambulanta-munda
578,4108510,"ZASEBNA AMBULANTA SPLOŠNE MEDICINE MARTINA HROVAT, DR.MED.SPEC.SPL.MED.",IZPOSTAVA ŽALEC,Glavni trg 15,3313 Polzela,Polzela,,Polzela,46.2795,15.07495,03 705 08 02,https://www.zdravniki-zobozdravniki.net/clan/Martina-HROVAT-843/
579,4103090,"ZASEBNA AMBULANTA SPLOŠNE MEDICINE METKA FIŠER ZOBOVIČ, DR. MED., SPECIALIST SPLOŠNE MEDICINE",OE MARIBOR,Gornji trg 37,2344 Lovrenc na Pohorju,Lovrenc na Pohorju,,Lovrenc na Pohorju,46.5378,15.38462,(02) 675 55 52,https://ambulantalovrenc.com/
580,4488331,"ZASEBNA AMBULANTA SPLOŠNE MEDICINE S KONCESIJO, DR. SPLOŠNE MEDICINE ROBERT RELJIČ",OE NOVA GORICA,Cesta Prekomorskih brigad 25,5290 Šempeter pri Gorici,Šempeter pri Gorici,,Šempeter-Vrtojba,45.93053,13.63792,,https://www.zdravniki-zobozdravniki.net/clan/Robert-RELJIC-1090/
581,4104860,"ZASEBNA AMBULANTA SPLOŠNE MEDICINE SLAVKO JERNEJŠEK, DR.MED., SPECIALIST SPLOŠNE MEDICINE",IZPOSTAVA ŽALEC,Glavni trg 15,3313 Polzela,Polzela,,Polzela,46.2795,15.07495,03 705 08 08,https://www.zdravniki-zobozdravniki.net/clan/Slavko-JERNEJSEK-849/
582,3092017,"ZASEBNA AMBULANTA SPLOŠNE MEDICINE STANE PTIČAR, DR.MED.",IZPOSTAVA LITIJA,Ponoviška cesta 6,1270 Litija,Litija,Mestna skupnost Litija,Litija,46.05833,14.82866,01 898 34 54,https://www.zdravniki-zobozdravniki.net/clan/Stane-PTICAR-711/
583,3091974,"ZASEBNA AMBULANTA SPLOŠNE MEDICINE TANJA PTIČAR, DR.MED.",IZPOSTAVA LITIJA,Ponoviška cesta 6,1270 Litija,Litija,Mestna skupnost Litija,Litija,46.05833,14.82866,(01) 89 83 454,https://www.zdravniki-zobozdravniki.net/clan/Tanja-PTICAR-710/
584,4344354,"ZASEBNA AMBULANTA SPLOŠNE MEDICINE ŠPIRO STANIVUK, S.P.",IZPOSTAVA RADLJE OB DRAVI,Mariborska cesta 37,2360 Radlje ob Dravi,Radlje ob Dravi,Radlje ob Dravi,Radlje ob Dravi,46.61372,15.23075,(02) 877 08 09,https://drstanivuk.com
585,4107776,"ZASEBNA AMBULANTA SPLOŠNE MEDICINE, LJILJANA TODOROVIĆ POPOVIĆ, DR. MED. SPEC., S.P.",IZPOSTAVA RADLJE OB DRAVI,Glavni trg 47,2366 Muta,Muta,,Muta,46.61055,15.16488,(02) 876 18 98,https://www.zdravniki-zobozdravniki.net/clan/Ljiljana-TODOROVIC-POPOVIC-880/
586,4155243,"ZASEBNA AMBULANTA SPLOŠNE MEDICINE, TANJA PAVLOVIĆ, DR. MED., SPEC. SPL. MEDICINE",IZPOSTAVA SLOVENSKA BISTRICA,Partizanska ulica 30,2310 Slovenska Bistrica,Slovenska Bistrica,Pohorski odred,Slovenska Bistrica,46.39552,15.56233,(02) 818 49 96,https://www.zd-sb.si/sl/ambulante/zasebna-ambulanta-splosne-medicine-tanja-pavlovic-drmedspecsplmed
587,4344770,"ZASEBNA AMBULANTA SPLOŠNE MEDICINE, TROJNAR BUDAK IRENA, DR. MED.",IZPOSTAVA GORNJA RADGONA,Panonska cesta 15,9252 Radenci,Radenci,KS RADENCI,Radenci,46.64352,16.03964,02 565 10 16,https://www.zdravniki-zobozdravniki.net/clan/Irena-TROJNAR-BUDAK-1051/
588,4342168,ZASEBNA AMBULANTA TATJANA TISOVIC RUS DR. MED.,IZPOSTAVA SLOVENSKE KONJICE,Kovaška cesta 22,3214 Zreče,Zreče,Zreče,Zreče,46.37959,15.38343,03 752 13 20,https://www.zdravniki-zobozdravniki.net/clan/Tatjana-TISOVIC-RUS-1019/
589,3110302,ZASEBNA AMBULANTA VLASTA GRABAR,OE MURSKA SOBOTA,Lendavska ulica 17A,9000 Murska Sobota,Murska Sobota,Ledava,Murska Sobota,46.66438,16.16739,,http://www.ezdravnik/vlasta-grabar
590,3075362,"ZASEBNA AMBULANTA ZA SPLOŠNO MEDICINO IN AKUPUNKTURO, FÜRST KARMEN, DR. MED.",IZPOSTAVA MOZIRJE,Savinjska cesta 6,3330 Mozirje,Mozirje,Mozirje,Mozirje,46.33885,14.95935,(03) 839 05 50,http://www.ambulanta-karmenfurst.si/
591,4232377,"ZASEBNA AMBULANTA ZVONIMIR CESAREC, DR. MED.",IZPOSTAVA LJUTOMER,Maistrova ulica 7,9241 Veržej,Veržej,,Veržej,46.58358,16.16056,,http://ambulanta-cesarec.si
592,2940350,"ZASEBNA GINEKOLOŠKA ORDINACIJA , INGRID ŠEBÖK - SUKIČ, DR. MEDICINESPECIALISTKA GINEKOLOGIJE IN PORODNIŠTVA",OE MURSKA SOBOTA,Ulica Staneta Rozmana 16,9000 Murska Sobota,Murska Sobota,Center,Murska Sobota,46.66145,16.16862,,http://www.zdravniki-zobozdravniki.net
593,5801252,ZASEBNA ORDINACIJA DR. JADEK D.O.O.,OE CELJE,Cankarjeva ulica 6,3000 Celje,Celje,Center,Celje,46.22964,15.26602,(03) 492 47 00,http://www.jadek.si
594,4224522,"ZASEBNA ORDINACIJA DRUŽINSKE MEDICINE MARJETKA BLAŽEVIĆ, DR.MED.,SPEC.SPL.MED.",IZPOSTAVA BREŽICE,Černelčeva cesta 8,8250 Brežice,Brežice,Brežice,Brežice,45.90811,15.59415,074 994 111,https://www.blazevic.si/
595,3167989,"ZASEBNA OTROŠKA AMBULANTA KOROŠEC KANIČ ZDENKA, DR. MED., SPEC.PEDIATER",OE MURSKA SOBOTA,Lendavska ulica 17A,9000 Murska Sobota,Murska Sobota,Ledava,Murska Sobota,46.66438,16.16739,,http://ezdravniki.si
596,7291647,"ZASEBNA OTROŠKA IN ŠOLSKA AMBULANTA MOJCA IVANKOVIČ KACJAN, DR. MED., SPEC. PEDIATRIJE",IZPOSTAVA LENART,Maistrova ulica 22,2230 Lenart v Slov. goricah,Lenart v Slov. goricah,Lenart,Lenart,46.57734,15.82896,(02)729 18 18,https://www.zdravniki-zobozdravniki.net/clan/Mojca-IVANKOVIC-KACJAN-1486/
597,4220901,"ZASEBNA PEDIATRIČNA AMBULANTA DAMIR DABRANIN, DR.MED., SPECIALIST PEDIATER",IZPOSTAVA SLOVENSKE KONJICE,Mestni trg 17,3210 Slovenske Konjice,Slovenske Konjice,Slovenske Konjice,Slovenske Konjice,46.33998,15.42862,(03) 759 06 95,http://www.zpa.si/kontakt.php
598,4107853,ZASEBNA PEDIATRIČNA ORDINACIJA DOMAGOJ PUŽEVSKI DR.MED.SPEC.PEDIATRIJE,OE KRŠKO,Cesta krških žrtev 132C,8270 Krško,Krško,Krško,Krško,45.94307,15.48349,(07) 48 80 237,http://domagojpuzevski.xp3.biz/domagoj/
599,4223604,"ZASEBNA PEDIATRIČNA ORDINACIJA IVAN KAUZLARIĆ, DR. MED. SPEC. PEDIATRIJE IN ŠOLSKE MEDICINE",IZPOSTAVA ILIRSKA BISTRICA,Gregorčičeva cesta 8,6250 Ilirska Bistrica,Ilirska Bistrica,Ilirska Bistrica,Ilirska Bistrica,45.56848,14.24324,(05) 714 25 77,http://www.zdravniki-zobozdravniki.net/clan/ivan-kauzlaric-985
600,4664697,ZASEBNA PEDIATRIČNA ORDINACIJA SABINA ROZMAN GOLČAR DR. MED. SPEC. PED.,OE MARIBOR,Stadionska ulica 2,2342 Ruše,Ruše,,Ruše,46.54266,15.50658,(02) 609 00 91,https://sabinarozman.wordpress.com/
601,3961800,ZASEBNA SPECIALISTIČNA SPLOŠNA ORDINACIJA VOJKA KOSTEVC S.P.,OE LJUBLJANA,Savska cesta 10,1000 Ljubljana,Ljubljana,Četrtna skupnost Jarše,Ljubljana,46.06433,14.52589,01 280 32 52,http://www.ordinacija-kostevc.si/
602,4343331,"ZASEBNA SPLOŠNA AMBULANTA - SABINA REZAR, DR.MED.",IZPOSTAVA ŽALEC,Šmartno ob Paki 146B,3327 Šmartno ob Paki,Šmartno ob Paki,,Šmartno ob Paki,46.33,15.03759,(03) 705 09 21,https://www.zdravniki-zobozdravniki.net/clan/Sabina-REZAR-1270/
603,6352845,"ZASEBNA SPLOŠNA AMBULANTA ALEŠ BLAZNIK, DR.MED. D.O.O.",OE CELJE,Ob Koprivnici 81,3000 Celje,Celje,Ostrožno,Celje,46.24988,15.25196,(03) 543 42 53,http://www.alesblaznik.si/
604,4347260,"ZASEBNA SPLOŠNA AMBULANTA IRENA MAJCEN, DR. MED., SPECIALISTKA DRUŽINSKE MEDICINE",IZPOSTAVA ŽALEC,Graščinska cesta 11,3312 Prebold,Prebold,,Prebold,46.23604,15.09094,(03) 705 32 25,https://www.zdravniki-zobozdravniki.net/clan/Irena-MAJCEN-1519/
605,8040552,"ZASEBNA SPLOŠNA AMBULANTA NOVAK, JASNA NOVAK, DR.MED.",OE KOPER,Obrtniška ulica 30,6000 Koper - Capodistria,Koper,Škocjan,Koper,45.53069,13.73563,05 625 00 72,https://www.ambulantanovak.si/
606,4109777,"ZASEBNA SPLOŠNA AMBULANTA SILVANA POPOV, DR. MED., SPEC. SPL. MED.",IZPOSTAVA SLOVENSKA BISTRICA,Makole 28,2321 Makole,Makole,Vaška skupnost Makole,Makole,46.31735,15.66729,(02) 803 05 70,http://www.silvana-popov.si/
607,3287469,"ZASEBNA SPLOŠNA ORDINACIJA - BOJAN RIBIČ, DR.MED., SPECIALIST SPLOŠNE MEDICINE",IZPOSTAVA SLOVENSKE KONJICE,Na vasi 11,3205 Vitanje,Vitanje,Trška skupnost Vitanje,Vitanje,46.38261,15.29604,03 752 50 16,https://www.zdravniki-zobozdravniki.net/clan/Bojan-RIBIC-679/
608,4345346,"ZASEBNA SPLOŠNA ORDINACIJA MARJAN BERGINC, DR. MED.",IZPOSTAVA SLOVENSKE KONJICE,Mestni trg 17,3210 Slovenske Konjice,Slovenske Konjice,Slovenske Konjice,Slovenske Konjice,46.33998,15.42862,(03) 759 32 90,https://www.marjanberginc.si/ambulante/
609,3200806,"ZASEBNA SPLOŠNA PRAKSA LEONARDA PIRMANŠEK, DR. MED.",IZPOSTAVA SLOVENJ GRADEC,Šolska cesta 55,2382 Mislinja,Mislinja,,Mislinja,46.44475,15.19541,"(02) 885 73 30, (064) 131 470",https://dr-pirmansek.si/
610,4108478,"ZASEBNA ZDRAVNIŠKA ORDINACIJA ANDREJ KRAVOS, DR.MED., SPECIALIST SPLOŠNE MEDICINE",IZPOSTAVA ŽALEC,Prešernova ulica 6,3310 Žalec,Žalec,Mestna skupnost Žalec,Žalec,46.25093,15.16216,03 713 43 26,https://dzdravje.si/ordinacija-kravos/
611,4108481,"ZASEBNA ZDRAVNIŠKA ORDINACIJA BRIGITA ARTIČEK MESAREC DR.MED., SPECIALISTKA SPLOŠNE MEDICINE",IZPOSTAVA ŽALEC,Prešernova ulica 6,3310 Žalec,Žalec,Mestna skupnost Žalec,Žalec,46.25093,15.16216,03 713 43 69,https://www.zdravniki-zobozdravniki.net/clan/Brigita-ARTICEK-MESAREC-842/
612,4108416,"ZASEBNA ZDRAVNIŠKA ORDINACIJA PETER STROUHAL, DR. MED. SPECIALIST SPLOŠNE MEDICINE",IZPOSTAVA ŽALEC,Prešernova ulica 6,3310 Žalec,Žalec,Mestna skupnost Žalec,Žalec,46.25093,15.16216,03 713 43 17,https://www.zdravniki-zobozdravniki.net/clan/peter-strouhal-1257/
613,4227853,"ZASEBNA ZDRAVSTVENA AMBULANTA SONCE MATJAŽ ROŽENBERGAR, DR. MED. SPEC. SPLOŠNE MEDICINE",OE NOVO MESTO,Kandijska cesta 4,8000 Novo mesto,Novo mesto,Krajevna skupnost Drska,Novo mesto,45.80129,15.1627,07 332 40 28,http://www.zdravniki-zobozdravniki.net/clan/Matjaz-ROZENBERGAR-978/
614,4227668,"ZASEBNA ZDRAVSTVENA AMBULANTA SPLOŠNE MEDICINE NATALIJA ŠKUFCA SREBRNJAK, DR. MED., SPEC. SPL. MED.",OE NOVO MESTO,Kandijska cesta 4,8000 Novo mesto,Novo mesto,Krajevna skupnost Drska,Novo mesto,45.80129,15.1627,07  332 40 11,http://www.zdravniki-zobozdravniki.net/clan/Natalija-SKUFCA-SREBRNJAK-981
615,4108356,ZASEBNA ZDRAVSTVENA AMBULANTA VERA RUPEL DR. MED.,IZPOSTAVA ŽALEC,Graščinska cesta 11,3312 Prebold,Prebold,,Prebold,46.23604,15.09094,(03) 705 35 70,https://www.zdravniki-zobozdravniki.net/clan/Vera-RUPEL-844/
616,4227637,"ZASEBNA ZDRAVSTVENA AMBULANTA ZORICA MILIĆ, DR. MED. SPEC. DRUŽINSKE MEDICINE",OE NOVO MESTO,Kandijska cesta 4,8000 Novo mesto,Novo mesto,Krajevna skupnost Drska,Novo mesto,45.80129,15.1627,07 332 40 16,http://www.zdravniki-zobozdravniki.net/clan/Zorica-MILIC-1008/
617,4381981,"ZASEBNA ZOBNA AMBULANTA - ALEKSANDRA ŠRAMEL, DR. DENT. MED.",IZPOSTAVA ŠMARJE PRI JELŠAH,Rogaška cesta 21,3240 Šmarje pri Jelšah,Šmarje pri Jelšah,Šmarje pri Jelšah,Šmarje pri Jelšah,46.22985,15.52162,(03) 582 25 25,https://www.zdravniki-zobozdravniki.net/clan/Aleksandra-SRAMEL-1183/
618,3435140,ZASEBNA ZOBNA AMBULANTA - DARINKA JUHART,IZPOSTAVA SLOVENSKE KONJICE,Mestni trg 17,3210 Slovenske Konjice,Slovenske Konjice,Slovenske Konjice,Slovenske Konjice,46.33998,15.42862,03 575 33 29,http://www.zdravniki-zobozdravniki.net/clan/Darinka-JUHART-1102/
619,5563770,"ZASEBNA ZOBNA AMBULANTA ALBINA ŽIŽEK, DR. DENT. MED.",IZPOSTAVA PTUJ,Destrnik 9,2253 Destrnik,Destrnik,,Destrnik,46.49296,15.87572,(02) 753 01 24,https://www.cakalnedobe.si/ambulante/zasebna-zobna-ambulanta-albina-zizek-dr-dent-med
620,4223743,"ZASEBNA ZOBNA AMBULANTA ALEKSANDRA FABJAN, DR.DENT.MED.",OE CELJE,Gregorčičeva ulica 5,3000 Celje,Celje,Dolgo polje,Celje,46.23224,15.26227,03 54 34 353,https://www.zdravniki-zobozdravniki.net/clan/Aleksandra-FABJAN-IVACIC-1511/
621,4163067,"ZASEBNA ZOBNA AMBULANTA ALENKA MANDIĆ, DR.DENT.MED.",OE CELJE,Gregorčičeva ulica 5,3000 Celje,Celje,Dolgo polje,Celje,46.23224,15.26227,03 543 43 61,https://www.zdravniki-zobozdravniki.net/clan/Alenka-MANDIC-979/
622,3121321,ZASEBNA ZOBNA AMBULANTA BORIS FEKONJA DR.DENT.MED.,OE KRŠKO,Šolska ulica 1,8270 Krško,Krško,Krško,Krško,45.95989,15.49411,(07) 490 17 90,https://www.zdravniki-zobozdravniki.net/clan/Boris-FEKONJA-217/
623,3096863,"ZASEBNA ZOBNA AMBULANTA DANICA AUŽNER ŠKORJANC, DR.DENT.MED.",OE CELJE,Gregorčičeva ulica 5,3000 Celje,Celje,Dolgo polje,Celje,46.23224,15.26227,03 543 43 68,https://www.zdravniki-zobozdravniki.net/clan/Danica-AUZNER-SKORJANC-1099/
624,4540053,ZASEBNA ZOBNA AMBULANTA KIRIL KORNAKOV DR.DENT.MED.,OE MURSKA SOBOTA,Ulica dr. Vrbnjaka 1,9000 Murska Sobota,Rakičan,KS RAKIČAN,Murska Sobota,46.65007,16.19052,,http://www.slovenski-zobozdravniki.si/kiril.kornakov
625,3958648,"ZASEBNA ZOBNA AMBULANTA MARKO KOSMAČ, DR.DENT.MED.",IZPOSTAVA AJDOVŠČINA,Glavni trg 16C,5271 Vipava,Vipava,Vipava,Vipava,45.846,13.96138,,https://www.zdravniki-zobozdravniki.net/clan/Marko-KOSMAC-1312/
626,3758890,"ZASEBNA ZOBNA AMBULANTA MIRJAM BRAJNIK, DR.DENT.MED.",IZPOSTAVA IZOLA,Ulica oktobrske revolucije 11,6310 Izola - Isola,Izola,Haliaetum,Izola,45.53464,13.66078,05 663 50 30,http://www.slovenski-zobozdravniki.si/mirjam-brajnik
627,3134295,"ZASEBNA ZOBNA AMBULANTA NIKOLA POTOČNIK, DR.DENT.MED.",IZPOSTAVA ŽALEC,Mestni trg 5,3310 Žalec,Žalec,Mestna skupnost Žalec,Žalec,46.25295,15.1621,03 571 60 44,https://www.zdravniki-zobozdravniki.net/clan/Nikola-POTOCNIK-16/#ordinacija
628,2954591,ZASEBNA ZOBNA AMBULANTA STRAHOVNIK MATEJ DR. DENT. MED.,IZPOSTAVA VELENJE,Vodnikova cesta 1,3320 Velenje,Velenje,Velenje - desni breg,Velenje,46.36151,15.11636,(03) 897 19 80,http://www.strahovnik.si/
629,4489016,"ZASEBNA ZOBNA AMBULANTA VERŽEJ, ALENKA VIDOVIČ DR. DENT.MED.",IZPOSTAVA LJUTOMER,Maistrova ulica 7,9241 Veržej,Veržej,,Veržej,46.58358,16.16056,,http://zobozdravniki-pomurja.si
630,3636491,ZASEBNA ZOBNA AMBULANTA ZA ODRASLE KELAIDIS GEORGE DR.DENT.MED.,OE RAVNE NA KOROŠKEM,Trg svobode 18A,2390 Ravne na Koroškem,Ravne na Koroškem,TRG,Ravne na Koroškem,46.54428,14.96559,(02) 821 83 54,https://www.cakalnedobe.si/ambulante/zasebna-zobna-ambulanta-za-odrasle-kelaidis-george
631,3463302,ZASEBNA ZOBNA AMBULANTA ZA OTROKE IN MLADINO MARTINOVIĆ SLAĐANA DR. DENT. MED.,IZPOSTAVA POSTOJNA,Prečna ulica 3,6257 Pivka,Pivka,Pivka,Pivka,45.68385,14.19357,(05) 757 14 56,https://www.ezobozdravnik.si/seznam-zobozdravnikov/zasebna-zobna-ambulanta-sladana-martinovic/
632,4225329,"ZASEBNA ZOBNA AMBULANTA ZA OTROKE IN MLADINO MOJCA DREV, DR.DENT.MED.",OE CELJE,Gregorčičeva ulica 5,3000 Celje,Celje,Dolgo polje,Celje,46.23224,15.26227,03 543 43 43,http://Mojca Drev www.zdravniki-zobozdravniki.net
633,4491906,"ZASEBNA ZOBNA AMBULANTA ZORAN RIBIČ, DR.DENT.MED.",IZPOSTAVA PTUJ,Dornava 135A,2252 Dornava,Dornava,,Dornava,46.43405,15.95139,(02) 755 00 38,https://www.zobozdravstvo-ribic.si/
634,3122634,ZASEBNA ZOBNA AMBULANTA ČEDOMIR CESAREC DR. DENT. MED,IZPOSTAVA ŠMARJE PRI JELŠAH,Celjska cesta 14,3240 Šmarje pri Jelšah,Šmarje pri Jelšah,Šmarje pri Jelšah,Šmarje pri Jelšah,46.22925,15.5163,(03) 582 24 35,https://cesarec-dent.com/
635,5795467,"ZASEBNA ZOBNA AMBULANTA, GORAN ŠALKOVIĆ DR. DENT. MED, S.P.",IZPOSTAVA TRŽIČ,Blejska cesta 10,4290 Tržič,Tržič,Tržič - mesto,Tržič,46.36361,14.30654,,http://ordinacija-salkovic.com/
636,5541992,"ZASEBNA ZOBNA AMBULANTA, SAŠA DOLAR, S.P.",IZPOSTAVA ŽALEC,Graščinska cesta 11,3312 Prebold,Prebold,,Prebold,46.23604,15.09094,082 054 040,https://www.zdravniki-zobozdravniki.net/clan/Sasa-DOLAR-PETELINSEK-1276/
637,4976375,ZASEBNA ZOBNA ORDINACIJA - BISERKA CAVRIĆ DR.STOMATOLOG,IZPOSTAVA SEVNICA,Krmelj 53,8296 Krmelj,Krmelj,Krmelj,Sevnica,45.98651,15.18517,07 81 84 891,https://www.zd-sevnica.si/zdravstvena-postaja-krmelj/zobozdravstvo/biserka-cavric-dr-stom
638,4248942,ZASEBNA ZOBNA ORDINACIJA - BOJANA DEBELJAK DANIELOV DR. DENT. MED.,IZPOSTAVA ŠMARJE PRI JELŠAH,Celjska cesta 10,3250 Rogaška Slatina,Rogaška Slatina,Rogaška Slatina,Rogaška Slatina,46.23916,15.6342,(03) 818 37 80,https://www.zdravniki-zobozdravniki.net/clan/Bojana-DEBELJAK-DANIELOV-963/
639,8229064,"ZASEBNA ZOBNA ORDINACIJA DAVID VIZJAK, DR. DENT. MED.",IZPOSTAVA ŽALEC,Glavni trg 15,3313 Polzela,Polzela,,Polzela,46.2795,15.07495,03 572 27 00,https://www.zdravniki-zobozdravniki.net/clan/David-VIZJAK-1597/
640,6100146,ZASEBNA ZOBNA ORDINACIJA DENTI MARJAN JOŽEF DR. DENT. MED.,OE NOVO MESTO,Kandijska cesta 4,8000 Novo mesto,Novo mesto,Krajevna skupnost Drska,Novo mesto,45.80129,15.1627,07 391 67 50,http://www.zobozdravstvo-denti.si
641,3208997,ZASEBNA ZOBNA ORDINACIJA DR. GAVRAN RENATA,OE LJUBLJANA,Linhartova cesta 51,1000 Ljubljana,Ljubljana,Četrtna skupnost Bežigrad,Ljubljana,46.0667,14.52411,01/475 82 56,https://zobozdravstvo-gavran.si/
642,5104488,"ZASEBNA ZOBNA ORDINACIJA DROFENIK MARKO JOŽEF, DRUŽBA ZA ZOBOZDRAVSTVENE STORITVE IN SVETOVANJE D.O.O.",OE MARIBOR,Vrbanska cesta 35,2000 Maribor,Maribor,Koroška vrata,Maribor,46.56527,15.63387,(02) 251 94 74,https://www.cakalnedobe.si/ambulante/zasebna-zobna-ordinacija-drofenik-marko-jozef
643,4107836,ZASEBNA ZOBNA ORDINACIJA EMILIJA ŽIVKOVIĆ DR.DENT.MED.,OE RAVNE NA KOROŠKEM,Ob Suhi 11,2390 Ravne na Koroškem,Ravne na Koroškem,TRG,Ravne na Koroškem,46.54286,14.96765,(02) 870 52 99,https://www.pirs.si/#/details;uuid=a550263b-fd08-4fc7-b103-3f145a482ea9
644,4350038,"ZASEBNA ZOBNA ORDINACIJA GREGOR MAVČIČ, DR. DENT. MED.",OE KRANJ,Gosposvetska ulica 10B,4000 Kranj,Kranj,Zlato polje,Kranj,46.24826,14.35331,,http://gregormavcic.si/
645,4345943,"ZASEBNA ZOBNA ORDINACIJA HELENA KONOBELJ, DR. DENT. MED.",IZPOSTAVA JESENICE,Cesta maršala Tita 78,4270 Jesenice,Jesenice,Plavž,Jesenice,46.44,14.04461,04 583 14 00,https://www.zdravniki-zobozdravniki.net/clan/Helena-KONOBELJ-1036/#ordinacija
646,4126071,ZASEBNA ZOBNA ORDINACIJA LEONID ŠOLINC DR.DENT.MED.,IZPOSTAVA TRBOVLJE,Rudarska cesta 12,1420 Trbovlje,Trbovlje,Trbovlje - center,Trbovlje,46.1551,15.04796,,
647,6390148,"ZASEBNA ZOBNA ORDINACIJA NADJA JUDEŽ, DR.DENT.MED.",OE NOVO MESTO,Šmarješka cesta 4,8000 Novo mesto,Novo mesto,Krajevna skupnost Ločna-Mačkovec,Novo mesto,45.81476,15.178,07 337 76 70,http://www.zobozdravnica.eu
648,7095124,"ZASEBNA ZOBNA ORDINACIJA NUŠA ZADEL, DR. DENT. MED.",OE LJUBLJANA,Slovenska cesta 17,1354 Horjul,Horjul,,Horjul,46.02461,14.29536,01 330 30 80,http://www.ordinacija-zadel.si/
649,3957430,"ZASEBNA ZOBNA ORDINACIJA POVŠE ZLATKO, DR. DENT. MED.",OE NOVO MESTO,Jurčičeva ulica 32,8360 Žužemberk,Žužemberk,,Žužemberk,45.83205,14.93017,07 308 81 50,http://www.zdravniki-zobozdravniki.net/clan/Zlatko-POVSE-835/
650,2995041,ZASEBNA ZOBNA ORDINACIJA TODOROVIĆ DRAGAN DR.STOM.,IZPOSTAVA TOLMIN,Gregorčičeva ulica 17,5222 Kobarid,Kobarid,Kobarid,Kobarid,46.2474,13.58074,,https://www.mojzobozdravnik.net/item/zasebna-zobna-ordinacija-todorovic-dragan-dr-stom/
651,3181091,"ZASEBNA ZOBNA ORDINACIJA VLADIMIR KRAMBERGER, DR. DENT.MED.",OE MURSKA SOBOTA,Mladinska ulica 10,9000 Murska Sobota,Bakovci,Bakovci,Murska Sobota,46.61794,16.14409,,http://www.dental-studiozvk.si/
652,4104830,"ZASEBNA ZOBNA ORDINACIJA, NIKO VRABL, DR.DENT.MED.",IZPOSTAVA ŽALEC,Prešernova ulica 6,3310 Žalec,Žalec,Mestna skupnost Žalec,Žalec,46.25093,15.16216,03 710 12 22,http://www.zobozdravstvo-vrabl.com
653,4678360,"ZASEBNA ZOBOZDRAVNICA DAMJANA KELAIDIS, DR.DENT.MED.",OE RAVNE NA KOROŠKEM,Trg svobode 18A,2390 Ravne na Koroškem,Ravne na Koroškem,TRG,Ravne na Koroškem,46.54428,14.96559,(02) 821 83 54,https://www.cakalnedobe.si/ambulante/zasebna-zobozdravnica-damjana-kelaidis
654,3110913,"ZASEBNA ZOBOZDRAVNIŠKA ORDINACIJA ZA ODRASLE ALOJZ RENČELJ, DR.DENT.MED",OE KRANJ,Gosposvetska ulica 10A,4000 Kranj,Kranj,Zlato polje,Kranj,46.24862,14.35322,,https://www.zdravniki-zobozdravniki.net/clan/Alojz-RENCELJ-456/
655,8124636,"ZASEBNA ZOBOZDRAVSTVENA AMBULANTA - BARBARA PIRHER, DR. DENT. MED.",IZPOSTAVA LJUTOMER,Križevci pri Ljutomeru 1B,9242 Križevci pri Ljutomeru,Križevci pri Ljutomeru,,Križevci,46.56093,16.14015,,http://www.zobozdravniki-pomurja.si/profil/29/opis.html
656,4225485,"ZASEBNA ZOBOZDRAVSTVENA AMBULANTA JUDITA KIŠ ZUPANC, DR.DENT.MED.",OE CELJE,Gregorčičeva ulica 5,3000 Celje,Celje,Dolgo polje,Celje,46.23224,15.26227,03 543 43 63,https://www.zdravniki-zobozdravniki.net/clan/Judita-KIS-ZUPANC-1245/
657,4224843,"ZASEBNA ZOBOZDRAVSTVENA AMBULANTA VESNA FUŽIR URBANČIČ, DR.DENT.MED.",OE LJUBLJANA,Videm 17C,1262 Dol pri Ljubljani,Videm,Dol,Dol pri Ljubljani,46.08608,14.63269,,http://zdravniki-zobozdravniki.net
658,4226160,"ZASEBNA ZOBOZDRAVSTVENA ORDINACIJA JANKA GORENEC, DR. DENT. MED.",OE NOVO MESTO,Kandijska cesta 4,8000 Novo mesto,Novo mesto,Krajevna skupnost Drska,Novo mesto,45.80129,15.1627,07 332 40 55,http://www.ordinacija-gorenec.si
659,4223010,"ZASEBNA ZOBOZDRAVSTVENA ORDINACIJA NATAŠA DAJOVIĆ, DR. DENT. MED.",IZPOSTAVA TREBNJE,Kidričeva ulica 11,8210 Trebnje,Trebnje,Trebnje,Trebnje,45.90991,15.00628,07 348 18 89,http://www.zdravniki-zobozdravniki.net/clan/Natasa-DAJOVIC-1104/
660,4226079,"ZASEBNA ZOBOZDRAVSTVENA ORDINACIJA RENATA OSTANEK ULE, DR. DENT. MED.",OE NOVO MESTO,Kandijska cesta 4,8000 Novo mesto,Novo mesto,Krajevna skupnost Drska,Novo mesto,45.80129,15.1627,073 324 024,http://www.zdravniki-zobozdravniki.net/clan/Renata-OSTANEK-ULE-970/
661,5384864,ZASEBNA ZOBOZDRAVSTVENA ORDINACIJA SERGEJ OLUJIĆ,OE LJUBLJANA,Litijska cesta 38,1000 Ljubljana,Ljubljana,Četrtna skupnost Golovec,Ljubljana,46.04733,14.54543,059 054 343,http://www.stomatolog.si/
662,3958910,ZASEBNA ZOBOZDRAVSTVENA ORDINACIJA VELIMIR KLARIĆ DR. DENT. MED.,IZPOSTAVA CERKNICA,Cesta 4. maja 17,1380 Cerknica,Cerknica,Cerknica,Cerknica,45.79122,14.36578,,http://ordinacija-klaric.si
663,4222340,"ZASEBNA ZOBOZDRAVSTVENA ORDINACIJA ZA ODRASLE IN MLADINO SAMO SPETIČ, DR. DENT. MED.",IZPOSTAVA ILIRSKA BISTRICA,Podgrad 12B,6244 Podgrad,Podgrad,Podgrad,Ilirska Bistrica,45.52063,14.14665,(05) 783 52 30,http://www.zobozdravnik-spetic.si
664,4498142,"ZASEBNA ZOBOZDRAVSTVENA ORDINACIJA ZVONKO ROMOZI, DR. DENT. MED.",IZPOSTAVA TREBNJE,Obrtniška ulica 6,8210 Trebnje,Trebnje,Trebnje,Trebnje,45.90719,15.02266,07 346 64 60,http://www.zdravniki-zobozdravniki.net/clan/Zvonko-ROMOZI-1260/
665,3078202,ZASEBNA ŠOLSKA IN MLADINSKA ZOBNA AMBULANTA BEDENE ZVEZDANA - DR. DENTALNE MEDICINE,OE KOPER,Pot v gaj 2,6000 Koper - Capodistria,Koper,Žusterna,Koper,45.54423,13.71155,05 663 28 88,https://www.zdravniki-zobozdravniki.net/clan/Zvezdana-BEDENE-1180/
666,7967550,"ZASEBNI ZDRAVSTVENI ZAVOD A MEDICINA, DRUŽINSKA MEDICINA",IZPOSTAVA VELENJE,Trg Jožeta Lampreta 1,3325 Šoštanj,Šoštanj,Šoštanj,Šoštanj,46.37648,15.0485,059 728 755,http://www.a-medicina.si
667,3305629,ZASEBNI ZDRAVSTVENI ZAVOD BOSSMAN PETER,OE KOPER,Vojkovo nabrežje 32,6000 Koper - Capodistria,Koper,Koper - Center,Koper,45.54807,13.73774,(05) 630 85 40,http://www.bossman.si/
668,4351459,"ZASEBNI ZDRAVSTVENI ZAVOD BRUNO VOJNOVIĆ, DR.DENT.MED., ZOBOZDRAVSTVENA DEJAVNOST",IZPOSTAVA RADOVLJICA,Kopališka cesta 7,4240 Radovljica,Radovljica,Radovljica,Radovljica,46.34702,14.17201,,http://Bruno Vojnović dr.dent.med.
669,4342825,"ZASEBNI ZDRAVSTVENI ZAVOD LILJANA KRIVEC SKRT, DR. MED.",IZPOSTAVA RADOVLJICA,Cesta svobode 47A,4260 Bled,Bled,Bled,Bled,46.35838,14.09453,,
670,3305919,ZASEBNI ZDRAVSTVENI ZAVOD MARC,OE KOPER,Vojkovo nabrežje 32,6000 Koper - Capodistria,Koper,Koper - Center,Koper,45.54807,13.73774,05 639 64 60,https://www.zobna-marc.si/
671,3922325,ZASEBNI ZDRAVSTVENI ZAVOD PEŠIĆ - IZOLA,IZPOSTAVA IZOLA,Ulica oktobrske revolucije 11,6310 Izola - Isola,Izola,Haliaetum,Izola,45.53464,13.66078,05 662 52 22,https://www.zdravniki-zobozdravniki.net/clan/Tihomir-PESIC-793/
672,4236460,"ZASEBNI ZOBOZDRAVSTVENI ZAVOD, LAPČEVIČ VLADO, DR.DENT.MED.",IZPOSTAVA JESENICE,Cesta maršala Tita 78,4270 Jesenice,Jesenice,Plavž,Jesenice,46.44,14.04461,,https://www.zdravniki-zobozdravniki.net/clan/Vlado-LAPCEVIC-1445/
673,4223670,"ZASEBNI ŠOLSKI DISPANZER JELKA HOSTNIK, DR. MED., SPEC. ŠOL. MED.",OE KRANJ,Gosposvetska ulica 10,4000 Kranj,Kranj,Zlato polje,Kranj,46.2489,14.35325,04 208 21 41,http://www.zdravniki-zobozdravniki.net/clan/Jelka-HOSTNIK-943/
674,6567480,"ZATE, ZOBNA AMBULANTA IN DRUGE STORITVE, D.O.O.",OE MARIBOR,Železnikova ulica 4,2000 Maribor,Maribor,Pobrežje,Maribor,46.55037,15.66738,(05) 912 65 05,http://www.mini-implantati.si/si/page/ZATE
675,4220733,"ZAVOD RR ŠKOFJA LOKA, ZASEBNI ZDRAVSTVENI ZAVOD",IZPOSTAVA ŠKOFJA LOKA,Stara cesta 10,4220 Škofja Loka,Škofja Loka,Kamnitnik,Škofja Loka,46.16618,14.31281,"04 515 151, 051 395 675",http://www.zavodrr.si
676,4156539,ZAVOD ZA ZDRAVSTVENE DEJAVNOSTI IN SVETOVANJE - EVITA,IZPOSTAVA CERKNICA,Cesta pod Slivnico 21,1380 Cerknica,Cerknica,Cerknica,Cerknica,45.79663,14.36783,01 705 05 51,https://www.zavodevita.si/
677,3221957,ZAVODNIK KRUPENKO TATJANA - ZASEBNA SPLOŠNA ORDINACIJA,OE LJUBLJANA,Tržna ulica 3,1000 Ljubljana,Ljubljana,Četrtna skupnost Šiška,Ljubljana,46.06421,14.49368,01 519 43 53,https://www.zdravniki-zobozdravniki.net/clan/Tatjana-ZAVODNIK-KRUPENKO-103/
678,,ZD LJUBLJANA - BEŽIGRAD,OE LJUBLJANA,Kržičeva ulica 10,1000 Ljubljana,Ljubljana,Četrtna skupnost Bežigrad,Ljubljana,46.06465,14.51105,,
679,,ZD LJUBLJANA - CENTER,OE LJUBLJANA,Metelkova ulica 9,1000 Ljubljana,Ljubljana,Četrtna skupnost Center,Ljubljana,46.05658,14.51516,,
680,,ZD LJUBLJANA - MOSTE - POLJE,OE LJUBLJANA,Prvomajska ulica 5,1000 Ljubljana,Ljubljana,Četrtna skupnost Moste,Ljubljana,46.05588,14.53132,,
681,,ZD LJUBLJANA - VIČ - RUDNIK,OE LJUBLJANA,Šestova ulica 10,1000 Ljubljana,Ljubljana,Četrtna skupnost Vič,Ljubljana,46.04631,14.48719,,
682,,ZD LJUBLJANA - ŠENTVID,OE LJUBLJANA,Ob zdravstvenem domu 1,1210 Ljubljana - Šentvid,Ljubljana,Četrtna skupnost Šentvid,Ljubljana,46.09856,14.4649,,
683,,ZD LJUBLJANA - ŠIŠKA,OE LJUBLJANA,Derčeva ulica 5,1000 Ljubljana,Ljubljana,Četrtna skupnost Šiška,Ljubljana,46.06846,14.488,,
684,4530759,"ZDRAV SLOG, DRUŽBA ZA ZDRAVSTVENE STORITVE IN SVETOVANJE D.O.O.",OE MARIBOR,Pesnica pri Mariboru 42C,2211 Pesnica pri Mariboru,Pesnica pri Mariboru,Pesnica pri Mariboru,Pesnica,46.60846,15.67654,(02) 654 20 08,http://www.zdravslog.si/kontakt
685,4171000,ZDRAV ZOB ZOBOZDRAVSTVENI ZAVOD,IZPOSTAVA PTUJ,Juršinci 3,2256 Juršinci,Juršinci,,Juršinci,46.48566,15.96784,(02) 758 00 31,https://www.cakalnedobe.si/ambulante/zdrav-zob-zobozdravstveni-zavod-zobozdravstvena-dejavnost/
686,4521272,"ZDRAVI ZOBJE, ZDRAVSTVENE STORITVE IN IZOBRAŽEVANJE, D.O.O.",OE MARIBOR,Ulica heroja Nandeta 37,2000 Maribor,Maribor,Tezno,Maribor,46.5331,15.67376,(02) 461 17 55,https://www.zdravizobje.si/
687,4188710,"ZDRAVJE - DRUŽINSKA MEDICINA, IVAN URBANC, S.P.",IZPOSTAVA VELENJE,Florjan 165C,3325 Šoštanj,Florjan,Skorno - Florjan,Šoštanj,46.38507,15.02767,(03) 588 20 70,https://www.zdravniki-zobozdravniki.net/clan/Ivan-URBANC-998/
688,8125523,ZDRAVJE FIT MEDICINSKI CENTER ZDRAVNIK D.O.O.,IZPOSTAVA GROSUPLJE,Triglavska ulica 6,1000 Ljubljana,Ljubljana,Četrtna skupnost Bežigrad,Ljubljana,46.07328,14.50934,01 780 72 20,http://www.zd-videm.si
689,4529856,"ZDRAVJE METKA IN BRANIMIR, ZDRAVSTVENE DEJAVNOSTI IN STORITVE, D.O.O.",OE KOPER,Kolomban 38F,6280 Ankaran - Ancarano,Kolomban,Hrvatini,Koper,45.58875,13.74737,05 625 00 66,https://ezdravnik.si/zdravnik/zdravje-metka-branimir/
690,3931283,ZDRAVJE ZDRAVSTVENE STORITVE IN SVETOVANJE D.O.O.,IZPOSTAVA POSTOJNA,Ulica padlih borcev 22,6258 Prestranek,Prestranek,Prestranek,Postojna,45.72884,14.18469,(05) 754 01 70,http://gaiamed.si/si/ambulante/ambulanta-splosne-medicine-zdravje/
691,5236255,"ZDRAVSTVENA ORDINACIJA ""DR. ŠOLMAN"", ZDRAVSTVENE STORITVE, D.O.O.",IZPOSTAVA PTUJ,Rogozniška cesta 32A,2250 Ptuj,Ptuj,"Četrt Jezero, Belšakova ulica 20a",Ptuj,46.426,15.88643,(02) 787 80 40,https://solman.si/index.php
692,3668582,ZDRAVSTVENI CENTER DRAVLJE D.O.O.,OE LJUBLJANA,Cesta na Poljane 24,1210 Ljubljana - Šentvid,Ljubljana,Četrtna skupnost Šentvid,Ljubljana,46.09337,14.47463,051 336 847,"http://www.noseca.com , www.neplodnost.com"
693,2663479,ZDRAVSTVENI CENTER LORENA D.O.O,OE LJUBLJANA,Dunajska cesta 405,1231 Ljubljana - Črnuče,Ljubljana,Četrtna skupnost Črnuče,Ljubljana,46.10448,14.53545,"059 700 661, 059 700 662, 059 700 670",http://www.lorena.si
694,141992,ZDRAVSTVENI DOM AJDOVŠČINA,IZPOSTAVA AJDOVŠČINA,Tovarniška cesta 3,5270 Ajdovščina,Ajdovščina,Krajevna skupnost Ajdovščina,Ajdovščina,45.88598,13.90542,,https://www.zd-ajdovscina.si/
695,95801,ZDRAVSTVENI DOM BREŽICE,IZPOSTAVA BREŽICE,Černelčeva cesta 8,8250 Brežice,Brežice,Brežice,Brežice,45.90811,15.59415,074 991 400,https://www.zd-brezice.si/
696,604816,ZDRAVSTVENI DOM CELJE,OE CELJE,Gregorčičeva ulica 5,3000 Celje,Celje,Dolgo polje,Celje,46.23224,15.26227,(03) 543 40 00,http://www.zd-celje.si
697,488940,ZDRAVSTVENI DOM DOMŽALE,IZPOSTAVA DOMŽALE,Mestni trg 2,1230 Domžale,Domžale,Domžale - Slavka Šlandra,Domžale,46.13975,14.59617,,https://www.zd-domzale.si
698,90255,ZDRAVSTVENI DOM DR. ADOLFA DROLCA MARIBOR,OE MARIBOR,Ulica talcev 9,2000 Maribor,Maribor,Center,Maribor,46.55933,15.65183,02 22 86 200,http://www.zd-mb.si
699,199049,ZDRAVSTVENI DOM DR. BOŽIDARJA LAVRIČA - CERKNICA,IZPOSTAVA CERKNICA,Cesta 4. maja 17,1380 Cerknica,Cerknica,Cerknica,Cerknica,45.79122,14.36578,(01) 70 50 100,http://www.zd-cerknica.si/
700,751699,"ZDRAVSTVENI DOM DR. FRANCA AMBROŽIČA, POSTOJNA",IZPOSTAVA POSTOJNA,Prečna ulica 2,6230 Postojna,Postojna,Postojna,Postojna,45.77205,14.21042,05 700 04 00,http://www.zd-po.si
701,205431,ZDRAVSTVENI DOM DR. JANEZA ORAŽMA RIBNICA,IZPOSTAVA RIBNICA,Majnikova ulica 1,1310 Ribnica,Ribnica,Ribnica,Ribnica,45.74238,14.72596,(01) 837 22 00,https://www.zdribnica.si/
702,622008,ZDRAVSTVENI DOM DR. JOŽETA POTRATE ŽALEC,IZPOSTAVA ŽALEC,Prešernova ulica 6,3310 Žalec,Žalec,Mestna skupnost Žalec,Žalec,46.25093,15.16216,03 713 43 00,http://www.zd-zalec.si
703,96292,ZDRAVSTVENI DOM DR. JULIJA POLCA KAMNIK,IZPOSTAVA KAMNIK,Novi trg 26,1241 Kamnik,Kamnik,Novi trg,Kamnik,46.22139,14.61328,,http://www.zdkamnik.si
704,92260,ZDRAVSTVENI DOM DRAVOGRAD,OE RAVNE NA KOROŠKEM,Trg 4. julija 4,2370 Dravograd,Dravograd,Dravograd,Dravograd,46.58962,15.0247,(02) 872 34 00,http://www.zd-dravograd.si
705,821132,ZDRAVSTVENI DOM GORNJA RADGONA,IZPOSTAVA GORNJA RADGONA,Partizanska cesta 40,9250 Gornja Radgona,Gornja Radgona,KS GORNJA RADGONA,Gornja Radgona,46.6734,15.99302,,https://www.zd-gr.si/
706,2817672,ZDRAVSTVENI DOM GROSUPLJE,IZPOSTAVA GROSUPLJE,Pod gozdom cesta I 14,1290 Grosuplje,Grosuplje,Grosuplje,Grosuplje,45.95943,14.65315,,http://sl.zd-grosuplje.si/
707,102182,ZDRAVSTVENI DOM HRASTNIK,IZPOSTAVA HRASTNIK,Novi dom 11,1430 Hrastnik,Hrastnik,Rudnik,Hrastnik,46.1403,15.08513,(03) 565 44 50,http://zd-hrastnik.si/
708,199109,ZDRAVSTVENI DOM IDRIJA,IZPOSTAVA IDRIJA,Ulica Otona Župančiča 3,5280 Idrija,Idrija,Idrija,Idrija,46.0022,14.03036,,http://www.zd-idrija.si
709,751640,ZDRAVSTVENI DOM ILIRSKA BISTRICA,IZPOSTAVA ILIRSKA BISTRICA,Gregorčičeva cesta 8,6250 Ilirska Bistrica,Ilirska Bistrica,Ilirska Bistrica,Ilirska Bistrica,45.56848,14.24324,05 711 21 00,http://www.zdib.si
710,2817701,ZDRAVSTVENI DOM IVANČNA GORICA,IZPOSTAVA GROSUPLJE,Cesta 2. grupe odredov 16,1295 Ivančna Gorica,Ivančna Gorica,Ivančna Gorica,Ivančna Gorica,45.93759,14.80558,01 781 90 00,http://sl.zd-ivg.si/
711,724180,ZDRAVSTVENI DOM IZOLA,IZPOSTAVA IZOLA,Ulica oktobrske revolucije 11,6310 Izola - Isola,Izola,Haliaetum,Izola,45.53464,13.66078,05 663 50 50,https://www.zd-izola.si/
712,705728,ZDRAVSTVENI DOM KOPER CASA DELLA SANITA CAPODISTRIA,OE KOPER,Dellavallejeva ulica 3,6000 Koper - Capodistria,Koper,Koper - Center,Koper,45.5487,13.73094,05 664 71 00,https://www.zd-koper.si/
713,205445,ZDRAVSTVENI DOM KOČEVJE,IZPOSTAVA KOČEVJE,Roška cesta 18,1330 Kočevje,Kočevje,Kočevje-mesto,Kočevje,45.63938,14.86562,(01) 893 90 00,https://www.zdkocevje.si/
714,91770,ZDRAVSTVENI DOM KRŠKO,OE KRŠKO,Cesta krških žrtev 132C,8270 Krško,Krško,Krško,Krško,45.94307,15.48349,074 880 200,http://www.zd-krsko.si/
715,664360,ZDRAVSTVENI DOM LAŠKO,IZPOSTAVA LAŠKO,Kidričeva ulica 5B,3270 Laško,Laško,Laško,Laško,46.1545,15.2373,03 734 36 00,http://www.zd-lasko.si
716,130345,ZDRAVSTVENI DOM LENART,IZPOSTAVA LENART,Maistrova ulica 22,2230 Lenart v Slov. goricah,Lenart v Slov. goricah,Lenart,Lenart,46.57734,15.82896,02 729 18 12,http://www.zd-lenart.si
717,772419,ZDRAVSTVENI DOM LENDAVA - EGESZSEGHAZ LENDVA,IZPOSTAVA LENDAVA,Kidričeva ulica 34,9220 Lendava - Lendva,Lendava,Lendava,Lendava,46.55821,16.45692,,https://www.zd-lendava.si
718,96289,ZDRAVSTVENI DOM LITIJA,IZPOSTAVA LITIJA,Partizanska pot 8A,1270 Litija,Litija,Mestna skupnost Litija,Litija,46.05389,14.83656,,http://www.zd-litija.si
719,786482,ZDRAVSTVENI DOM LJUTOMER,IZPOSTAVA LJUTOMER,Cesta I. slovenskega tabora 2,9240 Ljutomer,Ljutomer,Ljutomer,Ljutomer,46.52172,16.19326,02 585 14 00,http://www.zd-lju.si
720,199126,ZDRAVSTVENI DOM LOGATEC,IZPOSTAVA LOGATEC,Notranjska cesta 2,1370 Logatec,Logatec,Naklo,Logatec,45.91681,14.22768,(01) 750 82 20,https://zd-logatec.si/
721,3259412,ZDRAVSTVENI DOM MEDVODE,OE LJUBLJANA,Ostrovrharjeva ulica 6,1215 Medvode,Medvode,Medvode - center,Medvode,46.14535,14.4056,,http://www.zd-medvode.si/
722,91813,ZDRAVSTVENI DOM METLIKA,IZPOSTAVA METLIKA,Cesta bratstva in enotnosti 71,8330 Metlika,Metlika,Mestna skupnost Metlika,Metlika,45.64848,15.31814,07 369 14 00,http://www.zd-metlika.si
723,772405,ZDRAVSTVENI DOM MURSKA SOBOTA,OE MURSKA SOBOTA,Grajska ulica 24,9000 Murska Sobota,Murska Sobota,Ledava,Murska Sobota,46.66402,16.16066,,http://www.zd-ms.si
724,91918,ZDRAVSTVENI DOM NOVO MESTO,OE NOVO MESTO,Kandijska cesta 4,8000 Novo mesto,Novo mesto,Krajevna skupnost Drska,Novo mesto,45.80129,15.1627,07 391 67 00,http://www.zd-nm.si
725,92120,ZDRAVSTVENI DOM ORMOŽ,IZPOSTAVA ORMOŽ,Ulica dr. Hrovata 4,2270 Ormož,Ormož,Ormož,Ormož,46.40724,16.14333,02 741 09 00,http://www.zd-ormoz.si/
726,141819,ZDRAVSTVENI DOM OSNOVNO VARSTVO NOVA GORICA,OE NOVA GORICA,Rejčeva ulica 4,5000 Nova Gorica,Nova Gorica,Krajevna skupnost Nova Gorica,Nova Gorica,45.95794,13.64553,,http://www.zd-go.si
727,710804,ZDRAVSTVENI DOM PIRAN POLIAMBULATORIO PIRANO,IZPOSTAVA PIRAN,Cesta solinarjev 1,6320 Portorož - Portorose,Lucija,Lucija,Piran,45.50452,13.60205,05 620 72 32,http://www.zd-piran.si
728,490314,ZDRAVSTVENI DOM PTUJ,IZPOSTAVA PTUJ,Potrčeva cesta 19A,2250 Ptuj,Ptuj,"Četrt Center,Jadranska ulica 6",Ptuj,46.42513,15.87566,02/787-15-00,http://www.zd-ptuj.si
729,664356,ZDRAVSTVENI DOM RADEČE,IZPOSTAVA LAŠKO,Ulica OF 8,1433 Radeče,Radeče,Radeče,Radeče,46.06587,15.18065,03 568 02 00,http://www.zd-radece.si
730,92290,ZDRAVSTVENI DOM RADLJE OB DRAVI,IZPOSTAVA RADLJE OB DRAVI,Mariborska cesta 37,2360 Radlje ob Dravi,Radlje ob Dravi,Radlje ob Dravi,Radlje ob Dravi,46.61372,15.23075,02 877 08 01,http://www.zd-radlje.si
731,92407,ZDRAVSTVENI DOM RAVNE NA KOROŠKEM,OE RAVNE NA KOROŠKEM,Ob Suhi 11,2390 Ravne na Koroškem,Ravne na Koroškem,TRG,Ravne na Koroškem,46.54286,14.96765,(02) 870 52 00,http://www.zd-ravne.si
732,622056,ZDRAVSTVENI DOM SEVNICA,IZPOSTAVA SEVNICA,Trg svobode 14,8290 Sevnica,Sevnica,Sevnica,Sevnica,46.0106,15.30248,078 161 500,https://www.zd-sevnica.si/
733,141762,ZDRAVSTVENI DOM SEŽANA,IZPOSTAVA SEŽANA,Partizanska cesta 24,6210 Sežana,Sežana,Sežana,Sežana,45.70858,13.87152,05 731 14 00,https://www.zd-sezana.si/
734,92501,ZDRAVSTVENI DOM SLOVENJ GRADEC,IZPOSTAVA SLOVENJ GRADEC,Partizanska pot 16,2380 Slovenj Gradec,Slovenj Gradec,Center,Slovenj Gradec,46.50693,15.08202,(02) 885 79 40,http://www.zd-sg.si
735,146418,ZDRAVSTVENI DOM SLOVENSKA BISTRICA,IZPOSTAVA SLOVENSKA BISTRICA,Partizanska ulica 30,2310 Slovenska Bistrica,Slovenska Bistrica,Pohorski odred,Slovenska Bistrica,46.39552,15.56233,(02) 843 27 00,http://www.zd-sb.si
736,616450,ZDRAVSTVENI DOM SLOVENSKE KONJICE,IZPOSTAVA SLOVENSKE KONJICE,Mestni trg 17,3210 Slovenske Konjice,Slovenske Konjice,Slovenske Konjice,Slovenske Konjice,46.33998,15.42862,03 758 17 00,http://www.zd-slovenskekonjice.si
737,141900,ZDRAVSTVENI DOM TOLMIN,IZPOSTAVA TOLMIN,Prešernova ulica 6A,5220 Tolmin,Tolmin,Tolmin,Tolmin,46.18376,13.73472,,https://www.zd-tolmin.si
738,102320,"ZDRAVSTVENI DOM TRBOVLJE TRBOVLJE, RUDARSKA CESTA 12",IZPOSTAVA TRBOVLJE,Rudarska cesta 12,1420 Trbovlje,Trbovlje,Trbovlje - center,Trbovlje,46.1551,15.04796,(03) 562 41 00,https://www.zd-trbovlje.si/
739,91784,ZDRAVSTVENI DOM TREBNJE,IZPOSTAVA TREBNJE,Goliev trg 3,8210 Trebnje,Trebnje,Trebnje,Trebnje,45.9083,15.00666,07 348 17 40,http://www.zd-tr.si
740,789398,ZDRAVSTVENI DOM VELENJE,IZPOSTAVA VELENJE,Vodnikova cesta 1,3320 Velenje,Velenje,Velenje - desni breg,Velenje,46.36151,15.11636,03 899 54 00,http://www.zd-velenje.si
741,199021,ZDRAVSTVENI DOM VRHNIKA,IZPOSTAVA VRHNIKA,Cesta 6. maja 11,1360 Vrhnika,Vrhnika,Vrhnika Center,Vrhnika,45.96278,14.29358,,http://www.zd-vrhnika.si
742,680829,ZDRAVSTVENI DOM ZA ŠTUDENTE UNIVERZE V LJUBLJANI,OE LJUBLJANA,Aškerčeva cesta 4,1000 Ljubljana,Ljubljana,Četrtna skupnost Center,Ljubljana,46.04687,14.49913,,https://www.zdstudenti.si/
743,102699,ZDRAVSTVENI DOM ZAGORJE OB SAVI CESTA ZMAGE 1,IZPOSTAVA ZAGORJE,Cesta zmage 1,1410 Zagorje ob Savi,Zagorje ob Savi,Jože Marn,Zagorje ob Savi,46.13384,14.9957,(03) 565 50 00,http://www.zd-zagorje.si
744,142070,ZDRAVSTVENI DOM ZOBOZDRAVSTVENO VARSTVO NOVA GORICA,OE NOVA GORICA,Ulica Gradnikove brigade 7,5000 Nova Gorica,Nova Gorica,Krajevna skupnost Nova Gorica,Nova Gorica,45.95843,13.64623,,https://www.zdzv-ng.si/
745,91830,ZDRAVSTVENI DOM ČRNOMELJ,IZPOSTAVA ČRNOMELJ,Delavska pot 4,8340 Črnomelj,Črnomelj,Črnomelj,Črnomelj,45.57549,15.18753,07 306 17 00,http://www.zd-crnomelj.si
746,616369,ZDRAVSTVENI DOM ŠENTJUR,IZPOSTAVA ŠENTJUR PRI CELJU,Cesta Leona Dobrotinška 3B,3230 Šentjur,Šentjur,Šentjur-mesto,Šentjur,46.21453,15.39378,(03) 746 24 00,http://www.zd-sentjur.si
747,616386,ZDRAVSTVENI DOM ŠMARJE PRI JELŠAH,IZPOSTAVA ŠMARJE PRI JELŠAH,Celjska cesta 16,3240 Šmarje pri Jelšah,Šmarje pri Jelšah,Šmarje pri Jelšah,Šmarje pri Jelšah,46.22926,15.5161,(03) 818 37 00,http://www.zd-smarje.si
748,3964335,ZDRAVSTVENI IN ZOBOZDRAVSTVENI ZAVOD DR. MALE,OE MARIBOR,Gospejna ulica 11,2000 Maribor,Maribor,Center,Maribor,46.55957,15.64234,(02) 228 15 00,http://www.renemale.com/index.php/sl/
749,5741662,ZDRAVSTVENI ZAVOD ARTDENT BLED,IZPOSTAVA JESENICE,Kolodvorska cesta 3C,4260 Bled,Bled,Rečica,Bled,46.37448,14.09175,,http://www.artdent.si/
750,6608788,"ZDRAVSTVENI ZAVOD BARBUL MARICA, MIKLAVŽ NA DRAVSKEM POLJU",OE MARIBOR,Ptujska cesta 110,2204 Miklavž na Dravskem polju,Miklavž na Dravskem polju,Miklavž na Dravskem polju,Miklavž na Dravskem polju,46.50217,15.7026,(02) 629 63 30,https://zdravniki-zobozdravniki.net/Clan/Marica-BARBUL-705
751,4623421,ZDRAVSTVENI ZAVOD BELDENT IZOLA,IZPOSTAVA PIRAN,Šared 51,6310 Izola - Isola,Šared,Korte,Izola,45.51187,13.65781,05 6207 227,http://www.slovenski-zobozdraniki.si/zz-beldent
752,5574160,ZDRAVSTVENI ZAVOD D.D.M.,IZPOSTAVA LAŠKO,Poženelova ulica 22,3270 Laško,Laško,Laško,Laško,46.16482,15.23049,040 585 000,http://www.leljak-dental.com
753,5687220,ZDRAVSTVENI ZAVOD DENTAN KOPER,OE KOPER,Benčičeva ulica 2D,6000 Koper - Capodistria,Koper,Za gradom,Koper,45.53848,13.71159,(05) 628 38 50,http://www.dentan.si
754,5992084,ZDRAVSTVENI ZAVOD DENTARTES KOPER,OE KOPER,Vlačičeva ulica 2A,6000 Koper - Capodistria,Koper,Koper - Center,Koper,45.5458,13.72799,(05)626 02 28,https://www.cakalnedobe.si/ambulante/zdravstveni-zavod-dentartes-koper-zobozdravstvena-dejavnost/
755,4517021,ZDRAVSTVENI ZAVOD DENTES PORTOROŽ,OE KOPER,Obala 105,6320 Portorož - Portorose,Lucija,Lucija,Piran,45.50549,13.60232,05 664 73 68,https://www.dentes.si/sl/kje-smo/
756,5640045,ZDRAVSTVENI ZAVOD DENTOR,OE KRANJ,Bašelj 26B,4205 Preddvor,Bašelj,Bašelj,Preddvor,46.31847,14.39961,,http://www.dentor.si
757,4987605,ZDRAVSTVENI ZAVOD DR. VUČKO PORTOROŽ,IZPOSTAVA PIRAN,Cesta solinarjev 1,6320 Portorož - Portorose,Lucija,Lucija,Piran,45.50452,13.60205,05 677 99 00,http://zavod-vucko.si
758,4166123,ZDRAVSTVENI ZAVOD DR. ŽEBELJAN,OE MARIBOR,Kardeljeva cesta 84,2000 Maribor,Maribor,Nova vas,Maribor,46.54116,15.63252,(02) 332 77 63,https://www.zdravniki-zobozdravniki.net/clan/Zoran-KOZUL-1414/
759,4153395,ZDRAVSTVENI ZAVOD DRUŽINSKA MEDICINA NOVA GORICA,OE NOVA GORICA,Streliška pot 2,5000 Nova Gorica,Nova Gorica,Krajevna skupnost Nova Gorica,Nova Gorica,45.95104,13.63447,,https://www.zdravniki-zobozdravniki.net/clan/Enisa-DEMSAR-1435/
760,6183191,ZDRAVSTVENI ZAVOD I DENT KRANJ,OE KRANJ,Vrečkova ulica 3,4000 Kranj,Kranj,Planina,Kranj,46.23503,14.36105,,http://zobozdravstvo-vujovic.si
761,4396695,ZDRAVSTVENI ZAVOD IMPLANT DENT POSTOJNA,IZPOSTAVA POSTOJNA,Prečna ulica 2,6230 Postojna,Postojna,Postojna,Postojna,45.77205,14.21042,070 826 778,http://www.implantdentpostojna.eu/
762,4566872,ZDRAVSTVENI ZAVOD KOPILOVIĆ PORTOROŽ,OE KOPER,Belokriška cesta 44C,6320 Portorož - Portorose,Portorož,Portorož,Piran,45.51793,13.58636,(05) 663 08 45,http://www.medicina-dela-koper.si
763,6861492,"ZDRAVSTVENI ZAVOD KOS, RUŠE",OE MARIBOR,Stadionska ulica 4,2342 Ruše,Ruše,,Ruše,46.54277,15.50623,(02) 603 64 97,https://zdravniki-zobozdravniki.net/Clan/Edvard-KOS-53
764,5951814,ZDRAVSTVENI ZAVOD MARKDENS KOPER,OE KOPER,Beblerjeva ulica 7,6000 Koper - Capodistria,Koper,Žusterna,Koper,45.54048,13.70814,05 628 53 52,http://www.markdens.si
765,5628458,ZDRAVSTVENI ZAVOD MIRADENT KOPER,OE KOPER,Cesta Zore Perello-Godina 1,6000 Koper - Capodistria,Koper,Koper - Center,Koper,45.54256,13.7283,(05) 663 81 60,http://www.zdravniki-zobozdravniki.net/clan/mirjana-tavcar-782/
766,4979124,ZDRAVSTVENI ZAVOD MULTIMEDICUS,OE LJUBLJANA,Utik 52,1217 Vodice,Utik,,Vodice,46.16785,14.50143,082 015 361,http://www.zzmm.si
767,5479130,ZDRAVSTVENI ZAVOD ODONTO HRPELJE,IZPOSTAVA SEŽANA,Borova ulica 2,6240 Kozina,Hrpelje,Hrpelje,Hrpelje-Kozina,45.60732,13.94328,031 349 373,http://www.odonto.eu
768,6182640,ZDRAVSTVENI ZAVOD ORIDENT KOPER,IZPOSTAVA IZOLA,Dolga reber 35B,6000 Koper - Capodistria,Koper,Žusterna,Koper,45.5445,13.7017,(05) 641 40 07,http://www.slovenski-zobozdravniki.si/alenka-seljak
769,4972021,ZDRAVSTVENI ZAVOD RADI&RADI KOPER,OE KOPER,Beblerjeva ulica 7,6000 Koper - Capodistria,Koper,Žusterna,Koper,45.54048,13.70814,05 628 53 55,https://andrej-radi.si/
770,476788,ZDRAVSTVENI ZAVOD REVITA,OE LJUBLJANA,Peričeva ulica 31,1000 Ljubljana,Ljubljana,Četrtna skupnost Bežigrad,Ljubljana,46.06686,14.51147,01/ 234-02-22,https://www.zzrevita.si/
771,5922980,ZDRAVSTVENI ZAVOD ROSTAN PORTOROŽ,IZPOSTAVA PIRAN,Cesta solinarjev 1,6320 Portorož - Portorose,Lucija,Lucija,Piran,45.50452,13.60205,(05) 677 17 62,http://www.zd-piran.si/oddelek.php?zdravnik=28
772,5968776,ZDRAVSTVENI ZAVOD SAMSTAL KOPER,IZPOSTAVA PIRAN,Rozmanova ulica 13,6000 Koper - Capodistria,Koper,Semedela,Koper,45.53894,13.7206,(05) 933 80 00,https://www.zd-piran.si/oddelek.php?zdravnik=84
773,4980118,ZDRAVSTVENI ZAVOD V. DENS IZOLA,OE KOPER,Južna cesta 4B,6310 Izola - Isola,Izola,Livade,Izola,45.53109,13.66517,05 66 647 246,http://www.vdens.com
774,4258295,ZDRAVSTVENI ZAVOD VARIX KOPER,OE KOPER,Glagoljaška ulica 1C,6000 Koper - Capodistria,Koper,Koper - Center,Koper,45.54925,13.72716,05 664 72 33,https://www.zdravniki-zobozdravniki.net/clan/Zlata-GASPARINI-1039/
775,6471151,"ZDRAVSTVENI ZAVOD ZARJA, ZGORNJA KUNGOTA",OE MARIBOR,Plintovec 7B,2201 Zgornja Kungota,Plintovec,Zgornja Kungota,Kungota,46.63896,15.61566,(02) 655 08 98,https://www.zz-zarja.si/
776,656012,ZDRAVSTVENI ZAVOD ZDRAVJE LJUBLJANA,OE LJUBLJANA,Vilharjev podhod 1,1000 Ljubljana,Ljubljana,Četrtna skupnost Bežigrad,Ljubljana,46.06032,14.51507,01 436 82 17,https://www.zzzdravje.si/si
777,5252731,ZDRAVSTVENI ZAVOD ZDRAVLJENJE KOPER,OE KOPER,Cesta na Markovec 31,6000 Koper - Capodistria,Koper,Semedela,Koper,45.53704,13.71563,05 933 83 80,http://www.ambulanta-fabris.si/
778,5647290,"ZDRAVSTVO BERIĆ, AMBULANTA SPLOŠNE MEDICINE IN SPECIALISTIČNA PSIHIATRIČNA ORDINACIJA, D.O.O.",IZPOSTAVA PTUJ,Osojnikova cesta 9,2250 Ptuj,Ptuj,"Četrt Center,Jadranska ulica 6",Ptuj,46.42061,15.87558,(02) 787 64 70,https://www.zdravstvo-beric.si/
779,3447468,ZEVNIK LEBEN MIHAELA - ZASEBNA ZOBOZDRAVSTVENA ORDINACIJA ZA ODRASLE,IZPOSTAVA VRHNIKA,Cesta 6. maja 11,1360 Vrhnika,Vrhnika,Vrhnika Center,Vrhnika,45.96278,14.29358,,
780,223507,ZGORNJESAVINJSKI ZDRAVSTVENI DOM NAZARJE,IZPOSTAVA MOZIRJE,Zadrečka cesta 14,3331 Nazarje,Nazarje,Nazarje,Nazarje,46.31723,14.94681,(03) 839 24 30,http://www.zd-mozirje.si
781,6456540,"ZO-LA, ZOBOZDRAVSTVO LAZAREVIĆ, D.O.O.",OE MURSKA SOBOTA,Grad 187,9264 Grad,Grad,,Grad,46.80149,16.09203,02 558 80 80,http://www.zobozdravniki-pomurja.si/
782,3072352,"ZOB D.O.O., DRUŽBA ZA ZOBOZDRAVSTVENE STORITVE VRHNIKA",OE LJUBLJANA,Med vrtovi 8,1360 Vrhnika,Vrhnika,Vrhnika Vas,Vrhnika,45.9654,14.28766,,
783,4530225,"ZOBARNICA, DRUŽBA ZA ZOBOZDRAVSTVO, STORITVE, SVETOVANJE IN TRGOVINO, D.O.O.",OE MARIBOR,Ulica heroja Nandeta 31,2000 Maribor,Maribor,Tezno,Maribor,46.53267,15.67335,(02) 461 31 99,https://www.zdravniki-zobozdravniki.net/clan/Ana-BRADAC-1529/
784,4135271,"ZOBEK DENTALNI CENTER, ZOBOZDRAVSTVENA DEJAVNOST, D.O.O",OE MARIBOR,Metelkova ulica 48,2000 Maribor,Maribor,Tabor,Maribor,46.54221,15.64158,(02) 320 22 00,http://www.nasmehni.se/si/
785,466167,ZOBKI ZASEBNA ZOBNA ORDINACIJA D.O.O.,OE LJUBLJANA,Putrihova ulica 1,1000 Ljubljana,Ljubljana,Četrtna skupnost Šentvid,Ljubljana,46.11509,14.46525,,
786,4220608,"ZOBNA AMBULANTA - JASNA HUSSEIN, DR. DENT. MED.",IZPOSTAVA SLOVENSKA BISTRICA,Partizanska ulica 30,2310 Slovenska Bistrica,Slovenska Bistrica,Pohorski odred,Slovenska Bistrica,46.39552,15.56233,(02) 843 27 13,https://www.zdravniki-zobozdravniki.net/clan/Jasna-HUSSEIN-1503/
787,4112437,ZOBNA AMBULANTA ADELA GAŠPERIČ DR.DENT.MED,OE KRANJ,Krvavška cesta 4,4207 Cerklje na Gorenjskem,Cerklje na Gorenjskem,Cerklje na Gorenjskem,Cerklje na Gorenjskem,46.25433,14.48847,,https://dental-care.si/
788,4489340,"ZOBNA AMBULANTA BREZJE, SABINA AJDNIK, DR. DENT. MED.",OE MARIBOR,Na trati 2,2000 Maribor,Maribor,Brezje-Dogoše-Zrkovci,Maribor,46.53586,15.68739,(05) 912 64 56,http://www.ajdnik.si/domov
789,4252474,"ZOBNA AMBULANTA CIRKOVCE, TOMAŽ KRALJ DR.DENT.MED.",IZPOSTAVA PTUJ,Cirkovce 47,2326 Cirkovce,Cirkovce,,Kidričevo,46.39472,15.7227,(02) 792 56 81,https://www.cakalnedobe.si/ambulante/zobna-ambulanta-cirkovce-tomaz-kralj-dr-dent-med
790,4222461,"ZOBNA AMBULANTA DARJA PREŠERN, DR.DENT.MED.",IZPOSTAVA SLOVENSKA BISTRICA,Partizanska ulica 30,2310 Slovenska Bistrica,Slovenska Bistrica,Pohorski odred,Slovenska Bistrica,46.39552,15.56233,(02) 843 27 49,https://www.zdravniki-zobozdravniki.net/clan/Darja-PRESERN-988/
791,5654776,"ZOBNA AMBULANTA DR. KURILJ, ZOBOZDRAVSTVENA DEJAVNOST, D.O.O.",IZPOSTAVA PTUJ,Potrčeva cesta 17,2250 Ptuj,Ptuj,"Četrt Center,Jadranska ulica 6",Ptuj,46.42485,15.87672,(02) 771 16 11,https://www.cakalnedobe.si/ambulante/zobna-ambulanta-dr-kurilj-zobozdravstvena-dejavnost-d-o-o
792,6280403,"ZOBNA AMBULANTA FILIPOVIĆ, ZOBOZDRAVSTVENE STORITVE, D.O.O.",OE NOVA GORICA,Trg 41,5292 Renče,Renče,Renče,Renče-Vogrsko,45.88958,13.66932,,https://www.dent-filipovic.si/
793,4491923,ZOBNA AMBULANTA FURLAN FAJFAR MOJCA DR. DENT. MED.,OE KRANJ,Gosposvetska ulica 10B,4000 Kranj,Kranj,Zlato polje,Kranj,46.24826,14.35331,,https://g.co/kgs/AA4zHw
794,5811626,"ZOBNA AMBULANTA JOŽE VUKAN, DR. DENT. MED.",OE MURSKA SOBOTA,Rogašovci 14A,9262 Rogašovci,Rogašovci,Rogašovci,Rogašovci,46.80513,16.0363,,http://www.zobozdravniki-pomurja.si/profil/28/opis.html
795,4632820,ZOBNA AMBULANTA KREUTZ D.O.O.,IZPOSTAVA JESENICE,Koroška ulica 2,4280 Kranjska Gora,Kranjska Gora,Kranjska Gora,Kranjska Gora,46.48538,13.78242,,
796,4100946,"ZOBNA AMBULANTA MAKOLE MIROSLAV KOVAČIČ, DR. DENT. MED.",IZPOSTAVA SLOVENSKA BISTRICA,Makole 28,2321 Makole,Makole,Vaška skupnost Makole,Makole,46.31735,15.66729,(02) 803 05 69,https://www.cakalnedobe.si/ambulante/zobna-ambulanta-makole-miroslav-kovacic-dr-dent-med
797,4105852,"ZOBNA AMBULANTA MANJA CIGLER, DR.DENT.MED.",IZPOSTAVA SLOVENJ GRADEC,Partizanska pot 16,2380 Slovenj Gradec,Slovenj Gradec,Center,Slovenj Gradec,46.50693,15.08202,(02) 882 12 03,https://www.zdravniki-zobozdravniki.net/clan/Manja-CIGLER-1189/
798,4224277,"ZOBNA AMBULANTA MAŠA OSTAŠEVSKI POZNE, DR. DENT. MED.",IZPOSTAVA SLOVENSKA BISTRICA,Partizanska ulica 30,2310 Slovenska Bistrica,Slovenska Bistrica,Pohorski odred,Slovenska Bistrica,46.39552,15.56233,(02) 843 27 68,https://www.zdravniki-zobozdravniki.net/clan/Masa-OSTASEVSKI-POZNE-1506/
799,4223882,"ZOBNA AMBULANTA MOJCA GREGORIČ KOVAČIČ, DR.DENT.MED.",IZPOSTAVA SLOVENSKA BISTRICA,Ulica Pohorskega bataljona 11,2317 Oplotnica,Oplotnica,,Oplotnica,46.38817,15.44733,(02) 801 91 15,https://www.cakalnedobe.si/ambulante/zobna-ambulanta-mojca-gregoric-kovacic-dr-dent-med
800,3957318,ZOBNA AMBULANTA RIHARD KULČAR DR.DENT.MED.,IZPOSTAVA LENDAVA,Mlinska ulica 6,9220 Lendava - Lendva,Lendava,Lendava,Lendava,46.56183,16.45256,,http://www.zobozdravniki-pomurja.si
801,4109564,ZOBNA AMBULANTA S KONCESIJO DEKANI HELENA POLES DR.DENT.MED.,OE KOPER,Dekani 209,6271 Dekani,Dekani,Dekani,Koper,45.54898,13.81275,05 658 00 84,http://www.zobozdravnik-poles.si/
802,6344316,ZOBNA AMBULANTA SAŠA PIRHER,OE MURSKA SOBOTA,Martjanci 35,9221 Martjanci,Martjanci,Martjanci,Moravske Toplice,46.68503,16.19115,,http://www.slovenski-zobozdravniki.si/sasa-pirher
803,3075331,"ZOBNA AMBULANTA TOMISLAV LAJTNER, DR.DENT.MED.",IZPOSTAVA MOZIRJE,Tlaka 10,3342 Gornji Grad,Gornji Grad,Gornji Grad,Gornji Grad,46.29728,14.80953,(03) 838 31 53,https://www.zdravniki-zobozdravniki.net/clan/Tomislav-LAJTNER-604/
804,3092719,"ZOBNA AMBULANTA TREIBER PLEH ESTERA, DR. DENT.MED.",IZPOSTAVA LENDAVA,Mlinska ulica 6E,9220 Lendava - Lendva,Lendava,Lendava,Lendava,46.56214,16.45301,,http://www.slovenski-zobozdravniki.si  / ime-priimek
805,3095962,"ZOBNA AMBULANTA ZA ODRASLE ŠUČUR VERICA, DR. DENT. MED.",IZPOSTAVA PTUJ,Potrčeva cesta 4A,2250 Ptuj,Ptuj,"Četrt Center,Jadranska ulica 6",Ptuj,46.42174,15.87383,02 771 93 01,https://www.zdravniki-zobozdravniki.net/clan/Verica-SUCUR-597/
806,6297690,"ZOBNA ORDINACIJA BOJANA VOČANEC, STORITVE, SVETOVANJE, TRGOVINA, D.O.O.",OE MARIBOR,Sladki Vrh 5,2214 Sladki Vrh,Sladki Vrh,Sladki Vrh,Šentilj,46.69756,15.7368,(02) 645 61 05,https://www.zdravniki-zobozdravniki.net/clan/Bojana-VOCANEC-862/#naroanje
807,3193557,ZOBNA ORDINACIJA DAMJANA MEROVING,OE LJUBLJANA,Gogalova ulica 15,1000 Ljubljana,Ljubljana,Četrtna skupnost Posavje,Ljubljana,46.08715,14.51076,041 861 228,http://www.mladinsko-zobozdravstvo.si
808,5713496,"ZOBNA ORDINACIJA DR. BERGMAN, ZOBOZDRAVSTVENA DEJAVNOST IN SVETOVANJE, D.O.O.",OE LJUBLJANA,Uraničeva ulica 4A,1000 Ljubljana,Ljubljana,Četrtna skupnost Šiška,Ljubljana,46.07105,14.47191,01/507 66 01,http://www.bergman.si
809,4272966,"ZOBNA ORDINACIJA FABJAN - TINA FABJAN, DR. DENT. MED.",OE CELJE,Aškerčeva ulica 14,3000 Celje,Celje,Center,Celje,46.23059,15.26804,,http://www.medicalfabjan.si/zobna-ordinacija/
810,4224752,ZOBNA ORDINACIJA GORDANA JAKOPOVIĆ DR. DENT.MED.,OE MURSKA SOBOTA,Ulica Prekmurske čete 12,9000 Murska Sobota,Murska Sobota,Turopolje,Murska Sobota,46.65297,16.15597,,http://www.zobna-ordinacija-gordana-jakopovic-dr-dent-med
811,5325017,ZOBNA ORDINACIJA GORKIČ D.O.O.,OE NOVA GORICA,Morsko 1,5213 Kanal,Morsko,Kanal,Kanal,46.08033,13.63544,,https://www.zdravniki-zobozdravniki.net/clan/Milos-GORKIC-545/
812,6485498,"ZOBNA ORDINACIJA MATEJ HASAJ, DR. DENT. MED.",OE MARIBOR,Koroška cesta 52,2000 Maribor,Maribor,Koroška vrata,Maribor,46.5591,15.63717,(02) 252 65 12,https://www.cakalnedobe.si/ambulante/zobna-ordinacija-matej-hasaj-dr-dent-med
813,6219520,"ZOBNA ORDINACIJA META ČESNIK, DR. DENT. MED.",IZPOSTAVA POSTOJNA,Kolodvorska cesta 24,6257 Pivka,Pivka,Pivka,Pivka,45.68043,14.1946,05 620 34 50,http://zobozdravstvo-mc.si
814,3110930,"ZOBNA ORDINACIJA MILENA ŠIFRAR-KOPAČ, DR. DENT. MED.",OE KRANJ,Gosposvetska ulica 10A,4000 Kranj,Kranj,Zlato polje,Kranj,46.24862,14.35322,04 236 46 10,https://www.zdravniki-zobozdravniki.net/clan/Milena-SIFRAR-KOPAC-1565/
815,4110666,"ZOBNA ORDINACIJA MOJCA KOŠAR , DR. DENT. MED.",OE MURSKA SOBOTA,Kocljeva ulica 9,9000 Murska Sobota,Murska Sobota,Center,Murska Sobota,46.65945,16.1636,,http://www.zobozdravniki-pomurja.si/profil/11/opis.html
816,5261303,"ZOBNA ORDINACIJA RODOŠEK, BOJANA RODOŠEK , DR. DENT. MED.",OE MARIBOR,Tolstojeva ulica 3,2000 Maribor,Maribor,Pobrežje,Maribor,46.54793,15.67025,(02) 471 04 94,https://www.cakalnedobe.si/ambulante/zobna-ordinacija-rodosek-bojana-rodosek-dr-dent-med
817,4221955,"ZOBNA ORDINACIJA SUZANA RADAK, DR.DENT.MED.",OE MURSKA SOBOTA,Panonska ulica 35B,9231 Beltinci,Beltinci,Beltinci,Beltinci,46.60893,16.23851,02 541 31 26,http://www.zobozdravniki-pomurja.si
818,5743387,"ZOBNA ORDINACIJA, BARBARA RAŽEN S.P.",OE LJUBLJANA,Kopitarjev trg 1,1217 Vodice,Vodice,,Vodice,46.18729,14.49116,,
819,691359,"ZOBNA VILA, DENTALNI STUDIO, D.O.O.",OE CELJE,Trubarjeva ulica 11,3000 Celje,Celje,Kajuh,Celje,46.23108,15.25643,(041) 206 266,http://www.zobnavilacelje.si/
820,3957950,"ZOBNA, ZOBOZDRAVSTVENA DEJAVNOST, D.O.O.",OE LJUBLJANA,Podpeška cesta 14,1351 Brezovica pri Ljubljani,Brezovica pri Ljubljani,Brezovica,Brezovica,46.02162,14.41607,(01) 365 14 70,https://www.zobna.si
821,6158306,"ZOBOESTETIKA, ESTETSKO ZOBOZDRAVSTVO IN ORTODONTIJA, D.O.O.",IZPOSTAVA TREBNJE,Gubčeva cesta 41A,8210 Trebnje,Trebnje,Trebnje,Trebnje,45.90835,15.01221,07 304 44 77,http://www.zoboestetika.si
822,4223453,"ZOBOMIŠKA-ZASEBNA ZOBNA AMBULANTA STANKA DRENIK, DR. DENT. MED.",OE NOVO MESTO,Kočevarjeva ulica 40,8000 Novo mesto,Novo mesto,Krajevna skupnost Bršljin,Novo mesto,45.81626,15.15821,07 332 30 17,http://www.zobomiska.si
823,4226858,"ZOBOZDRAVNIKRECELJ.SI - MATJAŽ RECELJ, DR. DENT. MED.",OE NOVO MESTO,Ljubljanska cesta 26,8000 Novo mesto,Novo mesto,Krajevna skupnost Bršljin,Novo mesto,45.81489,15.15479,07 332 40 34,http://www.zobozdravnikrecelj.si
824,4640857,ZOBOZDRAVSTVENA AMBULANTA DEJAN KRISTAN DR.DENT.MED.,OE MARIBOR,Ulica Staneta Severja 7,2000 Maribor,Maribor,Nova vas,Maribor,46.53749,15.63301,(02) 332 27 77,https://www.cakalnedobe.si/ambulante/zobozdravstvena-ambulanta-dejan-kristan-dr-dent-med
825,4344110,ZOBOZDRAVSTVENA AMBULANTA ZA ODRASLE IVANA KOMES DR. DENT. MED.,IZPOSTAVA ORMOŽ,Ulica dr. Hrovata 4,2270 Ormož,Ormož,Ormož,Ormož,46.40724,16.14333,(02) 740 20 44,https://www.zdravniki-zobozdravniki.net/clan/Ivana-KOMES-1508/
826,5324852,ZOBOZDRAVSTVENA DEJAVNOST ZOBNA VILA BREDA LETNIK S.P.,OE MARIBOR,Kosova ulica 9,2000 Maribor,Maribor,Radvanje,Maribor,46.54104,15.5995,040 388 212,http://zobna-vila.si
827,5368620,"ZOBOZDRAVSTVENA DEJAVNOST, KRISTINA ZIGANTE DR.DENT.MED.",OE KOPER,Vojkovo nabrežje 27,6000 Koper - Capodistria,Koper,Koper - Center,Koper,45.54662,13.73465,041 600 149,http://www.slovenski-zobozdravniki.si/kristina-zigante
828,4103882,"ZOBOZDRAVSTVENA ORDINACIJA ANDREJ OCEPEK, DR. DENT. MED.",IZPOSTAVA SLOVENSKA BISTRICA,Ulica Pohorskega bataljona 11,2317 Oplotnica,Oplotnica,,Oplotnica,46.38817,15.44733,02 801 99 31,http://www.slovenski-zobozdravniki.si/andrej-ocepek
829,3109808,ZOBOZDRAVSTVENA ORDINACIJA BARBARA LOMBAR DR.DENT.MED.,OE KRANJ,Šolska ulica 9,4205 Preddvor,Preddvor,Preddvor,Preddvor,46.30451,14.42003,,https://www.zdravniki-zobozdravniki.net/clan/Barbara-LOMBAR-1150/
830,3632577,"ZOBOZDRAVSTVENA ORDINACIJA DAVID BIZJAK, DR. DENT. MED.",OE KRANJ,Gosposvetska ulica 10A,4000 Kranj,Kranj,Zlato polje,Kranj,46.24862,14.35322,,http://www.slovenski-zobozdravniki.si/david-bizjak
831,4109672,ZOBOZDRAVSTVENA ORDINACIJA MARKO MOLE - ZASEBNI ZOBOZDRAVNIK,IZPOSTAVA DOMŽALE,Mestni trg 2,1230 Domžale,Domžale,Domžale - Slavka Šlandra,Domžale,46.13975,14.59617,,http://www.slovenski-zobozdravniki.si/marko-mole
832,3434954,ZOBOZDRAVSTVENA ORDINACIJA NATAŠA ROZMAN VITOROVIČ DR.DENT.MED.,OE LJUBLJANA,Zadobrovška cesta 18A,1260 Ljubljana - Polje,Ljubljana,Četrtna skupnost Polje,Ljubljana,46.05719,14.58402,,http://zobozdravstvonrv.si/
833,4493010,ZOBOZDRAVSTVENA ORDINACIJA NIELS UDIR DR.DENT.MED.,OE KRANJ,Belska cesta 42,4205 Preddvor,Preddvor,Preddvor,Preddvor,46.3018,14.41638,04 255 13 82,https://www.ordinacijaudir.si/
834,5593978,"ZOBOZDRAVSTVENI CENTER JAVH, D.O.O.",IZPOSTAVA ŠKOFJA LOKA,Stara cesta 21,4220 Škofja Loka,Škofja Loka,Kamnitnik,Škofja Loka,46.16629,14.3147,,http://www.zobozdravstvo-javh.si/
835,6152152,ZOBOZDRAVSTVENI ZAVOD D IN G KOPER,IZPOSTAVA ZAGORJE,Ulica Sergeja Mašere 7,6000 Koper - Capodistria,Koper,Za gradom,Koper,45.54072,13.71264,,https://ezdravnik.si/zdravnik/zeljko-gajic/
836,3939793,ZOBOZDRAVSTVENI ZAVOD DOKTOR GOLČER,OE MARIBOR,Kopitarjeva ulica 2,2000 Maribor,Maribor,Ivan Cankar,Maribor,46.56326,15.65746,(02) 252 56 91,http://www.golcer.si/
837,6257478,ZOBOZDRAVSTVENI ZAVOD G DENT KOPER,OE KOPER,Prisojna pot 10,6000 Koper - Capodistria,Koper,Žusterna,Koper,45.54649,13.70532,"05 909 75 90, 051 266 466",http://www.dentone.si/
838,6520822,ZOBOZDRAVSTVENI ZAVOD MEDICADENS ŠKORJA SORIĆ,IZPOSTAVA PIRAN,Čentur 23,6273 Marezige,Čentur,Vanganel,Koper,45.50993,13.77048,(05) 672 03 80,http://www.medicadens.si
839,4284656,ZOBOZDRAVSTVENI ZAVOD SOK,IZPOSTAVA PTUJ,Gorišnica 65,2272 Gorišnica,Gorišnica,,Gorišnica,46.41047,16.01167,(02) 740 84 04,http://zzsok.si/o-nas/
840,4014458,ZOBOZDRAVSTVENI ZAVOD VERTAČNIK,IZPOSTAVA SLOVENSKE KONJICE,Dobrava pri Konjicah 3B,3210 Slovenske Konjice,Dobrava pri Konjicah,Dobrava-Gabrovlje,Slovenske Konjice,46.34627,15.4129,03 759 29 30,http://dr-vertacnik.si/
841,5912859,"ZOBOZDRAVSTVO BENEDEK, D.O.O.",IZPOSTAVA LAŠKO,Mestna ulica 7,3270 Laško,Laško,Laško,Laško,46.1546,15.23636,03 734 36 16,http://www.benedek.si
842,6168441,"ZOBOZDRAVSTVO CIZERL, ZOBOZDRAVSTVENA DEJAVNOST, D.O.O.",IZPOSTAVA PTUJ,Pot v toplice 9,2250 Ptuj,Ptuj,"Četrt Breg-Turnišče,Mestni trg 1",Ptuj,46.42154,15.85575,(02) 788 52 33,https://www.zdravniki-zobozdravniki.net/clan/Franc-CIZERL-142/
843,3181501,ZOBOZDRAVSTVO DR. BOREC BARBARA BOREC PIRMAN DR.DENT.MED.,OE LJUBLJANA,Železna cesta 10,1000 Ljubljana,Ljubljana,Četrtna skupnost Bežigrad,Ljubljana,46.06082,14.51403,031 790 313,http://www.zobozdravnik-borec.si/
844,816758,ZOBOZDRAVSTVO DRGANC - ŠTORMAN D.O.O.,OE KRŠKO,Cesta krških žrtev 43,8270 Krško,Krško,Krško,Krško,45.96424,15.4864,"Kostanjevica na Krki: 07 49 87 448, Raka: 07 81 44 049",http://www.drganc-storman.si/
845,3137763,ZOBOZDRAVSTVO KARKOS - MATEJA KARLIN SAMBOLEC,OE LJUBLJANA,Brajnikova ulica 20,1000 Ljubljana,Ljubljana,Četrtna skupnost Šiška,Ljubljana,46.07204,14.46614,059 09 04 00,http://www.karkos.si
846,4290019,"ZOBOZDRAVSTVO KOZINA, ZOBOZDRAVSTVENE STORITVE, D.O.O.",IZPOSTAVA RIBNICA,Majnikova ulica 1,1310 Ribnica,Ribnica,Ribnica,Ribnica,45.74238,14.72596,,http://www.slovenski-zobozdravniki.si/bernarda-kozina
847,5819573,"ZOBOZDRAVSTVO LUKAN, ZOBOZDRAVSTVENE IN DRUGE STORITVE, D.O.O.",OE MARIBOR,Žolgarjeva ulica 7,2000 Maribor,Maribor,Magdalena,Maribor,46.5503,15.64122,(02) 320 56 76,https://www.zdravniki-zobozdravniki.net/clan/Andreja-OMERZEL-TOPALOVIC-1041/
848,6799101,ZOBOZDRAVSTVO MAJA JAMŠEK STARC,OE LJUBLJANA,Pod jelšami 20,1000 Ljubljana,Ljubljana,Četrtna skupnost Trnovo,Ljubljana,46.03383,14.49319,01/281 13 42,http://zobozdravstvojamsek.si/
849,4194303,ZOBOZDRAVSTVO MUC ZOBOZDRAVSTVENA DEJAVNOST D.O.O.,IZPOSTAVA ČRNOMELJ,Ulica na Pristavah 1,8340 Črnomelj,Črnomelj,Črnomelj,Črnomelj,45.57823,15.19245,07 305 17 99,http://www.cakalnedobe.si/ambulante/zobozdravstvo-muc
850,4539852,ZOBOZDRAVSTVO VIHER ZOBOZDRAVSTVENE STORITVE D.O.O.,OE MARIBOR,Stadionska ulica 4,2342 Ruše,Ruše,,Ruše,46.54277,15.50623,(02) 668 89 89,https://www.cakalnedobe.si/ambulante/zobozdravstvo-viher-zobozdravstvene-storitve-d-o-o
851,6361620,"ZORIDENT, ZOBOZDRAVSTVO, D.O.O.",OE CELJE,Keršova ulica 1,3212 Vojnik,Vojnik,Vojnik,Vojnik,46.29133,15.30397,03 781 26 02,http://www.zorident.si
852,4490607,"ZORIČ HOMAN ALEKSANDRA, DR. DENT. MED., ZASEBNA ZOBOZDRAVNICA, DENTALNI STUDIO AS",OE LJUBLJANA,Ulica bratov Babnik 10,1000 Ljubljana,Ljubljana,Četrtna skupnost Dravlje,Ljubljana,46.07645,14.466,040 125 240,http://www.studio-as.si
853,3190152,ZRILIĆ IRIS - ZASEBNA PEDIATRIČNA AMBULANTA,IZPOSTAVA PTUJ,Potrčeva cesta 15,2250 Ptuj,Ptuj,"Četrt Center,Jadranska ulica 6",Ptuj,46.42472,15.87653,(02) 780 09 13,http://www.zrilic.si
854,4344519,"ZUPAN MANCA, DR.MED. ZASEBNA SPLOŠNA AMBULANTA SPEC. SPL. MED.",IZPOSTAVA HRASTNIK,Novi dom 11,1430 Hrastnik,Hrastnik,Rudnik,Hrastnik,46.1403,15.08513,03 565 44 65,https://ezdravnik.si/zdravnik/manca-zupan/
855,3156210,ZUPAN MARTEL - ZOBOZDRAVSTVENA ORDINACIJA,OE LJUBLJANA,Cesta v Mestni log 55,1000 Ljubljana,Ljubljana,Četrtna skupnost Trnovo,Ljubljana,46.0362,14.48957,,
856,3193591,ZUPET ŽNIDARŠIČ POLONA - ZASEBNA ZOBNA ORDINACIJA,OE LJUBLJANA,Litijska cesta 47,1000 Ljubljana,Ljubljana,Četrtna skupnost Golovec,Ljubljana,46.04806,14.54442,01/540 55 15,https://www.zobozdravstvo-znidarsic.com/
857,6504025,ZVEZDANA JABLANOV - AMBULANTA DRUŽINSKE MEDICINE DOBROVA,OE LJUBLJANA,Ulica Vladimirja Dolničarja 11,1356 Dobrova,Dobrova,Dobrova,Dobrova-Polhov Gradec,46.05355,14.41726,01 364 23 10,https://www.zdravniki-zobozdravniki.net/clan/Zvezdana-JABLANOV-1430/
858,4106003,ĐURĐICA KIRIN DR.DENT.MED. ZASEBNA ZOBOZDRAVSTVENA ORDINACIJA,IZPOSTAVA SEVNICA,Trg svobode 14,8290 Sevnica,Sevnica,Sevnica,Sevnica,46.0106,15.30248,(07) 816 15 19,https://www.zdravniki-zobozdravniki.net/clan/Durdica-KIRIN-865/
859,3446141,ŠABOVIČ-GOMBOC SENADA - SPLOŠNA AMBULANTA TEZNO,OE MARIBOR,Volodjeva ulica 17,2000 Maribor,Maribor,Tezno,Maribor,46.53031,15.6682,(02) 426 06 30,https://zdravniki-zobozdravniki.net/Clan/Senada-SABOVIC-GOMBOC-685
860,3096539,ŠAŠKO VALERIJA - AMBULANTA ŠAŠKO,IZPOSTAVA PTUJ,Osojnikova cesta 9,2250 Ptuj,Ptuj,"Četrt Center,Jadranska ulica 6",Ptuj,46.42061,15.87558,(02) 748 19 90,https://www.sasko.si/
861,3155842,ŠEPIĆ NENAD - ZASEBNA AMBULANTA ZA GINEKOLOGIJO IN PORODNIŠTVO,IZPOSTAVA LJUTOMER,Cesta I. slovenskega tabora 2,9240 Ljutomer,Ljutomer,Ljutomer,Ljutomer,46.52172,16.19326,,http://www.zagp-sepic.si/
862,3760248,ŠMIGOC MOJCA DR.DENT.MED. - ZASEBNA ZOBNA ORDINACIJA,OE CELJE,Gregorčičeva ulica 5,3000 Celje,Celje,Dolgo polje,Celje,46.23224,15.26227,,http://www.zdravniki-zobozdravniki.net-Mojca Šmigoc dr.dent.med.
863,5740792,"ŠOLMED - ŠOLSKA IN PEDIATRIČNA AMBULANTA, ZDRAVSTVENE STORITVE IN SVETOVANJE, D.O.O.",OE MARIBOR,Lackova cesta 135,2341 Limbuš,Pekre,Pekre,Maribor,46.54667,15.59819,(08) 205 75 70,https://www.zdravniki-zobozdravniki.net/clan/Branka-KVAS-KUCIC-1226/
864,3445865,ŠORLI BRIGITA - DOKTORICA MEDICINE,OE MARIBOR,Pupinova ulica 2,2000 Maribor,Maribor,Magdalena,Maribor,46.55272,15.64503,(02) 250 24 76,https://zdravniki-zobozdravniki.net/Clan/Brigita-SORLI-687
865,3121200,ŠOSTERIČ ALEKSANDER - ORDINACIJA SPLOŠNE MEDICINE,IZPOSTAVA LENART,Maistrova ulica 22,2230 Lenart v Slov. goricah,Lenart v Slov. goricah,Lenart,Lenart,46.57734,15.82896,02 729 18 32,https://zdravniki-zobozdravniki.net/Clan/Aleksander-SOSTERIC-707
866,7858751,"ŠTEFKA GLADEK, DR. DENT. MED. - ZASEBNA ZOBOZDRAVNICA",IZPOSTAVA ŠKOFJA LOKA,Otoki 14,4228 Železniki,Železniki,Železniki,Železniki,46.22414,14.16365,,http://otroska-zobna-zelezniki.si/
867,2954651,ŠTERBENK VLASTA - ZASEBNA ZOBNA AMBULANTA,IZPOSTAVA VELENJE,Vodnikova cesta 1,3320 Velenje,Velenje,Velenje - desni breg,Velenje,46.36151,15.11636,(03) 897 12 90,https://www.zdravniki-zobozdravniki.net/clan/Vlasta-STERBENK-518/
868,4109089,"ŠUBELJ GREGORIČ HELENA - ZOBOZDRAVSTVENA ORDINACIJA, ZASEBNA ZOBOZDRAVNICA",IZPOSTAVA DOMŽALE,Mestni trg 2,1230 Domžale,Domžale,Domžale - Slavka Šlandra,Domžale,46.13975,14.59617,01 724 52 08,http://www.zdravniki-zobozdravniki.net
869,3435184,ŠULER PATRICIJA - ZASEBNA ZOBNA AMBULANTA,IZPOSTAVA MOZIRJE,Luče 106,3334 Luče,Luče,,Luče,46.3564,14.74415,(03) 838 40 40,https://www.zdravniki-zobozdravniki.net/clan/Patricija-SULER-923/
870,2989246,ŠUSTER DARINKA - ZASEBNA ZOBNA ORDINACIJA,IZPOSTAVA VELENJE,Stanetova cesta 27,3320 Velenje,Velenje,Velenje - desni breg,Velenje,46.36631,15.11286,(03) 897 44 76,http://www.zob27.si/
871,4447205,"ŽARGI JURIJ, DR. DENT. MED. ZOBOZDRAVSTVENA ORDINACIJA BEŽIGRAJSKI DVOR",OE LJUBLJANA,Peričeva ulica 31,1000 Ljubljana,Ljubljana,Četrtna skupnost Bežigrad,Ljubljana,46.06686,14.51147,(01)436 30 79,
872,3123106,ŽERJAV MANICA - DOKTOR MEDICINE,OE CELJE,Jenkova ulica 36,3000 Celje,Celje,Dolgo polje,Celje,46.23621,15.26007,(03) 492 55 60,https://www.zdravniki-zobozdravniki.net/clan/Manica-ZERJAV-369/
873,6119277,"ŽIVA V PARKU, ZDRAVSTVENE STORITVE D.O.O.",OE MURSKA SOBOTA,Tišina 30,9251 Tišina,Tišina,Tišina,Tišina,46.65356,16.08631,,http://zivavparku.si
874,3156237,ŽMUC KATARINA - ZOBOZDRAVSTVENA ORDINACIJA,OE LJUBLJANA,Cesta na Brdo 69,1000 Ljubljana,Ljubljana,Četrtna skupnost Rožnik,Ljubljana,46.046,14.46887,(01) 422 41 50,https://www.mojzobar.si/katarina-zmuc-zobozdravstvena-ordinacija/
875,3200456,ŽNIDARŠIČ KSENIJA - ZASEBNA ORDINACIJA ZA SPLOŠNO MEDICINO,IZPOSTAVA BREŽICE,Černelčeva cesta 8,8250 Brežice,Brežice,Brežice,Brežice,45.90811,15.59415,074 963 451,http://ordinacija.spisarna.si/
876,3440980,ŽORŽ GOJMIR - ORDINACIJA SPLOŠNE MEDICINE,OE LJUBLJANA,Cesta v Mestni log 55,1000 Ljubljana,Ljubljana,Četrtna skupnost Trnovo,Ljubljana,46.0362,14.48957,01 429 27 77,http://www.primarij-zorz.si
