cityZZZS,addressZZZS,lat,lon,street,streetAlt,housenumber,housenumberAppendix,city,cityAlt,municipalityPart,municipality,zipCode,zipName,statisticalRegion
1000 LJUBLJANA,ALJAŽEVA ULICA 30,46.06839,14.49548,Aljaževa ulica,,30,,Ljubljana,,Četrtna skupnost Šiška,Ljubljana,1000,Ljubljana,Osrednjeslovenska
1000 LJUBLJANA,AMERIŠKA ULICA 13,46.06609,14.54281,Ameriška ulica,,13,,Ljubljana,,Četrtna skupnost Jarše,Ljubljana,1000,Ljubljana,Osrednjeslovenska
1000 LJUBLJANA,AŠKERČEVA CESTA 4,46.04687,14.49913,Aškerčeva cesta,,4,,Ljubljana,,Četrtna skupnost Center,Ljubljana,1000,Ljubljana,Osrednjeslovenska
1000 LJUBLJANA,BEETHOVNOVA ULICA 6,46.05163,14.50200,Beethovnova ulica,,6,,Ljubljana,,Četrtna skupnost Center,Ljubljana,1000,Ljubljana,Osrednjeslovenska
1000 LJUBLJANA,BOHORIČEVA ULICA 5,46.05543,14.52005,Bohoričeva ulica,,5,,Ljubljana,,Četrtna skupnost Center,Ljubljana,1000,Ljubljana,Osrednjeslovenska
1000 LJUBLJANA,BRAJNIKOVA ULICA 20,46.07204,14.46614,Brajnikova ulica,,20,,Ljubljana,,Četrtna skupnost Šiška,Ljubljana,1000,Ljubljana,Osrednjeslovenska
1000 LJUBLJANA,BRATOVŠEVA PLOŠČAD 30,46.08968,14.50886,Bratovševa ploščad,,30,,Ljubljana,,Četrtna skupnost Posavje,Ljubljana,1000,Ljubljana,Osrednjeslovenska
1000 LJUBLJANA,CELOVŠKA CESTA 111 C,46.06906,14.48980,Celovška cesta,,111,C,Ljubljana,,Četrtna skupnost Šiška,Ljubljana,1000,Ljubljana,Osrednjeslovenska
1000 LJUBLJANA,CELOVŠKA CESTA 142,46.07296,14.48725,Celovška cesta,,142,,Ljubljana,,Četrtna skupnost Šiška,Ljubljana,1000,Ljubljana,Osrednjeslovenska
1000 LJUBLJANA,CELOVŠKA CESTA 280,46.08748,14.47448,Celovška cesta,,280,,Ljubljana,,Četrtna skupnost Dravlje,Ljubljana,1000,Ljubljana,Osrednjeslovenska
1000 LJUBLJANA,CELOVŠKA CESTA 4,46.05730,14.50122,Celovška cesta,,4,,Ljubljana,,Četrtna skupnost Center,Ljubljana,1000,Ljubljana,Osrednjeslovenska
1000 LJUBLJANA,CELOVŠKA CESTA 42,46.06210,14.49618,Celovška cesta,,42,,Ljubljana,,Četrtna skupnost Šiška,Ljubljana,1000,Ljubljana,Osrednjeslovenska
1000 LJUBLJANA,CESTA LJUBLJANSKE BRIGADE 23,46.08665,14.47871,Cesta Ljubljanske brigade,,23,,Ljubljana,,Četrtna skupnost Dravlje,Ljubljana,1000,Ljubljana,Osrednjeslovenska
1000 LJUBLJANA,CESTA LJUBLJANSKE BRIGADE 33,46.08830,14.47718,Cesta Ljubljanske brigade,,33,,Ljubljana,,Četrtna skupnost Dravlje,Ljubljana,1000,Ljubljana,Osrednjeslovenska
1000 LJUBLJANA,CESTA NA BOKALCE 51,46.05096,14.44808,Cesta na Bokalce,,51,,Ljubljana,,Četrtna skupnost Rožnik,Ljubljana,1000,Ljubljana,Osrednjeslovenska
1000 LJUBLJANA,CESTA NA BRDO 43,46.04527,14.47120,Cesta na Brdo,,43,,Ljubljana,,Četrtna skupnost Rožnik,Ljubljana,1000,Ljubljana,Osrednjeslovenska
1000 LJUBLJANA,CESTA NA BRDO 63,46.04564,14.46976,Cesta na Brdo,,63,,Ljubljana,,Četrtna skupnost Rožnik,Ljubljana,1000,Ljubljana,Osrednjeslovenska
1000 LJUBLJANA,CESTA NA ROŽNIK 17,46.05380,14.48571,Cesta na Rožnik,,17,,Ljubljana,,Četrtna skupnost Rožnik,Ljubljana,1000,Ljubljana,Osrednjeslovenska
1000 LJUBLJANA,CESTA V MESTNI LOG 55,46.03620,14.48957,Cesta v Mestni log,,55,,Ljubljana,,Četrtna skupnost Trnovo,Ljubljana,1000,Ljubljana,Osrednjeslovenska
1000 LJUBLJANA,CLEVELANDSKA ULICA 23,46.07364,14.54313,Clevelandska ulica,,23,,Ljubljana,,Četrtna skupnost Jarše,Ljubljana,1000,Ljubljana,Osrednjeslovenska
1000 LJUBLJANA,DALMATINOVA ULICA 10,46.05355,14.50782,Dalmatinova ulica,,10,,Ljubljana,,Četrtna skupnost Center,Ljubljana,1000,Ljubljana,Osrednjeslovenska
1000 LJUBLJANA,DALMATINOVA ULICA 7,46.05425,14.50563,Dalmatinova ulica,,7,,Ljubljana,,Četrtna skupnost Center,Ljubljana,1000,Ljubljana,Osrednjeslovenska
1000 LJUBLJANA,DERČEVA ULICA 35,46.07120,14.48296,Derčeva ulica,,35,,Ljubljana,,Četrtna skupnost Šiška,Ljubljana,1000,Ljubljana,Osrednjeslovenska
1000 LJUBLJANA,DERČEVA ULICA 5,46.06846,14.48800,Derčeva ulica,,5,,Ljubljana,,Četrtna skupnost Šiška,Ljubljana,1000,Ljubljana,Osrednjeslovenska
1000 LJUBLJANA,DOLENJSKA CESTA 46,46.03749,14.51913,Dolenjska cesta,,46,,Ljubljana,,Četrtna skupnost Rudnik,Ljubljana,1000,Ljubljana,Osrednjeslovenska
1000 LJUBLJANA,DUNAJSKA CESTA 109,46.07429,14.51020,Dunajska cesta,,109,,Ljubljana,,Četrtna skupnost Bežigrad,Ljubljana,1000,Ljubljana,Osrednjeslovenska
1000 LJUBLJANA,DUNAJSKA CESTA 129,46.07794,14.51189,Dunajska cesta,,129,,Ljubljana,,Četrtna skupnost Bežigrad,Ljubljana,1000,Ljubljana,Osrednjeslovenska
1000 LJUBLJANA,DUNAJSKA CESTA 152,46.08125,14.51349,Dunajska cesta,,152,,Ljubljana,,Četrtna skupnost Bežigrad,Ljubljana,1000,Ljubljana,Osrednjeslovenska
1000 LJUBLJANA,DUNAJSKA CESTA 186,46.08667,14.51460,Dunajska cesta,,186,,Ljubljana,,Četrtna skupnost Posavje,Ljubljana,1000,Ljubljana,Osrednjeslovenska
1000 LJUBLJANA,DUNAJSKA CESTA 198,46.08740,14.51458,Dunajska cesta,,198,,Ljubljana,,Četrtna skupnost Posavje,Ljubljana,1000,Ljubljana,Osrednjeslovenska
1000 LJUBLJANA,DUNAJSKA CESTA 22,46.06212,14.50930,Dunajska cesta,,22,,Ljubljana,,Četrtna skupnost Bežigrad,Ljubljana,1000,Ljubljana,Osrednjeslovenska
1000 LJUBLJANA,DUNAJSKA CESTA 31,46.06221,14.50753,Dunajska cesta,,31,,Ljubljana,,Četrtna skupnost Bežigrad,Ljubljana,1000,Ljubljana,Osrednjeslovenska
1000 LJUBLJANA,DUNAJSKA CESTA 49,46.06449,14.50840,Dunajska cesta,,49,,Ljubljana,,Četrtna skupnost Bežigrad,Ljubljana,1000,Ljubljana,Osrednjeslovenska
1000 LJUBLJANA,DUNAJSKA CESTA 5,46.05937,14.50613,Dunajska cesta,,5,,Ljubljana,,Četrtna skupnost Bežigrad,Ljubljana,1000,Ljubljana,Osrednjeslovenska
1000 LJUBLJANA,DUNAJSKA CESTA 56,46.06546,14.50982,Dunajska cesta,,56,,Ljubljana,,Četrtna skupnost Bežigrad,Ljubljana,1000,Ljubljana,Osrednjeslovenska
1000 LJUBLJANA,DUNAJSKA CESTA 59,46.06581,14.50894,Dunajska cesta,,59,,Ljubljana,,Četrtna skupnost Bežigrad,Ljubljana,1000,Ljubljana,Osrednjeslovenska
1000 LJUBLJANA,DUNAJSKA CESTA 63,46.06679,14.50926,Dunajska cesta,,63,,Ljubljana,,Četrtna skupnost Bežigrad,Ljubljana,1000,Ljubljana,Osrednjeslovenska
1000 LJUBLJANA,DUNAJSKA CESTA 88,46.07082,14.51089,Dunajska cesta,,88,,Ljubljana,,Četrtna skupnost Bežigrad,Ljubljana,1000,Ljubljana,Osrednjeslovenska
1000 LJUBLJANA,EIPPROVA ULICA 3,46.04327,14.50498,Eipprova ulica,,3,,Ljubljana,,Četrtna skupnost Trnovo,Ljubljana,1000,Ljubljana,Osrednjeslovenska
1000 LJUBLJANA,FILIPIČEVA ULICA 1,46.04113,14.49404,Filipičeva ulica,,1,,Ljubljana,,Četrtna skupnost Trnovo,Ljubljana,1000,Ljubljana,Osrednjeslovenska
1000 LJUBLJANA,FINŽGARJEVA ULICA 4,46.04417,14.49854,Finžgarjeva ulica,,4,,Ljubljana,,Četrtna skupnost Vič,Ljubljana,1000,Ljubljana,Osrednjeslovenska
1000 LJUBLJANA,FRANKOPANSKA ULICA 18,46.06195,14.49891,Frankopanska ulica,,18,,Ljubljana,,Četrtna skupnost Šiška,Ljubljana,1000,Ljubljana,Osrednjeslovenska
1000 LJUBLJANA,GABRŠČKOVA ULICA 91,46.04743,14.46956,Gabrščkova ulica,,91,,Ljubljana,,Četrtna skupnost Rožnik,Ljubljana,1000,Ljubljana,Osrednjeslovenska
1000 LJUBLJANA,GASPARIJEVA ULICA 12,46.05233,14.52825,Gasparijeva ulica,,12,,Ljubljana,,Četrtna skupnost Center,Ljubljana,1000,Ljubljana,Osrednjeslovenska
1000 LJUBLJANA,GASPARIJEVA ULICA 2,46.05338,14.52867,Gasparijeva ulica,,2,,Ljubljana,,Četrtna skupnost Center,Ljubljana,1000,Ljubljana,Osrednjeslovenska
1000 LJUBLJANA,GLONARJEVA ULICA 4,46.04965,14.52687,Glonarjeva ulica,,4,,Ljubljana,,Četrtna skupnost Center,Ljubljana,1000,Ljubljana,Osrednjeslovenska
1000 LJUBLJANA,GOGALOVA ULICA 15,46.08715,14.51076,Gogalova ulica,,15,,Ljubljana,,Četrtna skupnost Posavje,Ljubljana,1000,Ljubljana,Osrednjeslovenska
1000 LJUBLJANA,GOSPOSVETSKA CESTA 9,46.05509,14.50278,Gosposvetska cesta,,9,,Ljubljana,,Četrtna skupnost Center,Ljubljana,1000,Ljubljana,Osrednjeslovenska
1000 LJUBLJANA,GOTSKA ULICA 18,46.07619,14.47848,Gotska ulica,,18,,Ljubljana,,Četrtna skupnost Šiška,Ljubljana,1000,Ljubljana,Osrednjeslovenska
1000 LJUBLJANA,GREGORČIČEVA ULICA 11,46.04822,14.50041,Gregorčičeva ulica,,11,,Ljubljana,,Četrtna skupnost Center,Ljubljana,1000,Ljubljana,Osrednjeslovenska
1000 LJUBLJANA,GREGORČIČEVA ULICA 9 A,46.04817,14.50067,Gregorčičeva ulica,,9,A,Ljubljana,,Četrtna skupnost Center,Ljubljana,1000,Ljubljana,Osrednjeslovenska
1000 LJUBLJANA,GROHARJEVA CESTA 11,46.04479,14.49729,Groharjeva cesta,,11,,Ljubljana,,Četrtna skupnost Vič,Ljubljana,1000,Ljubljana,Osrednjeslovenska
1000 LJUBLJANA,GRŠKA ULICA 13,46.06621,14.54495,Grška ulica,,13,,Ljubljana,,Četrtna skupnost Jarše,Ljubljana,1000,Ljubljana,Osrednjeslovenska
1000 LJUBLJANA,HACQUETOVA ULICA 6,46.06035,14.51545,Hacquetova ulica,,6,,Ljubljana,,Četrtna skupnost Bežigrad,Ljubljana,1000,Ljubljana,Osrednjeslovenska
1000 LJUBLJANA,HACQUETOVA ULICA 7,46.06068,14.51568,Hacquetova ulica,,7,,Ljubljana,,Četrtna skupnost Bežigrad,Ljubljana,1000,Ljubljana,Osrednjeslovenska
1000 LJUBLJANA,HRENOVA ULICA 19,46.04438,14.50677,Hrenova ulica,,19,,Ljubljana,,Četrtna skupnost Center,Ljubljana,1000,Ljubljana,Osrednjeslovenska
1000 LJUBLJANA,HRUŠEVSKA CESTA 6 A,46.04676,14.54206,Hruševska cesta,,6,A,Ljubljana,,Četrtna skupnost Golovec,Ljubljana,1000,Ljubljana,Osrednjeslovenska
1000 LJUBLJANA,HUBADOVA ULICA 31,46.07760,14.50897,Hubadova ulica,,31,,Ljubljana,,Četrtna skupnost Bežigrad,Ljubljana,1000,Ljubljana,Osrednjeslovenska
1000 LJUBLJANA,KLANČARJEVA ULICA 13,46.02575,14.54048,Klančarjeva ulica,,13,,Ljubljana,,Četrtna skupnost Rudnik,Ljubljana,1000,Ljubljana,Osrednjeslovenska
1000 LJUBLJANA,KOGOVŠKOVA ULICA 1,46.07318,14.46775,Kogovškova ulica,,1,,Ljubljana,,Četrtna skupnost Šiška,Ljubljana,1000,Ljubljana,Osrednjeslovenska
1000 LJUBLJANA,KOLEZIJSKA ULICA 1 A,46.04290,14.50142,Kolezijska ulica,,1,A,Ljubljana,,Četrtna skupnost Trnovo,Ljubljana,1000,Ljubljana,Osrednjeslovenska
1000 LJUBLJANA,KOLEZIJSKA ULICA 25,46.04145,14.49750,Kolezijska ulica,,25,,Ljubljana,,Četrtna skupnost Trnovo,Ljubljana,1000,Ljubljana,Osrednjeslovenska
1000 LJUBLJANA,KOLINSKA ULICA 1,46.05983,14.52249,Kolinska ulica,,1,,Ljubljana,,Četrtna skupnost Jarše,Ljubljana,1000,Ljubljana,Osrednjeslovenska
1000 LJUBLJANA,KOMANOVA ULICA 1,46.08434,14.51257,Komanova ulica,,1,,Ljubljana,,Četrtna skupnost Posavje,Ljubljana,1000,Ljubljana,Osrednjeslovenska
1000 LJUBLJANA,KOMENSKEGA ULICA 11,46.05377,14.51028,Komenskega ulica,,11,,Ljubljana,,Četrtna skupnost Center,Ljubljana,1000,Ljubljana,Osrednjeslovenska
1000 LJUBLJANA,KOMENSKEGA ULICA 19,46.05341,14.51253,Komenskega ulica,,19,,Ljubljana,,Četrtna skupnost Center,Ljubljana,1000,Ljubljana,Osrednjeslovenska
1000 LJUBLJANA,KOMENSKEGA ULICA 32,46.05281,14.51176,Komenskega ulica,,32,,Ljubljana,,Četrtna skupnost Center,Ljubljana,1000,Ljubljana,Osrednjeslovenska
1000 LJUBLJANA,KOPITARJEVA ULICA 4,46.05131,14.51092,Kopitarjeva ulica,,4,,Ljubljana,,Četrtna skupnost Center,Ljubljana,1000,Ljubljana,Osrednjeslovenska
1000 LJUBLJANA,KOPRSKA ULICA 94 A,46.03394,14.48339,Koprska ulica,,94,A,Ljubljana,,Četrtna skupnost Trnovo,Ljubljana,1000,Ljubljana,Osrednjeslovenska
1000 LJUBLJANA,KORYTKOVA ULICA 29,46.05799,14.52368,Korytkova ulica,,29,,Ljubljana,,Četrtna skupnost Center,Ljubljana,1000,Ljubljana,Osrednjeslovenska
1000 LJUBLJANA,KORYTKOVA ULICA 30,46.05777,14.52384,Korytkova ulica,,30,,Ljubljana,,Četrtna skupnost Center,Ljubljana,1000,Ljubljana,Osrednjeslovenska
1000 LJUBLJANA,KOTNIKOVA ULICA 29,46.05681,14.51321,Kotnikova ulica,,29,,Ljubljana,,Četrtna skupnost Center,Ljubljana,1000,Ljubljana,Osrednjeslovenska
1000 LJUBLJANA,KRŽIČEVA ULICA 10,46.06465,14.51105,Kržičeva ulica,,10,,Ljubljana,,Četrtna skupnost Bežigrad,Ljubljana,1000,Ljubljana,Osrednjeslovenska
1000 LJUBLJANA,KUNAVERJEVA ULICA 15,46.07940,14.47495,Kunaverjeva ulica,,15,,Ljubljana,,Četrtna skupnost Dravlje,Ljubljana,1000,Ljubljana,Osrednjeslovenska
1000 LJUBLJANA,LAMUTOVA ULICA 15,46.07676,14.45439,Lamutova ulica,,15,,Ljubljana,,Četrtna skupnost Dravlje,Ljubljana,1000,Ljubljana,Osrednjeslovenska
1000 LJUBLJANA,LEPI POT 14,46.04460,14.49488,Lepi pot,,14,,Ljubljana,,Četrtna skupnost Vič,Ljubljana,1000,Ljubljana,Osrednjeslovenska
1000 LJUBLJANA,LESKOŠKOVA CESTA 4,46.06614,14.55412,Leskoškova cesta,,4,,Ljubljana,,Četrtna skupnost Jarše,Ljubljana,1000,Ljubljana,Osrednjeslovenska
1000 LJUBLJANA,LEVČEVA ULICA 11,46.04925,14.48778,Levčeva ulica,,11,,Ljubljana,,Četrtna skupnost Rožnik,Ljubljana,1000,Ljubljana,Osrednjeslovenska
1000 LJUBLJANA,LINHARTOVA CESTA 15,46.06480,14.51444,Linhartova cesta,,15,,Ljubljana,,Četrtna skupnost Bežigrad,Ljubljana,1000,Ljubljana,Osrednjeslovenska
1000 LJUBLJANA,LINHARTOVA CESTA 5,46.06405,14.50981,Linhartova cesta,,5,,Ljubljana,,Četrtna skupnost Bežigrad,Ljubljana,1000,Ljubljana,Osrednjeslovenska
1000 LJUBLJANA,LINHARTOVA CESTA 51,46.06670,14.52411,Linhartova cesta,,51,,Ljubljana,,Četrtna skupnost Bežigrad,Ljubljana,1000,Ljubljana,Osrednjeslovenska
1000 LJUBLJANA,LITIJSKA CESTA 161,46.04539,14.56288,Litijska cesta,,161,,Ljubljana,,Četrtna skupnost Golovec,Ljubljana,1000,Ljubljana,Osrednjeslovenska
1000 LJUBLJANA,LITIJSKA CESTA 38,46.04733,14.54543,Litijska cesta,,38,,Ljubljana,,Četrtna skupnost Golovec,Ljubljana,1000,Ljubljana,Osrednjeslovenska
1000 LJUBLJANA,LITIJSKA CESTA 43,46.04812,14.54356,Litijska cesta,,43,,Ljubljana,,Četrtna skupnost Golovec,Ljubljana,1000,Ljubljana,Osrednjeslovenska
1000 LJUBLJANA,LITIJSKA CESTA 47,46.04806,14.54442,Litijska cesta,,47,,Ljubljana,,Četrtna skupnost Golovec,Ljubljana,1000,Ljubljana,Osrednjeslovenska
1000 LJUBLJANA,MALEŠEVA ULICA 36,46.06634,14.47228,Maleševa ulica,,36,,Ljubljana,,Četrtna skupnost Šiška,Ljubljana,1000,Ljubljana,Osrednjeslovenska
1000 LJUBLJANA,MAROLTOVA ULICA 11,46.07983,14.51755,Maroltova ulica,,11,,Ljubljana,,Četrtna skupnost Bežigrad,Ljubljana,1000,Ljubljana,Osrednjeslovenska
1000 LJUBLJANA,MARTINČEVA ULICA 30,46.07876,14.46871,Martinčeva ulica,,30,,Ljubljana,,Četrtna skupnost Dravlje,Ljubljana,1000,Ljubljana,Osrednjeslovenska
1000 LJUBLJANA,MATJANOVA POT 5,46.06695,14.48026,Matjanova pot,,5,,Ljubljana,,Četrtna skupnost Šiška,Ljubljana,1000,Ljubljana,Osrednjeslovenska
1000 LJUBLJANA,METELKOVA ULICA 15,46.05705,14.51547,Metelkova ulica,,15,,Ljubljana,,Četrtna skupnost Center,Ljubljana,1000,Ljubljana,Osrednjeslovenska
1000 LJUBLJANA,METELKOVA ULICA 9,46.05658,14.51516,Metelkova ulica,,9,,Ljubljana,,Četrtna skupnost Center,Ljubljana,1000,Ljubljana,Osrednjeslovenska
1000 LJUBLJANA,MIRJE 19,46.04538,14.49873,Mirje,,19,,Ljubljana,,Četrtna skupnost Vič,Ljubljana,1000,Ljubljana,Osrednjeslovenska
1000 LJUBLJANA,MIRJE 2,46.04487,14.50172,Mirje,,2,,Ljubljana,,Četrtna skupnost Trnovo,Ljubljana,1000,Ljubljana,Osrednjeslovenska
1000 LJUBLJANA,NA JAMI 20,46.06663,14.48922,Na jami,,20,,Ljubljana,,Četrtna skupnost Šiška,Ljubljana,1000,Ljubljana,Osrednjeslovenska
1000 LJUBLJANA,NOVE FUŽINE 40,46.05346,14.56112,Nove Fužine,,40,,Ljubljana,,Četrtna skupnost Moste,Ljubljana,1000,Ljubljana,Osrednjeslovenska
1000 LJUBLJANA,OB SOTOČJU 9,46.05335,14.54171,Ob sotočju,,9,,Ljubljana,,Četrtna skupnost Golovec,Ljubljana,1000,Ljubljana,Osrednjeslovenska
1000 LJUBLJANA,OB ZELENI JAMI 3,46.05956,14.52509,Ob zeleni jami,,3,,Ljubljana,,Četrtna skupnost Jarše,Ljubljana,1000,Ljubljana,Osrednjeslovenska
1000 LJUBLJANA,OPEKARSKA CESTA 11,46.03951,14.50753,Opekarska cesta,,11,,Ljubljana,,Četrtna skupnost Trnovo,Ljubljana,1000,Ljubljana,Osrednjeslovenska
1000 LJUBLJANA,OPEKARSKA CESTA 30,46.03750,14.50466,Opekarska cesta,,30,,Ljubljana,,Četrtna skupnost Trnovo,Ljubljana,1000,Ljubljana,Osrednjeslovenska
1000 LJUBLJANA,PARMOVA ULICA 51,46.06408,14.50270,Parmova ulica,,51,,Ljubljana,,Četrtna skupnost Bežigrad,Ljubljana,1000,Ljubljana,Osrednjeslovenska
1000 LJUBLJANA,PARMOVA ULICA 51 B,46.06450,14.50257,Parmova ulica,,51,B,Ljubljana,,Četrtna skupnost Bežigrad,Ljubljana,1000,Ljubljana,Osrednjeslovenska
1000 LJUBLJANA,PERIČEVA ULICA 25,46.06616,14.51125,Peričeva ulica,,25,,Ljubljana,,Četrtna skupnost Bežigrad,Ljubljana,1000,Ljubljana,Osrednjeslovenska
1000 LJUBLJANA,PERIČEVA ULICA 29,46.06668,14.51192,Peričeva ulica,,29,,Ljubljana,,Četrtna skupnost Bežigrad,Ljubljana,1000,Ljubljana,Osrednjeslovenska
1000 LJUBLJANA,PERIČEVA ULICA 31,46.06686,14.51147,Peričeva ulica,,31,,Ljubljana,,Četrtna skupnost Bežigrad,Ljubljana,1000,Ljubljana,Osrednjeslovenska
1000 LJUBLJANA,PERIČEVA ULICA 7,46.06393,14.51085,Peričeva ulica,,7,,Ljubljana,,Četrtna skupnost Bežigrad,Ljubljana,1000,Ljubljana,Osrednjeslovenska
1000 LJUBLJANA,PETKOVŠKOVO NABREŽJE 57,46.05204,14.51312,Petkovškovo nabrežje,,57,,Ljubljana,,Četrtna skupnost Center,Ljubljana,1000,Ljubljana,Osrednjeslovenska
1000 LJUBLJANA,PLEŠIČEVA ULICA 15,46.08009,14.46711,Plešičeva ulica,,15,,Ljubljana,,Četrtna skupnost Dravlje,Ljubljana,1000,Ljubljana,Osrednjeslovenska
1000 LJUBLJANA,POD JELŠAMI 20,46.03383,14.49319,Pod jelšami,,20,,Ljubljana,,Četrtna skupnost Trnovo,Ljubljana,1000,Ljubljana,Osrednjeslovenska
1000 LJUBLJANA,PODGORNIKOVA ULICA 1,46.07375,14.47954,Podgornikova ulica,,1,,Ljubljana,,Četrtna skupnost Šiška,Ljubljana,1000,Ljubljana,Osrednjeslovenska
1000 LJUBLJANA,POT NA FUŽINE 3,46.05563,14.55129,Pot na Fužine,,3,,Ljubljana,,Četrtna skupnost Moste,Ljubljana,1000,Ljubljana,Osrednjeslovenska
1000 LJUBLJANA,POT NA HREŠE 10 D,46.06223,14.60872,Pot na Hreše,,10,D,Ljubljana,,Četrtna skupnost Polje,Ljubljana,1000,Ljubljana,Osrednjeslovenska
1000 LJUBLJANA,POVŠETOVA ULICA 57,46.05333,14.53286,Povšetova ulica,,57,,Ljubljana,,Četrtna skupnost Moste,Ljubljana,1000,Ljubljana,Osrednjeslovenska
1000 LJUBLJANA,PREGLOV TRG 1,46.05507,14.55766,Preglov trg,,1,,Ljubljana,,Četrtna skupnost Moste,Ljubljana,1000,Ljubljana,Osrednjeslovenska
1000 LJUBLJANA,PRIJATELJEVA ULICA 2,46.04409,14.50840,Prijateljeva ulica,,2,,Ljubljana,,Četrtna skupnost Center,Ljubljana,1000,Ljubljana,Osrednjeslovenska
1000 LJUBLJANA,PRVOMAJSKA ULICA 5,46.05588,14.53132,Prvomajska ulica,,5,,Ljubljana,,Četrtna skupnost Moste,Ljubljana,1000,Ljubljana,Osrednjeslovenska
1000 LJUBLJANA,PUTRIHOVA ULICA 1,46.11509,14.46525,Putrihova ulica,,1,,Ljubljana,,Četrtna skupnost Šentvid,Ljubljana,1000,Ljubljana,Osrednjeslovenska
1000 LJUBLJANA,RAKUŠEVA ULICA 6,46.07678,14.48435,Rakuševa ulica,,6,,Ljubljana,,Četrtna skupnost Šiška,Ljubljana,1000,Ljubljana,Osrednjeslovenska
1000 LJUBLJANA,REDELONGHIJEVA ULICA 12,46.04099,14.48579,Redelonghijeva ulica,,12,,Ljubljana,,Četrtna skupnost Vič,Ljubljana,1000,Ljubljana,Osrednjeslovenska
1000 LJUBLJANA,ROŽANSKA ULICA 2,46.07340,14.50885,Rožanska ulica,,2,,Ljubljana,,Četrtna skupnost Bežigrad,Ljubljana,1000,Ljubljana,Osrednjeslovenska
1000 LJUBLJANA,"ROŽNA DOLINA, CESTA IV 45",46.04624,14.48124,"Rožna dolina, cesta IV",,45,,Ljubljana,,Četrtna skupnost Rožnik,Ljubljana,1000,Ljubljana,Osrednjeslovenska
1000 LJUBLJANA,"ROŽNA DOLINA, CESTA VII 21 A",46.04992,14.48188,"Rožna dolina, cesta VII",,21,A,Ljubljana,,Četrtna skupnost Rožnik,Ljubljana,1000,Ljubljana,Osrednjeslovenska
1000 LJUBLJANA,SAVLJE 74 C,46.09602,14.50020,Savlje,,74,C,Ljubljana,,Četrtna skupnost Posavje,Ljubljana,1000,Ljubljana,Osrednjeslovenska
1000 LJUBLJANA,SAVSKA CESTA 10,46.06433,14.52589,Savska cesta,,10,,Ljubljana,,Četrtna skupnost Jarše,Ljubljana,1000,Ljubljana,Osrednjeslovenska
1000 LJUBLJANA,SAVSKA CESTA 2,46.06365,14.52564,Savska cesta,,2,,Ljubljana,,Četrtna skupnost Jarše,Ljubljana,1000,Ljubljana,Osrednjeslovenska
1000 LJUBLJANA,SAVSKA CESTA 3,46.06440,14.52522,Savska cesta,,3,,Ljubljana,,Četrtna skupnost Bežigrad,Ljubljana,1000,Ljubljana,Osrednjeslovenska
1000 LJUBLJANA,SAVSKA CESTA 9,46.06398,14.52499,Savska cesta,,9,,Ljubljana,,Četrtna skupnost Bežigrad,Ljubljana,1000,Ljubljana,Osrednjeslovenska
1000 LJUBLJANA,SLOMŠKOVA ULICA 17,46.05559,14.51270,Slomškova ulica,,17,,Ljubljana,,Četrtna skupnost Center,Ljubljana,1000,Ljubljana,Osrednjeslovenska
1000 LJUBLJANA,SLOMŠKOVA ULICA 35,46.05529,14.51468,Slomškova ulica,,35,,Ljubljana,,Četrtna skupnost Center,Ljubljana,1000,Ljubljana,Osrednjeslovenska
1000 LJUBLJANA,SLOVENSKA CESTA 54,46.05614,14.50576,Slovenska cesta,,54,,Ljubljana,,Četrtna skupnost Center,Ljubljana,1000,Ljubljana,Osrednjeslovenska
1000 LJUBLJANA,STOŽICE 7,46.08458,14.52202,Stožice,,7,,Ljubljana,,Četrtna skupnost Posavje,Ljubljana,1000,Ljubljana,Osrednjeslovenska
1000 LJUBLJANA,TABOR 10,46.05420,14.51467,Tabor,,10,,Ljubljana,,Četrtna skupnost Center,Ljubljana,1000,Ljubljana,Osrednjeslovenska
1000 LJUBLJANA,TABOR 14,46.05442,14.51666,Tabor,,14,,Ljubljana,,Četrtna skupnost Center,Ljubljana,1000,Ljubljana,Osrednjeslovenska
1000 LJUBLJANA,TACENSKA CESTA 120,46.11646,14.46205,Tacenska cesta,,120,,Ljubljana,,Četrtna skupnost Šentvid,Ljubljana,1000,Ljubljana,Osrednjeslovenska
1000 LJUBLJANA,TBILISIJSKA ULICA 57 B,46.03694,14.47959,Tbilisijska ulica,,57,B,Ljubljana,,Četrtna skupnost Vič,Ljubljana,1000,Ljubljana,Osrednjeslovenska
1000 LJUBLJANA,TBILISIJSKA ULICA 59,46.03762,14.47887,Tbilisijska ulica,,59,,Ljubljana,,Četrtna skupnost Vič,Ljubljana,1000,Ljubljana,Osrednjeslovenska
1000 LJUBLJANA,TBILISIJSKA ULICA 81,46.03589,14.47775,Tbilisijska ulica,,81,,Ljubljana,,Četrtna skupnost Vič,Ljubljana,1000,Ljubljana,Osrednjeslovenska
1000 LJUBLJANA,TBILISIJSKA ULICA 89,46.03612,14.47919,Tbilisijska ulica,,89,,Ljubljana,,Četrtna skupnost Vič,Ljubljana,1000,Ljubljana,Osrednjeslovenska
1000 LJUBLJANA,TEHNOLOŠKI PARK 20,46.05045,14.46030,Tehnološki park,,20,,Ljubljana,,Četrtna skupnost Rožnik,Ljubljana,1000,Ljubljana,Osrednjeslovenska
1000 LJUBLJANA,TEHNOLOŠKI PARK 21,46.04931,14.46015,Tehnološki park,,21,,Ljubljana,,Četrtna skupnost Rožnik,Ljubljana,1000,Ljubljana,Osrednjeslovenska
1000 LJUBLJANA,TIVOLSKA CESTA 48,46.05758,14.50466,Tivolska cesta,,48,,Ljubljana,,Četrtna skupnost Center,Ljubljana,1000,Ljubljana,Osrednjeslovenska
1000 LJUBLJANA,TOPNIŠKA ULICA 4,46.06740,14.51179,Topniška ulica,,4,,Ljubljana,,Četrtna skupnost Bežigrad,Ljubljana,1000,Ljubljana,Osrednjeslovenska
1000 LJUBLJANA,TRIGLAVSKA ULICA 6,46.07328,14.50934,Triglavska ulica,,6,,Ljubljana,,Četrtna skupnost Bežigrad,Ljubljana,1000,Ljubljana,Osrednjeslovenska
1000 LJUBLJANA,TRUBARJEVA CESTA 2,46.05160,14.50665,Trubarjeva cesta,,2,,Ljubljana,,Četrtna skupnost Center,Ljubljana,1000,Ljubljana,Osrednjeslovenska
1000 LJUBLJANA,TRŽAŠKA CESTA 118,46.03963,14.47124,Tržaška cesta,,118,,Ljubljana,,Četrtna skupnost Vič,Ljubljana,1000,Ljubljana,Osrednjeslovenska
1000 LJUBLJANA,TRŽAŠKA CESTA 133,46.03812,14.47024,Tržaška cesta,,133,,Ljubljana,,Četrtna skupnost Vič,Ljubljana,1000,Ljubljana,Osrednjeslovenska
1000 LJUBLJANA,TRŽAŠKA CESTA 15,46.04632,14.49255,Tržaška cesta,,15,,Ljubljana,,Četrtna skupnost Vič,Ljubljana,1000,Ljubljana,Osrednjeslovenska
1000 LJUBLJANA,TRŽNA ULICA 3,46.06421,14.49368,Tržna ulica,,3,,Ljubljana,,Četrtna skupnost Šiška,Ljubljana,1000,Ljubljana,Osrednjeslovenska
1000 LJUBLJANA,UKMARJEVA ULICA 2,46.02058,14.53935,Ukmarjeva ulica,,2,,Ljubljana,,Četrtna skupnost Rudnik,Ljubljana,1000,Ljubljana,Osrednjeslovenska
1000 LJUBLJANA,UKMARJEVA ULICA 4,46.02086,14.53912,Ukmarjeva ulica,,4,,Ljubljana,,Četrtna skupnost Rudnik,Ljubljana,1000,Ljubljana,Osrednjeslovenska
1000 LJUBLJANA,ULICA ALME SODNIK 6,46.07385,14.49536,Ulica Alme Sodnik,,6,,Ljubljana,,Četrtna skupnost Šiška,Ljubljana,1000,Ljubljana,Osrednjeslovenska
1000 LJUBLJANA,ULICA BRATOV BABNIK 10,46.07645,14.46600,Ulica bratov Babnik,,10,,Ljubljana,,Četrtna skupnost Dravlje,Ljubljana,1000,Ljubljana,Osrednjeslovenska
1000 LJUBLJANA,ULICA BRATOV UČAKAR 58,46.07236,14.47342,Ulica bratov Učakar,,58,,Ljubljana,,Četrtna skupnost Šiška,Ljubljana,1000,Ljubljana,Osrednjeslovenska
1000 LJUBLJANA,ULICA BRATOV UČAKAR 64,46.07216,14.47257,Ulica bratov Učakar,,64,,Ljubljana,,Četrtna skupnost Šiška,Ljubljana,1000,Ljubljana,Osrednjeslovenska
1000 LJUBLJANA,ULICA LOJZETA SPACALA 10,46.06747,14.47210,Ulica Lojzeta Spacala,,10,,Ljubljana,,Četrtna skupnost Šiška,Ljubljana,1000,Ljubljana,Osrednjeslovenska
1000 LJUBLJANA,URANIČEVA ULICA 4 A,46.07105,14.47191,Uraničeva ulica,,4,A,Ljubljana,,Četrtna skupnost Šiška,Ljubljana,1000,Ljubljana,Osrednjeslovenska
1000 LJUBLJANA,V KLADEH 9,46.10876,14.45930,V Kladeh,,9,,Ljubljana,,Četrtna skupnost Šentvid,Ljubljana,1000,Ljubljana,Osrednjeslovenska
1000 LJUBLJANA,VILHARJEV PODHOD 1,46.06032,14.51507,Vilharjev podhod,,1,,Ljubljana,,Četrtna skupnost Bežigrad,Ljubljana,1000,Ljubljana,Osrednjeslovenska
1000 LJUBLJANA,VILHARJEV PODHOD 18,46.06015,14.51605,Vilharjev podhod,,18,,Ljubljana,,Četrtna skupnost Bežigrad,Ljubljana,1000,Ljubljana,Osrednjeslovenska
1000 LJUBLJANA,VILHARJEV PODHOD 7,46.06035,14.51578,Vilharjev podhod,,7,,Ljubljana,,Četrtna skupnost Bežigrad,Ljubljana,1000,Ljubljana,Osrednjeslovenska
1000 LJUBLJANA,VILHARJEVA CESTA 25,46.06020,14.51486,Vilharjeva cesta,,25,,Ljubljana,,Četrtna skupnost Bežigrad,Ljubljana,1000,Ljubljana,Osrednjeslovenska
1000 LJUBLJANA,VILHARJEVA CESTA 27,46.06020,14.51545,Vilharjeva cesta,,27,,Ljubljana,,Četrtna skupnost Bežigrad,Ljubljana,1000,Ljubljana,Osrednjeslovenska
1000 LJUBLJANA,VODNIKOVA CESTA 187,46.07405,14.47528,Vodnikova cesta,,187,,Ljubljana,,Četrtna skupnost Šiška,Ljubljana,1000,Ljubljana,Osrednjeslovenska
1000 LJUBLJANA,VODNIKOVA CESTA 56,46.06700,14.48819,Vodnikova cesta,,56,,Ljubljana,,Četrtna skupnost Šiška,Ljubljana,1000,Ljubljana,Osrednjeslovenska
1000 LJUBLJANA,VODOVODNA CESTA 100,46.07860,14.50306,Vodovodna cesta,,100,,Ljubljana,,Četrtna skupnost Šiška,Ljubljana,1000,Ljubljana,Osrednjeslovenska
1000 LJUBLJANA,VODOVODNA CESTA 109,46.07871,14.50194,Vodovodna cesta,,109,,Ljubljana,,Četrtna skupnost Šiška,Ljubljana,1000,Ljubljana,Osrednjeslovenska
1000 LJUBLJANA,VODOVODNA CESTA 99 A,46.07764,14.50248,Vodovodna cesta,,99,A,Ljubljana,,Četrtna skupnost Šiška,Ljubljana,1000,Ljubljana,Osrednjeslovenska
1000 LJUBLJANA,VOJKOVA CESTA 74,46.07115,14.52000,Vojkova cesta,,74,,Ljubljana,,Četrtna skupnost Bežigrad,Ljubljana,1000,Ljubljana,Osrednjeslovenska
1000 LJUBLJANA,"VRHOVCI, CESTA XVIII 3",46.04606,14.45584,"Vrhovci, cesta XVIII",,3,,Ljubljana,,Četrtna skupnost Rožnik,Ljubljana,1000,Ljubljana,Osrednjeslovenska
1000 LJUBLJANA,VURNIKOVA ULICA 9,46.06262,14.51543,Vurnikova ulica,,9,,Ljubljana,,Četrtna skupnost Bežigrad,Ljubljana,1000,Ljubljana,Osrednjeslovenska
1000 LJUBLJANA,ZALOŠKA CESTA 149,46.05654,14.55551,Zaloška cesta,,149,,Ljubljana,,Četrtna skupnost Moste,Ljubljana,1000,Ljubljana,Osrednjeslovenska
1000 LJUBLJANA,ZALOŠKA CESTA 159,46.05661,14.55866,Zaloška cesta,,159,,Ljubljana,,Četrtna skupnost Moste,Ljubljana,1000,Ljubljana,Osrednjeslovenska
1000 LJUBLJANA,ZALOŠKA CESTA 167,46.05636,14.56089,Zaloška cesta,,167,,Ljubljana,,Četrtna skupnost Moste,Ljubljana,1000,Ljubljana,Osrednjeslovenska
1000 LJUBLJANA,ZALOŠKA CESTA 2,46.05221,14.52078,Zaloška cesta,,2,,Ljubljana,,Četrtna skupnost Center,Ljubljana,1000,Ljubljana,Osrednjeslovenska
1000 LJUBLJANA,ZALOŠKA CESTA 269,46.06104,14.61452,Zaloška cesta,,269,,Ljubljana,,Četrtna skupnost Polje,Ljubljana,1000,Ljubljana,Osrednjeslovenska
1000 LJUBLJANA,ZALOŠKA CESTA 69,46.05637,14.53844,Zaloška cesta,,69,,Ljubljana,,Četrtna skupnost Moste,Ljubljana,1000,Ljubljana,Osrednjeslovenska
1000 LJUBLJANA,ZARNIKOVA ULICA 11,46.04835,14.51569,Zarnikova ulica,,11,,Ljubljana,,Četrtna skupnost Center,Ljubljana,1000,Ljubljana,Osrednjeslovenska
1000 LJUBLJANA,ZDRAVSTVENA POT 1,46.04729,14.51594,Zdravstvena pot,,1,,Ljubljana,,Četrtna skupnost Center,Ljubljana,1000,Ljubljana,Osrednjeslovenska
1000 LJUBLJANA,ZIHERLOVA ULICA 38,46.04095,14.50414,Ziherlova ulica,,38,,Ljubljana,,Četrtna skupnost Trnovo,Ljubljana,1000,Ljubljana,Osrednjeslovenska
1000 LJUBLJANA,ČUČKOVA ULICA 17,46.03501,14.45303,Čučkova ulica,,17,,Ljubljana,,Četrtna skupnost Vič,Ljubljana,1000,Ljubljana,Osrednjeslovenska
1000 LJUBLJANA,ŠARHOVA ULICA 20,46.07926,14.51017,Šarhova ulica,,20,,Ljubljana,,Četrtna skupnost Bežigrad,Ljubljana,1000,Ljubljana,Osrednjeslovenska
1000 LJUBLJANA,ŠESTOVA ULICA 10,46.04631,14.48719,Šestova ulica,,10,,Ljubljana,,Četrtna skupnost Vič,Ljubljana,1000,Ljubljana,Osrednjeslovenska
1000 LJUBLJANA,ŠIŠENSKA CESTA 44,46.07131,14.48026,Šišenska cesta,,44,,Ljubljana,,Četrtna skupnost Šiška,Ljubljana,1000,Ljubljana,Osrednjeslovenska
1000 LJUBLJANA,ŠLAJMERJEVA ULICA 6,46.05426,14.52502,Šlajmerjeva ulica,,6,,Ljubljana,,Četrtna skupnost Center,Ljubljana,1000,Ljubljana,Osrednjeslovenska
1000 LJUBLJANA,ŽELEZNA CESTA 10,46.06082,14.51403,Železna cesta,,10,,Ljubljana,,Četrtna skupnost Bežigrad,Ljubljana,1000,Ljubljana,Osrednjeslovenska
1000 LJUBLJANA,ŽELEZNA CESTA 16,46.06275,14.51369,Železna cesta,,16,,Ljubljana,,Četrtna skupnost Bežigrad,Ljubljana,1000,Ljubljana,Osrednjeslovenska
1000 LJUBLJANA,ŽIDOVSKA ULICA 1,46.04904,14.50499,Židovska ulica,,1,,Ljubljana,,Četrtna skupnost Center,Ljubljana,1000,Ljubljana,Osrednjeslovenska
1210 LJUBLJANA - ŠENTVID,CESTA NA POLJANE 24,46.09337,14.47463,Cesta na Poljane,,24,,Ljubljana,,Četrtna skupnost Šentvid,Ljubljana,1210,Ljubljana - Šentvid,Osrednjeslovenska
1210 LJUBLJANA - ŠENTVID,OB ZDRAVSTVENEM DOMU 1,46.09856,14.46490,Ob zdravstvenem domu,,1,,Ljubljana,,Četrtna skupnost Šentvid,Ljubljana,1210,Ljubljana - Šentvid,Osrednjeslovenska
1210 LJUBLJANA - ŠENTVID,REGENTOVA CESTA 70,46.08570,14.46599,Regentova cesta,,70,,Ljubljana,,Četrtna skupnost Šentvid,Ljubljana,1210,Ljubljana - Šentvid,Osrednjeslovenska
1210 LJUBLJANA - ŠENTVID,ULICA BRATOV KOMEL 25,46.09548,14.47256,Ulica bratov Komel,,25,,Ljubljana,,Četrtna skupnost Šentvid,Ljubljana,1210,Ljubljana - Šentvid,Osrednjeslovenska
1210 LJUBLJANA - ŠENTVID,ŠTULA 13 B,46.09649,14.46887,Štula,,13,B,Ljubljana,,Četrtna skupnost Šentvid,Ljubljana,1210,Ljubljana - Šentvid,Osrednjeslovenska
1211 LJUBLJANA - ŠMARTNO,NA PALCAH 2,46.12111,14.47331,Na Palcah,,2,,Ljubljana,,Četrtna skupnost Šmarna gora,Ljubljana,1211,Ljubljana - Šmartno,Osrednjeslovenska
1211 LJUBLJANA - ŠMARTNO,SPODNJE GAMELJNE 106,46.11851,14.50439,Spodnje Gameljne,,106,,Spodnje Gameljne,,Četrtna skupnost Šmarna gora,Ljubljana,1211,Ljubljana - Šmartno,Osrednjeslovenska
1215 MEDVODE,BIZANTOVA CESTA 14,46.13248,14.41437,Bizantova cesta,,14,,Medvode,,Preska - Žlebe,Medvode,1215,Medvode,Osrednjeslovenska
1215 MEDVODE,GORENJA VAS - RETEČE 58 B,46.15128,14.38319,Gorenja vas - Reteče,,58,B,Gorenja vas - Reteče,,Reteče - Gorenja vas,Škofja Loka,1215,Medvode,Gorenjska
1215 MEDVODE,OSTROVRHARJEVA ULICA 6,46.14535,14.40560,Ostrovrharjeva ulica,,6,,Medvode,,Medvode - center,Medvode,1215,Medvode,Osrednjeslovenska
1215 MEDVODE,ZBILJE 1 K,46.15600,14.40016,Zbilje,,1,K,Zbilje,,Zbilje,Medvode,1215,Medvode,Osrednjeslovenska
1217 VODICE,KOPITARJEV TRG 1,46.18729,14.49116,Kopitarjev trg,,1,,Vodice,,,Vodice,1217,Vodice,Osrednjeslovenska
1217 VODICE,UTIK 52,46.16785,14.50143,Utik,,52,,Utik,,,Vodice,1217,Vodice,Osrednjeslovenska
1218 KOMENDA,GLAVARJEVA CESTA 61 A,46.20453,14.53935,Glavarjeva cesta,,61,A,Komenda,,,Komenda,1218,Komenda,Osrednjeslovenska
1218 KOMENDA,KRANJSKA POT 5,46.20605,14.53743,Kranjska pot,,5,,Komenda,,,Komenda,1218,Komenda,Osrednjeslovenska
1218 KOMENDA,ZADRUŽNA ULICA 9,46.20483,14.53649,Zadružna ulica,,9,,Komenda,,,Komenda,1218,Komenda,Osrednjeslovenska
1219 LAZE V TUHINJU,LAZE V TUHINJU 29,46.21946,14.75656,Laze v Tuhinju,,29,,Laze v Tuhinju,,Tuhinj,Kamnik,1219,Laze v Tuhinju,Osrednjeslovenska
1225 LUKOVICA,TROJANSKA CESTA 13,46.17023,14.69393,Trojanska cesta,,13,,Lukovica pri Domžalah,,Lukovica,Lukovica,1225,Lukovica,Osrednjeslovenska
1230 DOMŽALE,CESTA TALCEV 10,46.13789,14.60258,Cesta talcev,,10,,Domžale,,Domžale - Slavka Šlandra,Domžale,1230,Domžale,Osrednjeslovenska
1230 DOMŽALE,DEPALA VAS 14 A,46.13366,14.57014,Depala vas,,14,A,Depala vas,,Domžale - Venclja Perka,Domžale,1230,Domžale,Osrednjeslovenska
1230 DOMŽALE,JELOVŠKOVA ULICA 7,46.15214,14.59054,Jelovškova ulica,,7,,Spodnje Jarše,,Jarše - Rodica,Domžale,1230,Domžale,Osrednjeslovenska
1230 DOMŽALE,KARANTANSKA CESTA 5,46.13811,14.59583,Karantanska cesta,,5,,Domžale,,Domžale - Slavka Šlandra,Domžale,1230,Domžale,Osrednjeslovenska
1230 DOMŽALE,LJUBLJANSKA CESTA 104,46.14268,14.59561,Ljubljanska cesta,,104,,Domžale,,Domžale - Slavka Šlandra,Domžale,1230,Domžale,Osrednjeslovenska
1230 DOMŽALE,LJUBLJANSKA CESTA 59,46.13762,14.58964,Ljubljanska cesta,,59,,Domžale,,Domžale - Venclja Perka,Domžale,1230,Domžale,Osrednjeslovenska
1230 DOMŽALE,MESTNI TRG 2,46.13975,14.59617,Mestni trg,,2,,Domžale,,Domžale - Slavka Šlandra,Domžale,1230,Domžale,Osrednjeslovenska
1230 DOMŽALE,PREŠERNOVA CESTA 21 B,46.14070,14.58948,Prešernova cesta,,21,B,Domžale,,Domžale - Venclja Perka,Domžale,1230,Domžale,Osrednjeslovenska
1230 DOMŽALE,SLAMNIKARSKA CESTA 3,46.13821,14.59837,Slamnikarska cesta,,3,,Domžale,,Domžale - Slavka Šlandra,Domžale,1230,Domžale,Osrednjeslovenska
1230 DOMŽALE,ULICA IVANA PENGOVA 20,46.14446,14.59689,Ulica Ivana Pengova,,20,,Domžale,,Domžale - Slavka Šlandra,Domžale,1230,Domžale,Osrednjeslovenska
1230 DOMŽALE,ČUFARJEVA ULICA 23,46.14778,14.60692,Čufarjeva ulica,,23,,Vir,,Toma Brejca - Vir,Domžale,1230,Domžale,Osrednjeslovenska
1231 LJUBLJANA - ČRNUČE,CESTA 24. JUNIJA 23,46.09681,14.52692,Cesta 24. junija,,23,,Ljubljana,,Četrtna skupnost Črnuče,Ljubljana,1231,Ljubljana - Črnuče,Osrednjeslovenska
1231 LJUBLJANA - ČRNUČE,CESTA 24. JUNIJA 31,46.09537,14.52704,Cesta 24. junija,,31,,Ljubljana,,Četrtna skupnost Črnuče,Ljubljana,1231,Ljubljana - Črnuče,Osrednjeslovenska
1231 LJUBLJANA - ČRNUČE,CESTA CENETA ŠTUPARJA 141,46.10763,14.53521,Cesta Ceneta Štuparja,,141,,Ljubljana,,Četrtna skupnost Črnuče,Ljubljana,1231,Ljubljana - Črnuče,Osrednjeslovenska
1231 LJUBLJANA - ČRNUČE,CESTA CENETA ŠTUPARJA 2 A,46.10367,14.53039,Cesta Ceneta Štuparja,,2,A,Ljubljana,,Četrtna skupnost Črnuče,Ljubljana,1231,Ljubljana - Črnuče,Osrednjeslovenska
1231 LJUBLJANA - ČRNUČE,DUNAJSKA CESTA 405,46.10448,14.53545,Dunajska cesta,,405,,Ljubljana,,Četrtna skupnost Črnuče,Ljubljana,1231,Ljubljana - Črnuče,Osrednjeslovenska
1231 LJUBLJANA - ČRNUČE,PETKOVA ULICA 16,46.09907,14.52792,Petkova ulica,,16,,Ljubljana,,Četrtna skupnost Črnuče,Ljubljana,1231,Ljubljana - Črnuče,Osrednjeslovenska
1231 LJUBLJANA - ČRNUČE,ZASAVSKA CESTA 95,46.09189,14.57495,Zasavska cesta,,95,,Ljubljana,,Četrtna skupnost Črnuče,Ljubljana,1231,Ljubljana - Črnuče,Osrednjeslovenska
1234 MENGEŠ,ALJAŽEVA ULICA 9,46.16990,14.57643,Aljaževa ulica,,9,,Mengeš,,,Mengeš,1234,Mengeš,Osrednjeslovenska
1234 MENGEŠ,GLAVNI TRG 13,46.16820,14.57322,Glavni trg,,13,,Mengeš,,,Mengeš,1234,Mengeš,Osrednjeslovenska
1234 MENGEŠ,ROPRETOVA CESTA 23,46.15862,14.56291,Ropretova cesta,,23,,Mengeš,,,Mengeš,1234,Mengeš,Osrednjeslovenska
1234 MENGEŠ,ZAVRTI 45,46.16750,14.57426,Zavrti,,45,,Mengeš,,,Mengeš,1234,Mengeš,Osrednjeslovenska
1234 MENGEŠ,ZORANINA ULICA 3,46.16207,14.57100,Zoranina ulica,,3,,Mengeš,,,Mengeš,1234,Mengeš,Osrednjeslovenska
1235 RADOMLJE,KAMNIŠKA CESTA 24,46.16800,14.59490,Kamniška cesta,,24,,Preserje pri Radomljah,,Preserje,Domžale,1235,Radomlje,Osrednjeslovenska
1235 RADOMLJE,PELECHOVA CESTA 18,46.16801,14.59744,Pelechova cesta,,18,,Preserje pri Radomljah,,Preserje,Domžale,1235,Radomlje,Osrednjeslovenska
1241 KAMNIK,LJUBLJANSKA CESTA 4 J,46.21694,14.60311,Ljubljanska cesta,,4,J,Kamnik,,Perovo,Kamnik,1241,Kamnik,Osrednjeslovenska
1241 KAMNIK,NA BREGU 24,46.21033,14.61271,Na bregu,,24,,Kamnik,,Novi trg,Kamnik,1241,Kamnik,Osrednjeslovenska
1241 KAMNIK,NA JASI 6,46.20853,14.61180,Na jasi,,6,,Kamnik,,Novi trg,Kamnik,1241,Kamnik,Osrednjeslovenska
1241 KAMNIK,NEVELJSKA POT 26,46.22911,14.61814,Neveljska pot,,26,,Mekinje,,Mekinje,Kamnik,1241,Kamnik,Osrednjeslovenska
1241 KAMNIK,NOVI TRG 26,46.22139,14.61328,Novi trg,,26,,Kamnik,,Novi trg,Kamnik,1241,Kamnik,Osrednjeslovenska
1241 KAMNIK,NOVI TRG 26 A,46.22082,14.61321,Novi trg,,26,A,Kamnik,,Novi trg,Kamnik,1241,Kamnik,Osrednjeslovenska
1241 KAMNIK,NOVI TRG 43 A,46.21914,14.61117,Novi trg,,43,A,Kamnik,,Novi trg,Kamnik,1241,Kamnik,Osrednjeslovenska
1241 KAMNIK,ŠUTNA 7,46.22403,14.60998,Šutna,,7,,Kamnik,,Kamnik-Center,Kamnik,1241,Kamnik,Osrednjeslovenska
1251 MORAVČE,VEGOVA ULICA 22,46.13743,14.74729,Vegova ulica,,22,,Moravče,,Moravče,Moravče,1251,Moravče,Osrednjeslovenska
1260 LJUBLJANA - POLJE,CHENGDUJSKA CESTA 45,46.05254,14.57167,Chengdujska cesta,,45,,Ljubljana,,Četrtna skupnost Moste,Ljubljana,1260,Ljubljana - Polje,Osrednjeslovenska
1260 LJUBLJANA - POLJE,KAŠELJSKA CESTA 59 A,46.05314,14.61107,Kašeljska cesta,,59,A,Ljubljana,,Četrtna skupnost Polje,Ljubljana,1260,Ljubljana - Polje,Osrednjeslovenska
1260 LJUBLJANA - POLJE,SNEBERSKA CESTA 128 B,46.07327,14.58924,Sneberska cesta,,128,B,Ljubljana,,Četrtna skupnost Polje,Ljubljana,1260,Ljubljana - Polje,Osrednjeslovenska
1260 LJUBLJANA - POLJE,ZADOBROVŠKA CESTA 18 A,46.05719,14.58402,Zadobrovška cesta,,18,A,Ljubljana,,Četrtna skupnost Polje,Ljubljana,1260,Ljubljana - Polje,Osrednjeslovenska
1262 DOL PRI LJUBLJANI,DOLSKO 55,46.09385,14.67776,Dolsko,,55,,Dolsko,,Dolsko,Dol pri Ljubljani,1262,Dol pri Ljubljani,Osrednjeslovenska
1262 DOL PRI LJUBLJANI,VIDEM 17,46.08670,14.63413,Videm,,17,,Videm,,Dol,Dol pri Ljubljani,1262,Dol pri Ljubljani,Osrednjeslovenska
1262 DOL PRI LJUBLJANI,VIDEM 17 C,46.08608,14.63269,Videm,,17,C,Videm,,Dol,Dol pri Ljubljani,1262,Dol pri Ljubljani,Osrednjeslovenska
1262 DOL PRI LJUBLJANI,VIDEM 54,46.08827,14.63948,Videm,,54,,Videm,,Dol,Dol pri Ljubljani,1262,Dol pri Ljubljani,Osrednjeslovenska
1270 LITIJA,PARTIZANSKA POT 8 A,46.05389,14.83656,Partizanska pot,,8,A,Litija,,Mestna skupnost Litija,Litija,1270,Litija,Zasavska
1270 LITIJA,PONOVIŠKA CESTA 6,46.05833,14.82866,Ponoviška cesta,,6,,Litija,,Mestna skupnost Litija,Litija,1270,Litija,Zasavska
1270 LITIJA,ULICA MIRE PREGLJEVE 1,46.05791,14.83210,Ulica Mire Pregljeve,,1,,Litija,,Mestna skupnost Litija,Litija,1270,Litija,Zasavska
1270 LITIJA,ZASAVSKA CESTA 3,46.05899,14.83352,Zasavska cesta,,3,,Litija,,Mestna skupnost Litija,Litija,1270,Litija,Zasavska
1275 ŠMARTNO PRI LITIJI,ČRNI POTOK 13,46.02553,14.83927,Črni Potok,,13,,Črni Potok,,Krajevna skupnost Vintarjevec,Šmartno pri Litiji,1275,Šmartno pri Litiji,Osrednjeslovenska
1290 GROSUPLJE,ADAMIČEVA CESTA 24 B,45.95652,14.65972,Adamičeva cesta,,24,B,Grosuplje,,Grosuplje,Grosuplje,1290,Grosuplje,Osrednjeslovenska
1290 GROSUPLJE,ADAMIČEVA CESTA 41 B,45.95673,14.66126,Adamičeva cesta,,41,B,Grosuplje,,Grosuplje,Grosuplje,1290,Grosuplje,Osrednjeslovenska
1290 GROSUPLJE,OB GROSUPELJŠČICI 28,45.96309,14.66212,Ob Grosupeljščici,,28,,Grosuplje,,Grosuplje,Grosuplje,1290,Grosuplje,Osrednjeslovenska
1290 GROSUPLJE,POD GOZDOM CESTA I 14,45.95943,14.65315,Pod gozdom cesta I,,14,,Grosuplje,,Grosuplje,Grosuplje,1290,Grosuplje,Osrednjeslovenska
1291 ŠKOFLJICA,DOLENJSKA CESTA 324 A,46.00139,14.55416,Dolenjska cesta,,324,A,Lavrica,,Lavrica,Škofljica,1291,Škofljica,Osrednjeslovenska
1291 ŠKOFLJICA,HRIBI 4,45.98755,14.57140,Hribi,,4,,Škofljica,,Škofljica,Škofljica,1291,Škofljica,Osrednjeslovenska
1291 ŠKOFLJICA,KOČEVSKA CESTA 25,45.98069,14.57676,Kočevska cesta,,25,,Škofljica,,Škofljica,Škofljica,1291,Škofljica,Osrednjeslovenska
1292 IG,BANIJA 4,45.95897,14.52720,Banija,,4,,Ig,,,Ig,1292,Ig,Osrednjeslovenska
1292 IG,DRAGA 1,45.94726,14.54796,Draga,,1,,Draga,,,Ig,1292,Ig,Osrednjeslovenska
1292 IG,PODGOZD 60,45.93073,14.53700,Podgozd,,60,,Podgozd,,,Ig,1292,Ig,Osrednjeslovenska
1294 VIŠNJA GORA,DEDNI DOL 33,45.96300,14.73778,Dedni Dol,,33,,Dedni Dol,,Višnja Gora,Ivančna Gorica,1294,Višnja Gora,Osrednjeslovenska
1295 IVANČNA GORICA,CESTA 2. GRUPE ODREDOV 16,45.93759,14.80558,Cesta 2. grupe odredov,,16,,Ivančna Gorica,,Ivančna Gorica,Ivančna Gorica,1295,Ivančna Gorica,Osrednjeslovenska
1295 IVANČNA GORICA,LJUBLJANSKA CESTA 16,45.93883,14.80347,Ljubljanska cesta,,16,,Ivančna Gorica,,Ivančna Gorica,Ivančna Gorica,1295,Ivančna Gorica,Osrednjeslovenska
1295 IVANČNA GORICA,SOKOLSKA ULICA 5,45.93826,14.80470,Sokolska ulica,,5,,Ivančna Gorica,,Ivančna Gorica,Ivančna Gorica,1295,Ivančna Gorica,Osrednjeslovenska
1296 ŠENTVID PRI STIČNI,RADOHOVA VAS 4,45.94397,14.87305,Radohova vas,,4,,Radohova vas,,Šentvid pri Stični,Ivančna Gorica,1296,Šentvid pri Stični,Osrednjeslovenska
1296 ŠENTVID PRI STIČNI,ŠENTVID PRI STIČNI 177,45.95086,14.83997,Šentvid pri Stični,,177,,Šentvid pri Stični,,Šentvid pri Stični,Ivančna Gorica,1296,Šentvid pri Stični,Osrednjeslovenska
1296 ŠENTVID PRI STIČNI,ŠENTVID PRI STIČNI 44,45.95403,14.83559,Šentvid pri Stični,,44,,Šentvid pri Stični,,Šentvid pri Stični,Ivančna Gorica,1296,Šentvid pri Stični,Osrednjeslovenska
1310 RIBNICA,KROŠNJARSKA POT 2,45.74333,14.72511,Krošnjarska pot,,2,,Ribnica,,Ribnica,Ribnica,1310,Ribnica,Jugovzhodna Slovenija
1310 RIBNICA,MAJNIKOVA ULICA 1,45.74238,14.72596,Majnikova ulica,,1,,Ribnica,,Ribnica,Ribnica,1310,Ribnica,Jugovzhodna Slovenija
1311 TURJAK,LAPORJE 30,45.87088,14.61679,Laporje,,30,,Laporje,,,Velike Lašče,1311,Turjak,Osrednjeslovenska
1311 TURJAK,VELIKI LOČNIK 35,45.90266,14.59821,Veliki Ločnik,,35,,Veliki Ločnik,,,Velike Lašče,1311,Turjak,Osrednjeslovenska
1312 VIDEM - DOBREPOLJE,PONIKVE 76,45.85607,14.64595,Ponikve,,76,,Ponikve,,Ponikve,Dobrepolje,1312,Videm - Dobrepolje,Osrednjeslovenska
1312 VIDEM - DOBREPOLJE,VIDEM 33 A,45.84861,14.69242,Videm,,33,A,Videm,,Videm,Dobrepolje,1312,Videm - Dobrepolje,Osrednjeslovenska
1312 VIDEM - DOBREPOLJE,VIDEM 37 A,45.84819,14.69546,Videm,,37,A,Videm,,Videm,Dobrepolje,1312,Videm - Dobrepolje,Osrednjeslovenska
1314 ROB,SEKIRIŠČE 8,45.86282,14.53744,Sekirišče,,8,,Sekirišče,,,Velike Lašče,1314,Rob,Osrednjeslovenska
1315 VELIKE LAŠČE,JAVORŠKOVA ULICA 9,45.83502,14.63767,Javorškova ulica,,9,,Velike Lašče,,,Velike Lašče,1315,Velike Lašče,Osrednjeslovenska
1330 KOČEVJE,KEKČEVA ULICA 3,45.64144,14.85424,Kekčeva ulica,,3,,Kočevje,,Kočevje-mesto,Kočevje,1330,Kočevje,Jugovzhodna Slovenija
1330 KOČEVJE,LJUBLJANSKA CESTA 19,45.64149,14.85688,Ljubljanska cesta,,19,,Kočevje,,Kočevje-mesto,Kočevje,1330,Kočevje,Jugovzhodna Slovenija
1330 KOČEVJE,ROŠKA CESTA 16,45.63880,14.86553,Roška cesta,,16,,Kočevje,,Kočevje-mesto,Kočevje,1330,Kočevje,Jugovzhodna Slovenija
1330 KOČEVJE,ROŠKA CESTA 17,45.63932,14.86400,Roška cesta,,17,,Kočevje,,Kočevje-mesto,Kočevje,1330,Kočevje,Jugovzhodna Slovenija
1330 KOČEVJE,ROŠKA CESTA 18,45.63938,14.86562,Roška cesta,,18,,Kočevje,,Kočevje-mesto,Kočevje,1330,Kočevje,Jugovzhodna Slovenija
1330 KOČEVJE,ROŠKA CESTA 22,45.64005,14.86716,Roška cesta,,22,,Kočevje,,Kočevje-mesto,Kočevje,1330,Kočevje,Jugovzhodna Slovenija
1351 BREZOVICA PRI LJUBLJANI,NOVA POT 5,46.00970,14.41547,Nova pot,,5,,Vnanje Gorice,,Vnanje Gorice,Brezovica,1351,Brezovica pri Ljubljani,Osrednjeslovenska
1351 BREZOVICA PRI LJUBLJANI,PODPEŠKA CESTA 14,46.02162,14.41607,Podpeška cesta,,14,,Brezovica pri Ljubljani,,Brezovica,Brezovica,1351,Brezovica pri Ljubljani,Osrednjeslovenska
1351 BREZOVICA PRI LJUBLJANI,PODPEŠKA CESTA 208,46.00242,14.41325,Podpeška cesta,,208,,Vnanje Gorice,,Vnanje Gorice,Brezovica,1351,Brezovica pri Ljubljani,Osrednjeslovenska
1352 PRESERJE,DOLENJA BREZOVICA 11,45.94773,14.42655,Dolenja Brezovica,,11,,Dolenja Brezovica,,Preserje,Brezovica,1352,Preserje,Osrednjeslovenska
1352 PRESERJE,JEZERO 1,45.97634,14.41959,Jezero,,1,,Jezero,,Preserje,Brezovica,1352,Preserje,Osrednjeslovenska
1352 PRESERJE,RAKITNA 96,45.89044,14.44624,Rakitna,,96,,Rakitna,,Rakitna,Brezovica,1352,Preserje,Osrednjeslovenska
1353 BOROVNICA,MEJAČEVA ULICA 3,45.91998,14.36563,Mejačeva ulica,,3,,Borovnica,,,Borovnica,1353,Borovnica,Osrednjeslovenska
1354 HORJUL,SLOVENSKA CESTA 17,46.02461,14.29536,Slovenska cesta,,17,,Horjul,,,Horjul,1354,Horjul,Osrednjeslovenska
1354 HORJUL,ŠENTJOŠT NAD HORJULOM 49 A,46.03859,14.22049,Šentjošt nad Horjulom,,49,A,Šentjošt nad Horjulom,,Šentjošt,Dobrova-Polhov Gradec,1354,Horjul,Osrednjeslovenska
1355 POLHOV GRADEC,BRIŠE PRI POLHOVEM GRADCU 1,46.05864,14.30332,Briše pri Polhovem Gradcu,,1,,Briše pri Polhovem Gradcu,,Polhov Gradec,Dobrova-Polhov Gradec,1355,Polhov Gradec,Osrednjeslovenska
1355 POLHOV GRADEC,PODREBER 12 C,46.06336,14.32001,Podreber,,12,C,Podreber,,Polhov Gradec,Dobrova-Polhov Gradec,1355,Polhov Gradec,Osrednjeslovenska
1355 POLHOV GRADEC,POLHOV GRADEC 13,46.06521,14.31457,Polhov Gradec,,13,,Polhov Gradec,,Polhov Gradec,Dobrova-Polhov Gradec,1355,Polhov Gradec,Osrednjeslovenska
1355 POLHOV GRADEC,PRAPROČE 3,46.05929,14.29500,Praproče,,3,,Praproče,,Polhov Gradec,Dobrova-Polhov Gradec,1355,Polhov Gradec,Osrednjeslovenska
1356 DOBROVA,BREZJE PRI DOBROVI 11,46.02784,14.34540,Brezje pri Dobrovi,,11,,Brezje pri Dobrovi,,Dobrova,Dobrova-Polhov Gradec,1356,Dobrova,Osrednjeslovenska
1356 DOBROVA,POLHOGRAJSKA CESTA 37,46.05477,14.41679,Polhograjska cesta,,37,,Dobrova,,Dobrova,Dobrova-Polhov Gradec,1356,Dobrova,Osrednjeslovenska
1356 DOBROVA,STRANSKA VAS 15,46.06359,14.42249,Stranska vas,,15,,Stranska vas,,Dobrova,Dobrova-Polhov Gradec,1356,Dobrova,Osrednjeslovenska
1356 DOBROVA,ULICA VLADIMIRJA DOLNIČARJA 11,46.05355,14.41726,Ulica Vladimirja Dolničarja,,11,,Dobrova,,Dobrova,Dobrova-Polhov Gradec,1356,Dobrova,Osrednjeslovenska
1357 NOTRANJE GORICE,GMAJNA 7,45.99556,14.40795,Gmajna,,7,,Notranje Gorice,,Notranje Gorice,Brezovica,1357,Notranje Gorice,Osrednjeslovenska
1357 NOTRANJE GORICE,PODPEŠKA CESTA 380,45.98948,14.40273,Podpeška cesta,,380,,Notranje Gorice,,Notranje Gorice,Brezovica,1357,Notranje Gorice,Osrednjeslovenska
1357 NOTRANJE GORICE,ZA MOSTIČKOM 14,45.99636,14.40920,Za mostičkom,,14,,Notranje Gorice,,Notranje Gorice,Brezovica,1357,Notranje Gorice,Osrednjeslovenska
1358 LOG PRI BREZOVICI,CESTA NA POLJE 2,46.00732,14.35305,Cesta na polje,,2,,Log pri Brezovici,,,Log-Dragomer,1358,Log pri Brezovici,Osrednjeslovenska
1360 VRHNIKA,BRIGADIRSKA CESTA 16,45.96273,14.30258,Brigadirska cesta,,16,,Verd,,Verd,Vrhnika,1360,Vrhnika,Osrednjeslovenska
1360 VRHNIKA,CESTA 6. MAJA 11,45.96278,14.29358,Cesta 6. maja,,11,,Vrhnika,,Vrhnika Center,Vrhnika,1360,Vrhnika,Osrednjeslovenska
1360 VRHNIKA,IDRIJSKA CESTA 13,45.96364,14.28875,Idrijska cesta,,13,,Vrhnika,,Vrhnika Vas,Vrhnika,1360,Vrhnika,Osrednjeslovenska
1360 VRHNIKA,MED VRTOVI 8,45.96540,14.28766,Med vrtovi,,8,,Vrhnika,,Vrhnika Vas,Vrhnika,1360,Vrhnika,Osrednjeslovenska
1360 VRHNIKA,NA KLANCU 22,45.96633,14.29340,Na klancu,,22,,Vrhnika,,Vrhnika Vas,Vrhnika,1360,Vrhnika,Osrednjeslovenska
1360 VRHNIKA,POD HRUŠEVCO 33,45.97336,14.29506,Pod Hruševco,,33,,Vrhnika,,Vrhnika Breg,Vrhnika,1360,Vrhnika,Osrednjeslovenska
1360 VRHNIKA,ROBOVA CESTA 6,45.96751,14.29722,Robova cesta,,6,,Vrhnika,,Vrhnika Breg,Vrhnika,1360,Vrhnika,Osrednjeslovenska
1360 VRHNIKA,SINJA GORICA 7,45.97963,14.31058,Sinja Gorica,,7,,Sinja Gorica,,Sinja Gorica,Vrhnika,1360,Vrhnika,Osrednjeslovenska
1360 VRHNIKA,STARA VRHNIKA 31,45.97727,14.28382,Stara Vrhnika,,31,,Stara Vrhnika,,Stara Vrhnika,Vrhnika,1360,Vrhnika,Osrednjeslovenska
1370 LOGATEC,GUBČEVA ULICA 1,45.91689,14.21786,Gubčeva ulica,,1,,Logatec,,Naklo,Logatec,1370,Logatec,Osrednjeslovenska
1370 LOGATEC,GUBČEVA ULICA 8 A,45.91896,14.21734,Gubčeva ulica,,8,A,Logatec,,Naklo,Logatec,1370,Logatec,Osrednjeslovenska
1370 LOGATEC,NOTRANJSKA CESTA 2,45.91681,14.22768,Notranjska cesta,,2,,Logatec,,Naklo,Logatec,1370,Logatec,Osrednjeslovenska
1370 LOGATEC,PARTIZANSKA ULICA 8 A,45.91832,14.22152,Partizanska ulica,,8,A,Logatec,,Naklo,Logatec,1370,Logatec,Osrednjeslovenska
1370 LOGATEC,ŠOLSKA POT 1,45.91693,14.22877,Šolska pot,,1,,Logatec,,Naklo,Logatec,1370,Logatec,Osrednjeslovenska
1380 CERKNICA,CESTA 4. MAJA 17,45.79122,14.36578,Cesta 4. maja,,17,,Cerknica,,Cerknica,Cerknica,1380,Cerknica,Primorsko-notranjska
1380 CERKNICA,CESTA POD SLIVNICO 21,45.79663,14.36783,Cesta pod Slivnico,,21,,Cerknica,,Cerknica,Cerknica,1380,Cerknica,Primorsko-notranjska
1386 STARI TRG PRI LOŽU,CESTA NOTRANJSKEGA ODREDA 36,45.71325,14.47221,Cesta Notranjskega odreda,,36,,Stari trg pri Ložu,,,Loška dolina,1386,Stari trg pri Ložu,Primorsko-notranjska
1410 ZAGORJE OB SAVI,CESTA 9. AVGUSTA 59 C,46.13569,15.00237,Cesta 9. avgusta,,59,C,Zagorje ob Savi,,Franc Farčnik,Zagorje ob Savi,1410,Zagorje ob Savi,Zasavska
1410 ZAGORJE OB SAVI,CESTA 9. AVGUSTA 8 B,46.13429,14.99599,Cesta 9. avgusta,,8,B,Zagorje ob Savi,,Jože Marn,Zagorje ob Savi,1410,Zagorje ob Savi,Zasavska
1410 ZAGORJE OB SAVI,CESTA ZMAGE 1,46.13384,14.99570,Cesta zmage,,1,,Zagorje ob Savi,,Jože Marn,Zagorje ob Savi,1410,Zagorje ob Savi,Zasavska
1410 ZAGORJE OB SAVI,MARNOVA ULICA 31 A,46.12735,14.99425,Marnova ulica,,31,A,Zagorje ob Savi,,Jože Marn,Zagorje ob Savi,1410,Zagorje ob Savi,Zasavska
1411 IZLAKE,IZLAKE 13,46.15540,14.92923,Izlake,,13,,Izlake,,Izlake,Zagorje ob Savi,1411,Izlake,Zasavska
1411 IZLAKE,PODLIPOVICA 43,46.16391,14.90922,Podlipovica,,43,,Podlipovica,,Izlake,Zagorje ob Savi,1411,Izlake,Zasavska
1420 TRBOVLJE,KOLONIJA 1. MAJA 21,46.15019,15.05220,Kolonija 1. maja,,21,,Trbovlje,,Fric Keršič,Trbovlje,1420,Trbovlje,Zasavska
1420 TRBOVLJE,OBRTNIŠKA CESTA 29,46.15872,15.05307,Obrtniška cesta,,29,,Trbovlje,,Franc Fakin,Trbovlje,1420,Trbovlje,Zasavska
1420 TRBOVLJE,OPEKARNA 1,46.14717,15.04335,Opekarna,,1,,Trbovlje,,Trbovlje - center,Trbovlje,1420,Trbovlje,Zasavska
1420 TRBOVLJE,RUDARSKA CESTA 12,46.15510,15.04796,Rudarska cesta,,12,,Trbovlje,,Trbovlje - center,Trbovlje,1420,Trbovlje,Zasavska
1420 TRBOVLJE,RUDARSKA CESTA 9,46.15398,15.04710,Rudarska cesta,,9,,Trbovlje,,Trbovlje - center,Trbovlje,1420,Trbovlje,Zasavska
1430 HRASTNIK,CESTA ADAMA DUŠAKA 6,46.14922,15.08593,Cesta Adama Dušaka,,6,,Hrastnik,,Rudnik,Hrastnik,1430,Hrastnik,Zasavska
1430 HRASTNIK,NOVI DOM 11,46.14030,15.08513,Novi dom,,11,,Hrastnik,,Rudnik,Hrastnik,1430,Hrastnik,Zasavska
1430 HRASTNIK,NOVI LOG 4 A,46.14167,15.08217,Novi log,,4,A,Hrastnik,,Rudnik,Hrastnik,1430,Hrastnik,Zasavska
1431 DOL PRI HRASTNIKU,TRG BORCEV NOB 13,46.14123,15.11613,Trg borcev NOB,,13,,Dol pri Hrastniku,,Dol pri Hrastniku,Hrastnik,1431,Dol pri Hrastniku,Zasavska
1433 RADEČE,ULICA OF 8,46.06587,15.18065,Ulica OF,,8,,Radeče,,Radeče,Radeče,1433,Radeče,Posavska
1434 LOKA PRI ZIDANEM MOSTU,LOKA PRI ZIDANEM MOSTU 48,46.05586,15.20767,Loka pri Zidanem Mostu,,48,,Loka pri Zidanem Mostu,,Loka pri Zidanem Mostu,Sevnica,1434,Loka pri Zidanem Mostu,Posavska
2000 MARIBOR,AŠKERČEVA ULICA 7,46.56465,15.65189,Aškerčeva ulica,,7,,Maribor,,Ivan Cankar,Maribor,2000,Maribor,Podravska
2000 MARIBOR,BETETTOVA ULICA 11,46.54059,15.63068,Betettova ulica,,11,,Maribor,,Nova vas,Maribor,2000,Maribor,Podravska
2000 MARIBOR,BETNAVSKA CESTA 13,46.54967,15.64086,Betnavska cesta,,13,,Maribor,,Magdalena,Maribor,2000,Maribor,Podravska
2000 MARIBOR,BORŠTNIKOVA ULICA 79,46.53511,15.62851,Borštnikova ulica,,79,,Maribor,,Radvanje,Maribor,2000,Maribor,Podravska
2000 MARIBOR,BORŠTNIKOVA ULICA 83,46.53525,15.62858,Borštnikova ulica,,83,,Maribor,,Radvanje,Maribor,2000,Maribor,Podravska
2000 MARIBOR,CAFOVA ULICA 4,46.56132,15.65551,Cafova ulica,,4,,Maribor,,Ivan Cankar,Maribor,2000,Maribor,Podravska
2000 MARIBOR,CANKARJEVA ULICA 23 A,46.56374,15.65253,Cankarjeva ulica,,23,A,Maribor,,Ivan Cankar,Maribor,2000,Maribor,Podravska
2000 MARIBOR,CANKARJEVA ULICA 6,46.56124,15.65334,Cankarjeva ulica,,6,,Maribor,,Ivan Cankar,Maribor,2000,Maribor,Podravska
2000 MARIBOR,CANKARJEVA ULICA 6 D,46.56117,15.65419,Cankarjeva ulica,,6,D,Maribor,,Ivan Cankar,Maribor,2000,Maribor,Podravska
2000 MARIBOR,CESTA OSVOBODILNE FRONTE 43,46.54995,15.66864,Cesta Osvobodilne fronte,,43,,Maribor,,Pobrežje,Maribor,2000,Maribor,Podravska
2000 MARIBOR,CESTA OSVOBODILNE FRONTE 44,46.54946,15.66849,Cesta Osvobodilne fronte,,44,,Maribor,,Pobrežje,Maribor,2000,Maribor,Podravska
2000 MARIBOR,CESTA PROLETARSKIH BRIGAD 79,46.54401,15.62699,Cesta proletarskih brigad,,79,,Maribor,,Nova vas,Maribor,2000,Maribor,Podravska
2000 MARIBOR,CESTA XIV. DIVIZIJE 30,46.55159,15.66267,Cesta XIV. divizije,,30,,Maribor,,Pobrežje,Maribor,2000,Maribor,Podravska
2000 MARIBOR,DVOŘAKOVA ULICA 10,46.55362,15.64424,Dvořakova ulica,,10,,Maribor,,Magdalena,Maribor,2000,Maribor,Podravska
2000 MARIBOR,GLAVNI TRG 4,46.55729,15.64522,Glavni trg,,4,,Maribor,,Center,Maribor,2000,Maribor,Podravska
2000 MARIBOR,GORKEGA ULICA 18,46.55341,15.64215,Gorkega ulica,,18,,Maribor,,Magdalena,Maribor,2000,Maribor,Podravska
2000 MARIBOR,GOSPEJNA ULICA 11,46.55957,15.64234,Gospejna ulica,,11,,Maribor,,Center,Maribor,2000,Maribor,Podravska
2000 MARIBOR,GOSPOSVETSKA CESTA 41,46.56126,15.63472,Gosposvetska cesta,,41,,Maribor,,Koroška vrata,Maribor,2000,Maribor,Podravska
2000 MARIBOR,HRENOVA ULICA 6,46.55432,15.62367,Hrenova ulica,,6,,Maribor,,Studenci,Maribor,2000,Maribor,Podravska
2000 MARIBOR,ISTRSKA ULICA 60,46.54753,15.67320,Istrska ulica,,60,,Maribor,,Pobrežje,Maribor,2000,Maribor,Podravska
2000 MARIBOR,JEZDARSKA ULICA 2,46.55118,15.64129,Jezdarska ulica,,2,,Maribor,,Magdalena,Maribor,2000,Maribor,Podravska
2000 MARIBOR,JEZDARSKA ULICA 7,46.55122,15.64209,Jezdarska ulica,,7,,Maribor,,Magdalena,Maribor,2000,Maribor,Podravska
2000 MARIBOR,KALOHOVA ULICA 18,46.55507,15.61747,Kalohova ulica,,18,,Maribor,,Studenci,Maribor,2000,Maribor,Podravska
2000 MARIBOR,KARDELJEVA CESTA 76,46.54170,15.63274,Kardeljeva cesta,,76,,Maribor,,Nova vas,Maribor,2000,Maribor,Podravska
2000 MARIBOR,KARDELJEVA CESTA 84,46.54116,15.63252,Kardeljeva cesta,,84,,Maribor,,Nova vas,Maribor,2000,Maribor,Podravska
2000 MARIBOR,KETTEJEVA ULICA 14,46.54801,15.63859,Kettejeva ulica,,14,,Maribor,,Tabor,Maribor,2000,Maribor,Podravska
2000 MARIBOR,KNAFELČEVA ULICA 31,46.53891,15.63321,Knafelčeva ulica,,31,,Maribor,,Nova vas,Maribor,2000,Maribor,Podravska
2000 MARIBOR,KOPITARJEVA ULICA 2,46.56326,15.65746,Kopitarjeva ulica,,2,,Maribor,,Ivan Cankar,Maribor,2000,Maribor,Podravska
2000 MARIBOR,KOROŠKA CESTA 113 C,46.56093,15.62844,Koroška cesta,,113,C,Maribor,,Koroška vrata,Maribor,2000,Maribor,Podravska
2000 MARIBOR,KOROŠKA CESTA 172,46.56600,15.62319,Koroška cesta,,172,,Maribor,,Koroška vrata,Maribor,2000,Maribor,Podravska
2000 MARIBOR,KOROŠKA CESTA 52,46.55910,15.63717,Koroška cesta,,52,,Maribor,,Koroška vrata,Maribor,2000,Maribor,Podravska
2000 MARIBOR,KOSOVA ULICA 9,46.54104,15.59950,Kosova ulica,,9,,Maribor,,Radvanje,Maribor,2000,Maribor,Podravska
2000 MARIBOR,KREKOVA ULICA 14 A,46.56236,15.64548,Krekova ulica,,14,A,Maribor,,Center,Maribor,2000,Maribor,Podravska
2000 MARIBOR,KREKOVA ULICA 5,46.56182,15.64708,Krekova ulica,,5,,Maribor,,Center,Maribor,2000,Maribor,Podravska
2000 MARIBOR,KRPANOVA ULICA 19,46.55582,15.62276,Krpanova ulica,,19,,Maribor,,Studenci,Maribor,2000,Maribor,Podravska
2000 MARIBOR,LAVRIČEVA ULICA 1,46.55817,15.63600,Lavričeva ulica,,1,,Maribor,,Koroška vrata,Maribor,2000,Maribor,Podravska
2000 MARIBOR,LAVRIČEVA ULICA 1 A,46.55814,15.63578,Lavričeva ulica,,1,A,Maribor,,Koroška vrata,Maribor,2000,Maribor,Podravska
2000 MARIBOR,LEONA ZALAZNIKA ULICA 35,46.57719,15.66905,Leona Zalaznika ulica,,35,,Maribor,,Ivan Cankar,Maribor,2000,Maribor,Podravska
2000 MARIBOR,LJUBLJANSKA ULICA 5,46.55289,15.64858,Ljubljanska ulica,,5,,Maribor,,Magdalena,Maribor,2000,Maribor,Podravska
2000 MARIBOR,LJUBLJANSKA ULICA 9,46.55337,15.64665,Ljubljanska ulica,,9,,Maribor,,Magdalena,Maribor,2000,Maribor,Podravska
2000 MARIBOR,MAGDALENSKI TRG 7,46.55409,15.64675,Magdalenski trg,,7,,Maribor,,Magdalena,Maribor,2000,Maribor,Podravska
2000 MARIBOR,MASARYKOVA ULICA 26,46.55161,15.64827,Masarykova ulica,,26,,Maribor,,Magdalena,Maribor,2000,Maribor,Podravska
2000 MARIBOR,MEJNA ULICA 6,46.55388,15.65783,Mejna ulica,,6,,Maribor,,Pobrežje,Maribor,2000,Maribor,Podravska
2000 MARIBOR,MELJSKI DOL 36,46.57005,15.66523,Meljski dol,,36,,Maribor,,Center,Maribor,2000,Maribor,Podravska
2000 MARIBOR,METELKOVA ULICA 48,46.54221,15.64158,Metelkova ulica,,48,,Maribor,,Tabor,Maribor,2000,Maribor,Podravska
2000 MARIBOR,MINAŘIKOVA ULICA 6,46.53211,15.66589,Minařikova ulica,,6,,Maribor,,Tezno,Maribor,2000,Maribor,Podravska
2000 MARIBOR,MLADINSKA ULICA 54,46.56505,15.63517,Mladinska ulica,,54,,Maribor,,Koroška vrata,Maribor,2000,Maribor,Podravska
2000 MARIBOR,NA SOSESKI 14,46.53872,15.63408,Na soseski,,14,,Maribor,,Nova vas,Maribor,2000,Maribor,Podravska
2000 MARIBOR,NA TRATI 2,46.53586,15.68739,Na trati,,2,,Maribor,,Brezje-Dogoše-Zrkovci,Maribor,2000,Maribor,Podravska
2000 MARIBOR,OB GOZDU 21,46.54720,15.65998,Ob gozdu,,21,,Maribor,,Pobrežje,Maribor,2000,Maribor,Podravska
2000 MARIBOR,OBLAKOVA ULICA 4,46.54231,15.63117,Oblakova ulica,,4,,Maribor,,Nova vas,Maribor,2000,Maribor,Podravska
2000 MARIBOR,PANONSKA ULICA 41,46.52555,15.67945,Panonska ulica,,41,,Maribor,,Tezno,Maribor,2000,Maribor,Podravska
2000 MARIBOR,PARK MLADIH 4,46.54607,15.64304,Park mladih,,4,,Maribor,,Tabor,Maribor,2000,Maribor,Podravska
2000 MARIBOR,PARTIZANSKA CESTA 49,46.56252,15.65721,Partizanska cesta,,49,,Maribor,,Ivan Cankar,Maribor,2000,Maribor,Podravska
2000 MARIBOR,PARTIZANSKA CESTA 59,46.56358,15.65790,Partizanska cesta,,59,,Maribor,,Ivan Cankar,Maribor,2000,Maribor,Podravska
2000 MARIBOR,PEKRSKA CESTA 56,46.55488,15.61140,Pekrska cesta,,56,,Maribor,,Studenci,Maribor,2000,Maribor,Podravska
2000 MARIBOR,POBREŠKA CESTA 18,46.55397,15.65315,Pobreška cesta,,18,,Maribor,,Magdalena,Maribor,2000,Maribor,Podravska
2000 MARIBOR,POBREŠKA CESTA 6,46.55441,15.64665,Pobreška cesta,,6,,Maribor,,Magdalena,Maribor,2000,Maribor,Podravska
2000 MARIBOR,POHORSKA ULICA 21 B,46.53831,15.60509,Pohorska ulica,,21,B,Maribor,,Radvanje,Maribor,2000,Maribor,Podravska
2000 MARIBOR,PRVOMAJSKA ULICA 1,46.53682,15.65983,Prvomajska ulica,,1,,Maribor,,Tezno,Maribor,2000,Maribor,Podravska
2000 MARIBOR,PRVOMAJSKA ULICA 25,46.53329,15.66758,Prvomajska ulica,,25,,Maribor,,Tezno,Maribor,2000,Maribor,Podravska
2000 MARIBOR,PUPINOVA ULICA 2,46.55272,15.64503,Pupinova ulica,,2,,Maribor,,Magdalena,Maribor,2000,Maribor,Podravska
2000 MARIBOR,RADVANJSKA CESTA 134,46.53554,15.62451,Radvanjska cesta,,134,,Maribor,,Radvanje,Maribor,2000,Maribor,Podravska
2000 MARIBOR,RAZLAGOVA ULICA 24,46.56193,15.65446,Razlagova ulica,,24,,Maribor,,Ivan Cankar,Maribor,2000,Maribor,Podravska
2000 MARIBOR,RIBNIŠKA ULICA 5,46.56844,15.64870,Ribniška ulica,,5,,Maribor,,Center,Maribor,2000,Maribor,Podravska
2000 MARIBOR,SLOVENSKA ULICA 17,46.56015,15.64534,Slovenska ulica,,17,,Maribor,,Center,Maribor,2000,Maribor,Podravska
2000 MARIBOR,SLOVENSKA ULICA 33,46.56005,15.64318,Slovenska ulica,,33,,Maribor,,Center,Maribor,2000,Maribor,Podravska
2000 MARIBOR,STROSSMAYERJEVA ULICA 32 B,46.56277,15.64333,Strossmayerjeva ulica,,32,B,Maribor,,Center,Maribor,2000,Maribor,Podravska
2000 MARIBOR,TOLSTOJEVA ULICA 3,46.54793,15.67025,Tolstojeva ulica,,3,,Maribor,,Pobrežje,Maribor,2000,Maribor,Podravska
2000 MARIBOR,TOMŠIČEVA ULICA 23,46.56585,15.65337,Tomšičeva ulica,,23,,Maribor,,Ivan Cankar,Maribor,2000,Maribor,Podravska
2000 MARIBOR,TOMŠIČEVA ULICA 6,46.56540,15.65090,Tomšičeva ulica,,6,,Maribor,,Ivan Cankar,Maribor,2000,Maribor,Podravska
2000 MARIBOR,TRUBARJEVA ULICA 15,46.56466,15.64435,Trubarjeva ulica,,15,,Maribor,,Koroška vrata,Maribor,2000,Maribor,Podravska
2000 MARIBOR,ULICA BORCEV 1 B,46.53636,15.68832,Ulica borcev,,1,B,Maribor,,Brezje-Dogoše-Zrkovci,Maribor,2000,Maribor,Podravska
2000 MARIBOR,ULICA HEROJA BRAČIČA 6,46.55796,15.65023,Ulica heroja Bračiča,,6,,Maribor,,Center,Maribor,2000,Maribor,Podravska
2000 MARIBOR,ULICA HEROJA JEVTIČA 9,46.55912,15.66242,Ulica heroja Jevtiča,,9,,Maribor,,Center,Maribor,2000,Maribor,Podravska
2000 MARIBOR,ULICA HEROJA NANDETA 31,46.53267,15.67335,Ulica heroja Nandeta,,31,,Maribor,,Tezno,Maribor,2000,Maribor,Podravska
2000 MARIBOR,ULICA HEROJA NANDETA 37,46.53310,15.67376,Ulica heroja Nandeta,,37,,Maribor,,Tezno,Maribor,2000,Maribor,Podravska
2000 MARIBOR,ULICA KNEZA KOCLJA 11,46.55769,15.65032,Ulica kneza Koclja,,11,,Maribor,,Center,Maribor,2000,Maribor,Podravska
2000 MARIBOR,ULICA MOŠE PIJADA 21 B,46.55325,15.64301,Ulica Moše Pijada,,21,B,Maribor,,Magdalena,Maribor,2000,Maribor,Podravska
2000 MARIBOR,ULICA PARIŠKE KOMUNE 42,46.54732,15.64697,Ulica Pariške komune,,42,,Maribor,,Tabor,Maribor,2000,Maribor,Podravska
2000 MARIBOR,ULICA ROBERTA KUKOVCA 15,46.53491,15.62707,Ulica Roberta Kukovca,,15,,Maribor,,Radvanje,Maribor,2000,Maribor,Podravska
2000 MARIBOR,ULICA STANETA SEVERJA 7,46.53749,15.63301,Ulica Staneta Severja,,7,,Maribor,,Nova vas,Maribor,2000,Maribor,Podravska
2000 MARIBOR,ULICA TALCEV 25,46.55679,15.65152,Ulica talcev,,25,,Maribor,,Center,Maribor,2000,Maribor,Podravska
2000 MARIBOR,ULICA TALCEV 9,46.55933,15.65183,Ulica talcev,,9,,Maribor,,Center,Maribor,2000,Maribor,Podravska
2000 MARIBOR,VALVASORJEVA ULICA 38,46.55444,15.63680,Valvasorjeva ulica,,38,,Maribor,,Magdalena,Maribor,2000,Maribor,Podravska
2000 MARIBOR,VEZNA POT 1,46.57373,15.64297,Vezna pot,,1,,Ribniško selo,,Center,Maribor,2000,Maribor,Podravska
2000 MARIBOR,VINARSKA ULICA 6,46.56527,15.64339,Vinarska ulica,,6,,Maribor,,Koroška vrata,Maribor,2000,Maribor,Podravska
2000 MARIBOR,VRBANSKA CESTA 35,46.56527,15.63387,Vrbanska cesta,,35,,Maribor,,Koroška vrata,Maribor,2000,Maribor,Podravska
2000 MARIBOR,ZRKOVSKA CESTA 188 D,46.54943,15.68951,Zrkovska cesta,,188,D,Maribor,,Pobrežje,Maribor,2000,Maribor,Podravska
2000 MARIBOR,ZRKOVSKA CESTA 67,46.55598,15.67174,Zrkovska cesta,,67,,Maribor,,Pobrežje,Maribor,2000,Maribor,Podravska
2000 MARIBOR,ČUFARJEVA CESTA 9,46.55499,15.66939,Čufarjeva cesta,,9,,Maribor,,Pobrežje,Maribor,2000,Maribor,Podravska
2000 MARIBOR,ŠENTILJSKA CESTA 9,46.56690,15.65897,Šentiljska cesta,,9,,Maribor,,Ivan Cankar,Maribor,2000,Maribor,Podravska
2000 MARIBOR,ŽELEZNIKOVA ULICA 4,46.55037,15.66738,Železnikova ulica,,4,,Maribor,,Pobrežje,Maribor,2000,Maribor,Podravska
2000 MARIBOR,ŽIDOVSKA ULICA 2,46.55703,15.64754,Židovska ulica,,2,,Maribor,,Center,Maribor,2000,Maribor,Podravska
2000 MARIBOR,ŽOLGARJEVA ULICA 14,46.54949,15.64170,Žolgarjeva ulica,,14,,Maribor,,Magdalena,Maribor,2000,Maribor,Podravska
2000 MARIBOR,ŽOLGARJEVA ULICA 7,46.55030,15.64122,Žolgarjeva ulica,,7,,Maribor,,Magdalena,Maribor,2000,Maribor,Podravska
2201 ZGORNJA KUNGOTA,PLINTOVEC 7 B,46.63896,15.61566,Plintovec,,7,B,Plintovec,,Zgornja Kungota,Kungota,2201,Zgornja Kungota,Podravska
2201 ZGORNJA KUNGOTA,SVEČINA 3,46.67456,15.58636,Svečina,,3,,Svečina,,Svečina,Kungota,2201,Zgornja Kungota,Podravska
2204 MIKLAVŽ NA DRAVSKEM POLJU,PTUJSKA CESTA 110,46.50217,15.70260,Ptujska cesta,,110,,Miklavž na Dravskem polju,,Miklavž na Dravskem polju,Miklavž na Dravskem polju,2204,Miklavž na Dravskem polju,Podravska
2204 MIKLAVŽ NA DRAVSKEM POLJU,PTUJSKA CESTA 13,46.51263,15.69050,Ptujska cesta,,13,,Miklavž na Dravskem polju,,Miklavž na Dravskem polju,Miklavž na Dravskem polju,2204,Miklavž na Dravskem polju,Podravska
2204 MIKLAVŽ NA DRAVSKEM POLJU,PTUJSKA CESTA 17,46.51272,15.69091,Ptujska cesta,,17,,Miklavž na Dravskem polju,,Miklavž na Dravskem polju,Miklavž na Dravskem polju,2204,Miklavž na Dravskem polju,Podravska
2204 MIKLAVŽ NA DRAVSKEM POLJU,ULICA PLANINČEVIH 73,46.50204,15.70132,Ulica Planinčevih,,73,,Miklavž na Dravskem polju,,Miklavž na Dravskem polju,Miklavž na Dravskem polju,2204,Miklavž na Dravskem polju,Podravska
2211 PESNICA PRI MARIBORU,PESNICA PRI MARIBORU 42 C,46.60846,15.67654,Pesnica pri Mariboru,,42,C,Pesnica pri Mariboru,,Pesnica pri Mariboru,Pesnica,2211,Pesnica pri Mariboru,Podravska
2211 PESNICA PRI MARIBORU,PESNICA PRI MARIBORU 68,46.61828,15.66616,Pesnica pri Mariboru,,68,,Pesnica pri Mariboru,,Pesnica pri Mariboru,Pesnica,2211,Pesnica pri Mariboru,Podravska
2212 ŠENTILJ V SLOV. GORICAH,MLADINSKA ULICA 38,46.67417,15.66116,Mladinska ulica,,38,,Šentilj v Slov. goricah,,Šentilj,Šentilj,2212,Šentilj v Slov. goricah,Podravska
2212 ŠENTILJ V SLOV. GORICAH,POD HRIBOM 12,46.67974,15.65495,Pod hribom,,12,,Šentilj v Slov. goricah,,Šentilj,Šentilj,2212,Šentilj v Slov. goricah,Podravska
2212 ŠENTILJ V SLOV. GORICAH,POD HRIBOM 14,46.67994,15.65514,Pod hribom,,14,,Šentilj v Slov. goricah,,Šentilj,Šentilj,2212,Šentilj v Slov. goricah,Podravska
2214 SLADKI VRH,SLADKI VRH 5,46.69756,15.73680,Sladki Vrh,,5,,Sladki Vrh,,Sladki Vrh,Šentilj,2214,Sladki Vrh,Podravska
2221 JARENINA,VUKOVSKI DOL 30,46.62155,15.71991,Vukovski Dol,,30,,Vukovski Dol,,Jarenina,Pesnica,2221,Jarenina,Podravska
2229 MALEČNIK,MALEČNIK 14,46.55410,15.70257,Malečnik,,14,,Malečnik,,Malečnik-Ruperče,Maribor,2229,Malečnik,Podravska
2230 LENART V SLOV. GORICAH,GREGORČIČEVA ULICA 1,46.57373,15.83203,Gregorčičeva ulica,,1,,Lenart v Slov. goricah,,Lenart,Lenart,2230,Lenart v Slov. goricah,Podravska
2230 LENART V SLOV. GORICAH,GUBČEVA ULICA 5,46.57869,15.82838,Gubčeva ulica,,5,,Lenart v Slov. goricah,,Lenart,Lenart,2230,Lenart v Slov. goricah,Podravska
2230 LENART V SLOV. GORICAH,HRASTOVEC V SLOV. GORICAH 22,46.56511,15.78691,Hrastovec v Slov. goricah,,22,,Hrastovec v Slov. goricah,,Lenart,Lenart,2230,Lenart v Slov. goricah,Podravska
2230 LENART V SLOV. GORICAH,ILAUNIGOVA ULICA 15,46.57697,15.82809,Ilaunigova ulica,,15,,Lenart v Slov. goricah,,Lenart,Lenart,2230,Lenart v Slov. goricah,Podravska
2230 LENART V SLOV. GORICAH,MAISTROVA ULICA 22,46.57734,15.82896,Maistrova ulica,,22,,Lenart v Slov. goricah,,Lenart,Lenart,2230,Lenart v Slov. goricah,Podravska
2230 LENART V SLOV. GORICAH,RADEHOVA 5 C,46.56767,15.84591,Radehova,,5,C,Radehova,,Lenart,Lenart,2230,Lenart v Slov. goricah,Podravska
2233 SV. ANA V SLOV. GORICAH,KREMBERK 36 A,46.64786,15.84250,Kremberk,,36,A,Kremberk,,,Sveta Ana,2233,Sv. Ana v Slov. goricah,Podravska
2241 SPODNJI DUPLEK,CESTA 4. JULIJA 65,46.50187,15.75064,Cesta 4. julija,,65,,Spodnji Duplek,,Spodnji Duplek,Duplek,2241,Spodnji Duplek,Podravska
2241 SPODNJI DUPLEK,CESTA K DRAVI 8,46.50113,15.74875,Cesta k Dravi,,8,,Spodnji Duplek,,Spodnji Duplek,Duplek,2241,Spodnji Duplek,Podravska
2241 SPODNJI DUPLEK,KORENSKA CESTA 31,46.50402,15.75597,Korenska cesta,,31,,Spodnji Duplek,,Spodnji Duplek,Duplek,2241,Spodnji Duplek,Podravska
2241 SPODNJI DUPLEK,ZGORNJI DUPLEK 103 A,46.51524,15.72835,Zgornji Duplek,,103,A,Zgornji Duplek,,Zgornji Duplek,Duplek,2241,Spodnji Duplek,Podravska
2242 ZGORNJA KORENA,ŽIKARCE 1 A,46.52291,15.78266,Žikarce,,1,A,Žikarce,,Korena,Duplek,2242,Zgornja Korena,Podravska
2250 PTUJ,LANGUSOVA ULICA 8,46.43101,15.88301,Langusova ulica,,8,,Ptuj,,Četrt Ljudski vrt,Ptuj,2250,Ptuj,Podravska
2250 PTUJ,NA TRATAH 4,46.41683,15.87719,Na tratah,,4,,Ptuj,,Četrt Jezero,Ptuj,2250,Ptuj,Podravska
2250 PTUJ,OSOJNIKOVA CESTA 9,46.42061,15.87558,Osojnikova cesta,,9,,Ptuj,,Četrt Center,Ptuj,2250,Ptuj,Podravska
2250 PTUJ,PANONSKA ULICA 5,46.42388,15.87348,Panonska ulica,,5,,Ptuj,,Četrt Center,Ptuj,2250,Ptuj,Podravska
2250 PTUJ,POT V TOPLICE 9,46.42154,15.85575,Pot v toplice,,9,,Ptuj,,Četrt Breg-Turnišče,Ptuj,2250,Ptuj,Podravska
2250 PTUJ,POTRČEVA CESTA 15,46.42472,15.87653,Potrčeva cesta,,15,,Ptuj,,Četrt Center,Ptuj,2250,Ptuj,Podravska
2250 PTUJ,POTRČEVA CESTA 17,46.42485,15.87672,Potrčeva cesta,,17,,Ptuj,,Četrt Center,Ptuj,2250,Ptuj,Podravska
2250 PTUJ,POTRČEVA CESTA 19 A,46.42513,15.87566,Potrčeva cesta,,19,A,Ptuj,,Četrt Center,Ptuj,2250,Ptuj,Podravska
2250 PTUJ,POTRČEVA CESTA 23,46.42609,15.87709,Potrčeva cesta,,23,,Ptuj,,Četrt Center,Ptuj,2250,Ptuj,Podravska
2250 PTUJ,POTRČEVA CESTA 33,46.42660,15.87898,Potrčeva cesta,,33,,Ptuj,,Četrt Ljudski vrt,Ptuj,2250,Ptuj,Podravska
2250 PTUJ,POTRČEVA CESTA 4 A,46.42174,15.87383,Potrčeva cesta,,4,A,Ptuj,,Četrt Center,Ptuj,2250,Ptuj,Podravska
2250 PTUJ,POTRČEVA CESTA 49,46.42764,15.88104,Potrčeva cesta,,49,,Ptuj,,Četrt Ljudski vrt,Ptuj,2250,Ptuj,Podravska
2250 PTUJ,PUHOVA ULICA 9 A,46.41829,15.88530,Puhova ulica,,9,A,Ptuj,,Četrt Jezero,Ptuj,2250,Ptuj,Podravska
2250 PTUJ,RAJŠPOVA ULICA 16,46.41951,15.88151,Rajšpova ulica,,16,,Ptuj,,Četrt Jezero,Ptuj,2250,Ptuj,Podravska
2250 PTUJ,RAJŠPOVA ULICA 20,46.42031,15.88207,Rajšpova ulica,,20,,Ptuj,,Četrt Jezero,Ptuj,2250,Ptuj,Podravska
2250 PTUJ,ROGOZNIŠKA CESTA 32,46.42610,15.88611,Rogozniška cesta,,32,,Ptuj,,Četrt Jezero,Ptuj,2250,Ptuj,Podravska
2250 PTUJ,ROGOZNIŠKA CESTA 32 A,46.42600,15.88643,Rogozniška cesta,,32,A,Ptuj,,Četrt Jezero,Ptuj,2250,Ptuj,Podravska
2250 PTUJ,SLOVENSKOGORIŠKA CESTA 39,46.43302,15.88830,Slovenskogoriška cesta,,39,,Ptuj,,Četrt Rogoznica,Ptuj,2250,Ptuj,Podravska
2250 PTUJ,TRSTENJAKOVA ULICA 5,46.42110,15.87385,Trstenjakova ulica,,5,,Ptuj,,Četrt Center,Ptuj,2250,Ptuj,Podravska
2250 PTUJ,TRSTENJAKOVA ULICA 9,46.42049,15.87424,Trstenjakova ulica,,9,,Ptuj,,Četrt Center,Ptuj,2250,Ptuj,Podravska
2250 PTUJ,VOLKMERJEVA CESTA 10,46.42436,15.87378,Volkmerjeva cesta,,10,,Ptuj,,Četrt Center,Ptuj,2250,Ptuj,Podravska
2250 PTUJ,VOLKMERJEVA CESTA 63,46.43203,15.86728,Volkmerjeva cesta,,63,,Ptuj,,Četrt Ljudski vrt,Ptuj,2250,Ptuj,Podravska
2250 PTUJ,ŠPINDLERJEVA ULICA 1,46.42695,15.89034,Špindlerjeva ulica,,1,,Ptuj,,Četrt Jezero,Ptuj,2250,Ptuj,Podravska
2252 DORNAVA,DORNAVA 128,46.43170,15.94637,Dornava,,128,,Dornava,,,Dornava,2252,Dornava,Podravska
2252 DORNAVA,DORNAVA 135 A,46.43405,15.95139,Dornava,,135,A,Dornava,,,Dornava,2252,Dornava,Podravska
2253 DESTRNIK,DESTRNIK 9,46.49296,15.87572,Destrnik,,9,,Destrnik,,,Destrnik,2253,Destrnik,Podravska
2253 DESTRNIK,VINTAROVCI 26 B,46.49824,15.86096,Vintarovci,,26,B,Vintarovci,,,Destrnik,2253,Destrnik,Podravska
2254 TRNOVSKA VAS,TRNOVSKA VAS 42 A,46.51993,15.88594,Trnovska vas,,42,A,Trnovska vas,,Vaška sk. Trnovska vas,Trnovska vas,2254,Trnovska vas,Podravska
2256 JURŠINCI,JURŠINCI 3,46.48566,15.96784,Juršinci,,3,,Juršinci,,,Juršinci,2256,Juršinci,Podravska
2270 ORMOŽ,PTUJSKA CESTA 25,46.40749,16.14359,Ptujska cesta,,25,,Ormož,,Ormož,Ormož,2270,Ormož,Podravska
2270 ORMOŽ,PTUJSKA CESTA 33,46.40715,16.14132,Ptujska cesta,,33,,Ormož,,Ormož,Ormož,2270,Ormož,Podravska
2270 ORMOŽ,ULICA DR. HROVATA 10 A,46.40632,16.14308,Ulica dr. Hrovata,,10,A,Ormož,,Ormož,Ormož,2270,Ormož,Podravska
2270 ORMOŽ,ULICA DR. HROVATA 4,46.40724,16.14333,Ulica dr. Hrovata,,4,,Ormož,,Ormož,Ormož,2270,Ormož,Podravska
2272 GORIŠNICA,GORIŠNICA 65,46.41047,16.01167,Gorišnica,,65,,Gorišnica,,,Gorišnica,2272,Gorišnica,Podravska
2273 PODGORCI,PODGORCI 48,46.42049,16.04944,Podgorci,,48,,Podgorci,,Podgorci,Ormož,2273,Podgorci,Podravska
2274 VELIKA NEDELJA,VIČANCI 16,46.44350,16.07500,Vičanci,,16,,Vičanci,,Velika Nedelja,Ormož,2274,Velika Nedelja,Podravska
2281 MARKOVCI,MARKOVCI 43,46.39430,15.93041,Markovci,,43,,Markovci,,,Markovci,2281,Markovci,Podravska
2282 CIRKULANE,CIRKULANE 28,46.34593,15.99901,Cirkulane,,28,,Cirkulane,,,Cirkulane,2282,Cirkulane,Podravska
2284 VIDEM PRI PTUJU,VIDEM PRI PTUJU 51,46.36906,15.90255,Videm pri Ptuju,,51,,Videm pri Ptuju,,Kraj.skupnost Videm pri Ptuju,Videm,2284,Videm pri Ptuju,Podravska
2286 PODLEHNIK,PODLEHNIK 9,46.33608,15.87803,Podlehnik,,9,,Podlehnik,,,Podlehnik,2286,Podlehnik,Podravska
2288 HAJDINA,ZGORNJA HAJDINA 127,46.40832,15.83889,Zgornja Hajdina,,127,,Zgornja Hajdina,,,Hajdina,2288,Hajdina,Podravska
2288 HAJDINA,ZGORNJA HAJDINA 44 A,46.40766,15.83712,Zgornja Hajdina,,44,A,Zgornja Hajdina,,,Hajdina,2288,Hajdina,Podravska
2310 SLOVENSKA BISTRICA,ALJAŽEVA ULICA 6 A,46.37967,15.55602,Aljaževa ulica,,6,A,Slovenska Bistrica,,Pohorski odred,Slovenska Bistrica,2310,Slovenska Bistrica,Podravska
2310 SLOVENSKA BISTRICA,DEVINA 13 B,46.40484,15.57309,Devina,,13,B,Devina,,Alfonz Šarh,Slovenska Bistrica,2310,Slovenska Bistrica,Podravska
2310 SLOVENSKA BISTRICA,DEVINSKA ULICA 11,46.39787,15.57986,Devinska ulica,,11,,Slovenska Bistrica,,Alfonz Šarh,Slovenska Bistrica,2310,Slovenska Bistrica,Podravska
2310 SLOVENSKA BISTRICA,LJUBLJANSKA CESTA 1,46.39170,15.57307,Ljubljanska cesta,,1,,Slovenska Bistrica,,Dr. Jagodiča,Slovenska Bistrica,2310,Slovenska Bistrica,Podravska
2310 SLOVENSKA BISTRICA,LJUBLJANSKA CESTA 80,46.38414,15.56447,Ljubljanska cesta,,80,,Slovenska Bistrica,,Pohorski odred,Slovenska Bistrica,2310,Slovenska Bistrica,Podravska
2310 SLOVENSKA BISTRICA,MROŽEVA ULICA 3,46.39615,15.55526,Mroževa ulica,,3,,Slovenska Bistrica,,Pohorski odred,Slovenska Bistrica,2310,Slovenska Bistrica,Podravska
2310 SLOVENSKA BISTRICA,PARTIZANSKA ULICA 1,46.39183,15.57195,Partizanska ulica,,1,,Slovenska Bistrica,,Dr. Jagodiča,Slovenska Bistrica,2310,Slovenska Bistrica,Podravska
2310 SLOVENSKA BISTRICA,PARTIZANSKA ULICA 30,46.39552,15.56233,Partizanska ulica,,30,,Slovenska Bistrica,,Pohorski odred,Slovenska Bistrica,2310,Slovenska Bistrica,Podravska
2310 SLOVENSKA BISTRICA,TRG ALFONZA ŠARHA 18,46.39443,15.57367,Trg Alfonza Šarha,,18,,Slovenska Bistrica,,Alfonz Šarh,Slovenska Bistrica,2310,Slovenska Bistrica,Podravska
2310 SLOVENSKA BISTRICA,TRG SVOBODE 26,46.39244,15.57267,Trg svobode,,26,,Slovenska Bistrica,,Dr. Jagodiča,Slovenska Bistrica,2310,Slovenska Bistrica,Podravska
2310 SLOVENSKA BISTRICA,ULICA BORISA WINTERJA 10,46.38857,15.57340,Ulica Borisa Winterja,,10,,Slovenska Bistrica,,Dr. Jagodiča,Slovenska Bistrica,2310,Slovenska Bistrica,Podravska
2310 SLOVENSKA BISTRICA,VISOLE 166 A,46.39751,15.52669,Visole,,166,A,Visole,,Impol,Slovenska Bistrica,2310,Slovenska Bistrica,Podravska
2310 SLOVENSKA BISTRICA,ŠOLSKA ULICA 16,46.39170,15.56173,Šolska ulica,,16,,Slovenska Bistrica,,Pohorski odred,Slovenska Bistrica,2310,Slovenska Bistrica,Podravska
2311 HOČE,GLASERJEV TRG 1,46.49941,15.64910,Glaserjev trg,,1,,Spodnje Hoče,,Hoče,Hoče-Slivnica,2311,Hoče,Podravska
2312 OREHOVA VAS,OREHOVA CESTA 26,46.47242,15.66588,Orehova cesta,,26,,Orehova vas,,Orehova-Hotinja vas,Hoče-Slivnica,2312,Orehova vas,Podravska
2312 OREHOVA VAS,POLANSKA CESTA 7,46.47807,15.64895,Polanska cesta,,7,,Slivnica pri Mariboru,,Slivnica,Hoče-Slivnica,2312,Orehova vas,Podravska
2312 OREHOVA VAS,VILENSKA CESTA 76,46.46908,15.64691,Vilenska cesta,,76,,Radizel,,Slivnica,Hoče-Slivnica,2312,Orehova vas,Podravska
2313 FRAM,CAFOVA ULICA 1,46.45644,15.62696,Cafova ulica,,1,,Fram,,Fram,Rače-Fram,2313,Fram,Podravska
2314 ZGORNJA POLSKAVA,MLADINSKA ULICA 12,46.42702,15.61079,Mladinska ulica,,12,,Zgornja Polskava,,Zgornja Polskava,Slovenska Bistrica,2314,Zgornja Polskava,Podravska
2317 OPLOTNICA,ULICA POHORSKEGA BATALJONA 1,46.38720,15.44625,Ulica Pohorskega bataljona,,1,,Oplotnica,,,Oplotnica,2317,Oplotnica,Podravska
2317 OPLOTNICA,ULICA POHORSKEGA BATALJONA 11,46.38817,15.44733,Ulica Pohorskega bataljona,,11,,Oplotnica,,,Oplotnica,2317,Oplotnica,Podravska
2317 OPLOTNICA,ŠOLSKA ULICA 8,46.38845,15.44971,Šolska ulica,,8,,Oplotnica,,,Oplotnica,2317,Oplotnica,Podravska
2318 LAPORJE,LAPORJE 50,46.34763,15.59456,Laporje,,50,,Laporje,,Laporje,Slovenska Bistrica,2318,Laporje,Podravska
2319 POLJČANE,BISTRIŠKA CESTA 60,46.31333,15.57836,Bistriška cesta,,60,,Poljčane,,,Poljčane,2319,Poljčane,Podravska
2319 POLJČANE,BISTRIŠKA CESTA 62,46.31290,15.57823,Bistriška cesta,,62,,Poljčane,,,Poljčane,2319,Poljčane,Podravska
2319 POLJČANE,BISTRIŠKA CESTA 97,46.30821,15.57729,Bistriška cesta,,97,,Poljčane,,,Poljčane,2319,Poljčane,Podravska
2319 POLJČANE,POTRČEVA ULICA 1,46.30471,15.58068,Potrčeva ulica,,1,,Zgornje Poljčane,,,Poljčane,2319,Poljčane,Podravska
2321 MAKOLE,MAKOLE 28,46.31735,15.66729,Makole,,28,,Makole,,Vaška skupnost Makole,Makole,2321,Makole,Podravska
2322 MAJŠPERK,BREG 6 A,46.33947,15.73623,Breg,,6,A,Breg,,Krajevna skupnost Majšperk,Majšperk,2322,Majšperk,Podravska
2325 KIDRIČEVO,MLADINSKA ULICA 9,46.40408,15.79488,Mladinska ulica,,9,,Kidričevo,,,Kidričevo,2325,Kidričevo,Podravska
2326 CIRKOVCE,CIRKOVCE 47,46.39472,15.72270,Cirkovce,,47,,Cirkovce,,,Kidričevo,2326,Cirkovce,Podravska
2327 RAČE,CESTA TALCEV 16,46.45171,15.68422,Cesta talcev,,16,,Rače,,Rače,Rače-Fram,2327,Rače,Podravska
2327 RAČE,GOZDNA ULICA 24,46.44844,15.66863,Gozdna ulica,,24,,Rače,,Rače,Rače-Fram,2327,Rače,Podravska
2327 RAČE,LJUBLJANSKA CESTA 14 A,46.45367,15.67455,Ljubljanska cesta,,14,A,Rače,,Rače,Rače-Fram,2327,Rače,Podravska
2327 RAČE,NOVA ULICA 5,46.45384,15.67405,Nova ulica,,5,,Rače,,Rače,Rače-Fram,2327,Rače,Podravska
2331 PRAGERSKO,KOLODVORSKA ULICA 3,46.39521,15.66135,Kolodvorska ulica,,3,,Pragersko,,Pragersko,Slovenska Bistrica,2331,Pragersko,Podravska
2341 LIMBUŠ,LACKOVA CESTA 135,46.54667,15.59819,Lackova cesta,,135,,Pekre,,Pekre,Maribor,2341,Limbuš,Podravska
2341 LIMBUŠ,LACKOVA CESTA 242,46.55204,15.58536,Lackova cesta,,242,,Limbuš,,Limbuš,Maribor,2341,Limbuš,Podravska
2341 LIMBUŠ,LACKOVA CESTA 269,46.55387,15.58161,Lackova cesta,,269,,Limbuš,,Limbuš,Maribor,2341,Limbuš,Podravska
2341 LIMBUŠ,ULICA 30. MAJA 12,46.54964,15.58761,Ulica 30. maja,,12,,Limbuš,,Limbuš,Maribor,2341,Limbuš,Podravska
2341 LIMBUŠ,ULICA LACKOVEGA ODREDA 6,46.55328,15.58435,Ulica Lackovega odreda,,6,,Limbuš,,Limbuš,Maribor,2341,Limbuš,Podravska
2342 RUŠE,SMOLNIK 7 C,46.53253,15.48966,Smolnik,,7,C,Smolnik,,,Ruše,2342,Ruše,Podravska
2342 RUŠE,STADIONSKA ULICA 2,46.54266,15.50658,Stadionska ulica,,2,,Ruše,,,Ruše,2342,Ruše,Podravska
2342 RUŠE,STADIONSKA ULICA 4,46.54277,15.50623,Stadionska ulica,,4,,Ruše,,,Ruše,2342,Ruše,Podravska
2342 RUŠE,ULICA RUŠKE ČETE 14,46.53997,15.51611,Ulica Ruške čete,,14,,Ruše,,,Ruše,2342,Ruše,Podravska
2344 LOVRENC NA POHORJU,GORNJI TRG 37,46.53780,15.38462,Gornji trg,,37,,Lovrenc na Pohorju,,,Lovrenc na Pohorju,2344,Lovrenc na Pohorju,Podravska
2344 LOVRENC NA POHORJU,OB RADOLJNI 47,46.53252,15.38504,Ob Radoljni,,47,,Lovrenc na Pohorju,,,Lovrenc na Pohorju,2344,Lovrenc na Pohorju,Podravska
2345 BISTRICA OB DRAVI,INDUSTRIJSKA ULICA 33,46.55630,15.54903,Industrijska ulica,,33,,Bistrica ob Dravi,,,Ruše,2345,Bistrica ob Dravi,Podravska
2351 KAMNICA,CESTA V ROŠPOH 24 A,46.57287,15.61260,Cesta v Rošpoh,,24,A,Kamnica,,Kamnica,Maribor,2351,Kamnica,Podravska
2351 KAMNICA,VRBANSKA CESTA 97,46.57321,15.61582,Vrbanska cesta,,97,,Kamnica,,Kamnica,Maribor,2351,Kamnica,Podravska
2352 SELNICA OB DRAVI,GASILSKA ULICA 3,46.55124,15.49124,Gasilska ulica,,3,,Selnica ob Dravi,,,Selnica ob Dravi,2352,Selnica ob Dravi,Podravska
2352 SELNICA OB DRAVI,SLOVENSKI TRG 4,46.55150,15.49303,Slovenski trg,,4,,Selnica ob Dravi,,,Selnica ob Dravi,2352,Selnica ob Dravi,Podravska
2352 SELNICA OB DRAVI,SPODNJI SLEMEN 11,46.56018,15.52055,Spodnji Slemen,,11,,Spodnji Slemen,,,Selnica ob Dravi,2352,Selnica ob Dravi,Podravska
2352 SELNICA OB DRAVI,SPODNJI SLEMEN 13,46.55702,15.51711,Spodnji Slemen,,13,,Spodnji Slemen,,,Selnica ob Dravi,2352,Selnica ob Dravi,Podravska
2354 BRESTERNICA,CESTA NA ŽAVCERJA 15,46.56716,15.57100,Cesta na Žavcerja,,15,,Jelovec,,Bresternica-Gaj,Maribor,2354,Bresternica,Podravska
2354 BRESTERNICA,NA GAJ 2,46.56709,15.57691,Na Gaj,,2,,Bresternica,,Bresternica-Gaj,Maribor,2354,Bresternica,Podravska
2354 BRESTERNICA,ŠOBER 2 A,46.61777,15.56238,Šober,,2,A,Šober,,Bresternica-Gaj,Maribor,2354,Bresternica,Podravska
2360 RADLJE OB DRAVI,KOROŠKA CESTA 67 A,46.61537,15.21131,Koroška cesta,,67,A,Radlje ob Dravi,,Radlje ob Dravi,Radlje ob Dravi,2360,Radlje ob Dravi,Koroška
2360 RADLJE OB DRAVI,MARIBORSKA CESTA 37,46.61372,15.23075,Mariborska cesta,,37,,Radlje ob Dravi,,Radlje ob Dravi,Radlje ob Dravi,2360,Radlje ob Dravi,Koroška
2360 RADLJE OB DRAVI,PARTIZANSKA ULICA 38,46.61458,15.22869,Partizanska ulica,,38,,Radlje ob Dravi,,Radlje ob Dravi,Radlje ob Dravi,2360,Radlje ob Dravi,Koroška
2366 MUTA,CESTA OB POTOKU 11,46.61491,15.16381,Cesta ob potoku,,11,,Muta,,,Muta,2366,Muta,Koroška
2366 MUTA,GLAVNI TRG 47,46.61055,15.16488,Glavni trg,,47,,Muta,,,Muta,2366,Muta,Koroška
2367 VUZENICA,MLADINSKA ULICA 17,46.59873,15.16440,Mladinska ulica,,17,,Vuzenica,,,Vuzenica,2367,Vuzenica,Koroška
2370 DRAVOGRAD,MARIBORSKA CESTA 38,46.59024,15.02867,Mariborska cesta,,38,,Dravograd,,Dravograd,Dravograd,2370,Dravograd,Koroška
2370 DRAVOGRAD,TRG 4. JULIJA 4,46.58962,15.02470,Trg 4. julija,,4,,Dravograd,,Dravograd,Dravograd,2370,Dravograd,Koroška
2370 DRAVOGRAD,TRG 4. JULIJA 9,46.58921,15.02233,Trg 4. julija,,9,,Dravograd,,Dravograd,Dravograd,2370,Dravograd,Koroška
2370 DRAVOGRAD,ČRNEČE 146,46.58918,14.99866,Črneče,,146,,Črneče,,Črneče,Dravograd,2370,Dravograd,Koroška
2380 SLOVENJ GRADEC,FRANCETOVA CESTA 16,46.51331,15.08347,Francetova cesta,,16,,Slovenj Gradec,,Legen-mesto,Slovenj Gradec,2380,Slovenj Gradec,Koroška
2380 SLOVENJ GRADEC,GOSPOSVETSKA CESTA 1,46.50766,15.08173,Gosposvetska cesta,,1,,Slovenj Gradec,,Center,Slovenj Gradec,2380,Slovenj Gradec,Koroška
2380 SLOVENJ GRADEC,KOPALIŠKA ULICA 29,46.50613,15.08509,Kopališka ulica,,29,,Slovenj Gradec,,Center,Slovenj Gradec,2380,Slovenj Gradec,Koroška
2380 SLOVENJ GRADEC,OB SUHODOLNICI 31,46.50331,15.07270,Ob Suhodolnici,,31,,Slovenj Gradec,,Štibuh,Slovenj Gradec,2380,Slovenj Gradec,Koroška
2380 SLOVENJ GRADEC,PARTIZANSKA POT 16,46.50693,15.08202,Partizanska pot,,16,,Slovenj Gradec,,Center,Slovenj Gradec,2380,Slovenj Gradec,Koroška
2380 SLOVENJ GRADEC,PREŠERNOVA ULICA 3 C,46.51484,15.08390,Prešernova ulica,,3,C,Slovenj Gradec,,Legen-mesto,Slovenj Gradec,2380,Slovenj Gradec,Koroška
2381 PODGORJE PRI SLOVENJ GRADCU,PODGORJE 64 A,46.48078,15.07995,Podgorje,,64,A,Podgorje,,Podgorje,Slovenj Gradec,2381,Podgorje pri Slovenj Gradcu,Koroška
2382 MISLINJA,ŠOLSKA CESTA 55,46.44475,15.19541,Šolska cesta,,55,,Mislinja,,,Mislinja,2382,Mislinja,Koroška
2390 RAVNE NA KOROŠKEM,GAČNIKOVA POT 3,46.54417,14.96289,Gačnikova pot,,3,,Ravne na Koroškem,,TRG,Ravne na Koroškem,2390,Ravne na Koroškem,Koroška
2390 RAVNE NA KOROŠKEM,JAVORNIK 21,46.54480,14.97000,Javornik,,21,,Ravne na Koroškem,,JAVORNIK - ŠANCE,Ravne na Koroškem,2390,Ravne na Koroškem,Koroška
2390 RAVNE NA KOROŠKEM,OB SUHI 11,46.54286,14.96765,Ob Suhi,,11,,Ravne na Koroškem,,TRG,Ravne na Koroškem,2390,Ravne na Koroškem,Koroška
2390 RAVNE NA KOROŠKEM,OB SUHI 11 A,46.54267,14.96782,Ob Suhi,,11,A,Ravne na Koroškem,,TRG,Ravne na Koroškem,2390,Ravne na Koroškem,Koroška
2390 RAVNE NA KOROŠKEM,OB SUHI 5,46.54372,14.96774,Ob Suhi,,5,,Ravne na Koroškem,,TRG,Ravne na Koroškem,2390,Ravne na Koroškem,Koroška
2390 RAVNE NA KOROŠKEM,OB SUHI 5 B,46.54319,14.96729,Ob Suhi,,5,B,Ravne na Koroškem,,TRG,Ravne na Koroškem,2390,Ravne na Koroškem,Koroška
2390 RAVNE NA KOROŠKEM,OB SUHI 9,46.54334,14.96795,Ob Suhi,,9,,Ravne na Koroškem,,TRG,Ravne na Koroškem,2390,Ravne na Koroškem,Koroška
2390 RAVNE NA KOROŠKEM,PARTIZANSKA CESTA 4,46.54452,14.96530,Partizanska cesta,,4,,Ravne na Koroškem,,TRG,Ravne na Koroškem,2390,Ravne na Koroškem,Koroška
2390 RAVNE NA KOROŠKEM,TRG SVOBODE 18 A,46.54428,14.96559,Trg svobode,,18,A,Ravne na Koroškem,,TRG,Ravne na Koroškem,2390,Ravne na Koroškem,Koroška
2391 PREVALJE,NA FARI 50,46.54731,14.92759,Na Fari,,50,,Prevalje,,,Prevalje,2391,Prevalje,Koroška
2391 PREVALJE,PRI BRANČURNIKU 10,46.54492,14.93243,Pri Brančurniku,,10,,Prevalje,,,Prevalje,2391,Prevalje,Koroška
2391 PREVALJE,TRG 32,46.54497,14.91429,Trg,,32,,Prevalje,,,Prevalje,2391,Prevalje,Koroška
2391 PREVALJE,TRG 58 A,46.54639,14.91692,Trg,,58,A,Prevalje,,,Prevalje,2391,Prevalje,Koroška
2392 MEŽICA,PARTIZANSKA CESTA 17,46.51905,14.85387,Partizanska cesta,,17,,Mežica,,,Mežica,2392,Mežica,Koroška
2392 MEŽICA,SMREČNIKOVO 20,46.52036,14.84696,Smrečnikovo,,20,,Mežica,,,Mežica,2392,Mežica,Koroška
2393 ČRNA NA KOROŠKEM,CENTER 144,46.46870,14.85491,Center,,144,,Črna na Koroškem,,,Črna na Koroškem,2393,Črna na Koroškem,Koroška
3000 CELJE,AŠKERČEVA ULICA 1,46.23003,15.26747,Aškerčeva ulica,,1,,Celje,,Center,Celje,3000,Celje,Savinjska
3000 CELJE,AŠKERČEVA ULICA 14,46.23059,15.26804,Aškerčeva ulica,,14,,Celje,,Center,Celje,3000,Celje,Savinjska
3000 CELJE,CANKARJEVA ULICA 6,46.22964,15.26602,Cankarjeva ulica,,6,,Celje,,Center,Celje,3000,Celje,Savinjska
3000 CELJE,CESTA V ZADOBROVO 12,46.25725,15.29632,Cesta v Zadobrovo,,12,,Trnovlje pri Celju,,Trnovlje,Celje,3000,Celje,Savinjska
3000 CELJE,GAJI 28,46.24473,15.28996,Gaji,,28,,Trnovlje pri Celju,,Trnovlje,Celje,3000,Celje,Savinjska
3000 CELJE,GLEDALIŠKA ULICA 4,46.23047,15.26256,Gledališka ulica,,4,,Celje,,Center,Celje,3000,Celje,Savinjska
3000 CELJE,GREGORČIČEVA ULICA 5,46.23224,15.26227,Gregorčičeva ulica,,5,,Celje,,Dolgo polje,Celje,3000,Celje,Savinjska
3000 CELJE,IPAVČEVA ULICA 15,46.23572,15.25939,Ipavčeva ulica,,15,,Celje,,Dolgo polje,Celje,3000,Celje,Savinjska
3000 CELJE,IPAVČEVA ULICA 24,46.23912,15.25964,Ipavčeva ulica,,24,,Celje,,Dolgo polje,Celje,3000,Celje,Savinjska
3000 CELJE,JENKOVA ULICA 20,46.23594,15.26216,Jenkova ulica,,20,,Celje,,Dolgo polje,Celje,3000,Celje,Savinjska
3000 CELJE,JENKOVA ULICA 36,46.23621,15.26007,Jenkova ulica,,36,,Celje,,Dolgo polje,Celje,3000,Celje,Savinjska
3000 CELJE,JURČIČEVA ULICA 6,46.22928,15.25830,Jurčičeva ulica,,6,,Celje,,Kajuh,Celje,3000,Celje,Savinjska
3000 CELJE,LAVA 7,46.24025,15.25318,Lava,,7,,Celje,,Medlog,Celje,3000,Celje,Savinjska
3000 CELJE,LJUBLJANSKA CESTA 14,46.23244,15.25968,Ljubljanska cesta,,14,,Celje,,Slavko Šlander,Celje,3000,Celje,Savinjska
3000 CELJE,LJUBLJANSKA CESTA 16,46.23357,15.25688,Ljubljanska cesta,,16,,Celje,,Slavko Šlander,Celje,3000,Celje,Savinjska
3000 CELJE,MARIBORSKA CESTA 88,46.24030,15.27542,Mariborska cesta,,88,,Celje,,Gaberje,Celje,3000,Celje,Savinjska
3000 CELJE,MIKLOŠIČEVA ULICA 1,46.23111,15.26519,Miklošičeva ulica,,1,,Celje,,Center,Celje,3000,Celje,Savinjska
3000 CELJE,MILČINSKEGA ULICA 14,46.24745,15.27811,Milčinskega ulica,,14,,Celje,,Gaberje,Celje,3000,Celje,Savinjska
3000 CELJE,NA GOLOVCU 2,46.24446,15.26860,Na Golovcu,,2,,Celje,,Gaberje,Celje,3000,Celje,Savinjska
3000 CELJE,NAZORJEVA ULICA 14,46.23485,15.24024,Nazorjeva ulica,,14,,Celje,,Medlog,Celje,3000,Celje,Savinjska
3000 CELJE,OB KOPRIVNICI 21,46.25056,15.25789,Ob Koprivnici,,21,,Celje,,Ostrožno,Celje,3000,Celje,Savinjska
3000 CELJE,OB KOPRIVNICI 81,46.24988,15.25196,Ob Koprivnici,,81,,Celje,,Ostrožno,Celje,3000,Celje,Savinjska
3000 CELJE,OBLAKOVA ULICA 5,46.23463,15.26257,Oblakova ulica,,5,,Celje,,Dolgo polje,Celje,3000,Celje,Savinjska
3000 CELJE,OPEKARNIŠKA CESTA 15 A,46.24623,15.27069,Opekarniška cesta,,15,A,Celje,,Gaberje,Celje,3000,Celje,Savinjska
3000 CELJE,PLEČNIKOVA ULICA 29,46.22686,15.27788,Plečnikova ulica,,29,,Celje,,Aljažev hrib,Celje,3000,Celje,Savinjska
3000 CELJE,RAZLAGOVA ULICA 10,46.22662,15.26608,Razlagova ulica,,10,,Celje,,Center,Celje,3000,Celje,Savinjska
3000 CELJE,TRUBARJEVA ULICA 11,46.23108,15.25643,Trubarjeva ulica,,11,,Celje,,Kajuh,Celje,3000,Celje,Savinjska
3000 CELJE,ULICA BRATOV VOŠNJAKOV 12,46.24598,15.26429,Ulica bratov Vošnjakov,,12,,Celje,,Nova vas,Celje,3000,Celje,Savinjska
3000 CELJE,ULICA TONČKE ČEČEVE 9,46.23342,15.25004,Ulica Tončke Čečeve,,9,,Celje,,Savinja,Celje,3000,Celje,Savinjska
3000 CELJE,VESELOVA ULICA 13,46.23698,15.26756,Veselova ulica,,13,,Celje,,Dolgo polje,Celje,3000,Celje,Savinjska
3000 CELJE,ZAGRAD 31 C,46.21596,15.27901,Zagrad,,31,C,Celje,,Pod gradom,Celje,3000,Celje,Savinjska
3000 CELJE,ČOPOVA ULICA 20,46.23742,15.25546,Čopova ulica,,20,,Celje,,Dolgo polje,Celje,3000,Celje,Savinjska
3201 ŠMARTNO V ROŽNI DOLINI,GORICA PRI ŠMARTNEM 13,46.27219,15.23887,Gorica pri Šmartnem,,13,,Gorica pri Šmartnem,,Šmartno v Rožni dolini,Celje,3201,Šmartno v Rožni dolini,Savinjska
3204 DOBRNA,DOBRNA 50,46.33966,15.22417,Dobrna,,50,,Dobrna,,,Dobrna,3204,Dobrna,Savinjska
3204 DOBRNA,LOKOVINA 13 A,46.33308,15.21503,Lokovina,,13,A,Lokovina,,,Dobrna,3204,Dobrna,Savinjska
3205 VITANJE,NA VASI 11,46.38261,15.29604,Na vasi,,11,,Vitanje,,Trška skupnost Vitanje,Vitanje,3205,Vitanje,Savinjska
3210 SLOVENSKE KONJICE,DOBRAVA PRI KONJICAH 3 B,46.34627,15.41290,Dobrava pri Konjicah,,3,B,Dobrava pri Konjicah,,Dobrava-Gabrovlje,Slovenske Konjice,3210,Slovenske Konjice,Savinjska
3210 SLOVENSKE KONJICE,MESTNI TRG 17,46.33998,15.42862,Mestni trg,,17,,Slovenske Konjice,,Slovenske Konjice,Slovenske Konjice,3210,Slovenske Konjice,Savinjska
3210 SLOVENSKE KONJICE,POLJSKA CESTA 1,46.33774,15.42917,Poljska cesta,,1,,Slovenske Konjice,,Slovenske Konjice,Slovenske Konjice,3210,Slovenske Konjice,Savinjska
3210 SLOVENSKE KONJICE,SPODNJE PRELOGE 14,46.34432,15.40201,Spodnje Preloge,,14,,Spodnje Preloge,,Zeče,Slovenske Konjice,3210,Slovenske Konjice,Savinjska
3210 SLOVENSKE KONJICE,TEPANJSKI VRH 4 B,46.34746,15.45422,Tepanjski Vrh,,4,B,Tepanjski Vrh,,Tepanje,Slovenske Konjice,3210,Slovenske Konjice,Savinjska
3210 SLOVENSKE KONJICE,ŠOLSKA ULICA 4,46.33833,15.42010,Šolska ulica,,4,,Slovenske Konjice,,Slovenske Konjice,Slovenske Konjice,3210,Slovenske Konjice,Savinjska
3210 SLOVENSKE KONJICE,ŽIČKA CESTA 15,46.33443,15.42409,Žička cesta,,15,,Slovenske Konjice,,Slovenske Konjice,Slovenske Konjice,3210,Slovenske Konjice,Savinjska
3211 ŠKOFJA VAS,PREKORJE 53,46.26854,15.27717,Prekorje,,53,,Prekorje,,Škofja vas,Celje,3211,Škofja vas,Savinjska
3211 ŠKOFJA VAS,ZADOBROVA 49 B,46.25981,15.29581,Zadobrova,,49,B,Zadobrova,,Škofja vas,Celje,3211,Škofja vas,Savinjska
3212 VOJNIK,CELJSKA CESTA 24 B,46.29098,15.30088,Celjska cesta,,24,B,Vojnik,,Vojnik,Vojnik,3212,Vojnik,Savinjska
3212 VOJNIK,CELJSKA CESTA 26,46.29015,15.30205,Celjska cesta,,26,,Vojnik,,Vojnik,Vojnik,3212,Vojnik,Savinjska
3212 VOJNIK,CELJSKA CESTA 37,46.28391,15.30659,Celjska cesta,,37,,Vojnik,,Vojnik,Vojnik,3212,Vojnik,Savinjska
3212 VOJNIK,CESTA V TOMAŽ 6 A,46.29118,15.30770,Cesta v Tomaž,,6,A,Vojnik,,Vojnik,Vojnik,3212,Vojnik,Savinjska
3212 VOJNIK,KERŠOVA ULICA 1,46.29133,15.30397,Keršova ulica,,1,,Vojnik,,Vojnik,Vojnik,3212,Vojnik,Savinjska
3214 ZREČE,CESTA NA ROGLO 15,46.36973,15.38870,Cesta na Roglo,,15,,Zreče,,Zreče,Zreče,3214,Zreče,Savinjska
3214 ZREČE,DOBROVELJSKA CESTA 1,46.36625,15.39544,Dobroveljska cesta,,1,,Zreče,,Zreče,Zreče,3214,Zreče,Savinjska
3214 ZREČE,KOVAŠKA CESTA 22,46.37959,15.38343,Kovaška cesta,,22,,Zreče,,Zreče,Zreče,3214,Zreče,Savinjska
3214 ZREČE,KOVAŠKA CESTA 25 B,46.37116,15.39114,Kovaška cesta,,25,B,Zreče,,Zreče,Zreče,3214,Zreče,Savinjska
3220 ŠTORE,CESTA KOZJANSKEGA ODREDA 3,46.22148,15.31202,Cesta Kozjanskega odreda,,3,,Štore,,,Štore,3220,Štore,Savinjska
3230 ŠENTJUR,CESTA LEONA DOBROTINŠKA 3 B,46.21453,15.39378,Cesta Leona Dobrotinška,,3,B,Šentjur,,Šentjur-mesto,Šentjur,3230,Šentjur,Savinjska
3230 ŠENTJUR,CESTA LEONA DOBROTINŠKA 5,46.21421,15.39394,Cesta Leona Dobrotinška,,5,,Šentjur,,Šentjur-mesto,Šentjur,3230,Šentjur,Savinjska
3230 ŠENTJUR,CESTA LEONA DOBROTINŠKA 6 A,46.21416,15.39336,Cesta Leona Dobrotinška,,6,A,Šentjur,,Šentjur-mesto,Šentjur,3230,Šentjur,Savinjska
3230 ŠENTJUR,LJUBLJANSKA CESTA 6 B,46.21532,15.39121,Ljubljanska cesta,,6,B,Šentjur,,Šentjur-mesto,Šentjur,3230,Šentjur,Savinjska
3230 ŠENTJUR,SVETINOVA ULICA 1,46.22246,15.40015,Svetinova ulica,,1,,Šentjur,,Šentjur-mesto,Šentjur,3230,Šentjur,Savinjska
3230 ŠENTJUR,ULICA DUŠANA KVEDRA 27,46.21817,15.39597,Ulica Dušana Kvedra,,27,,Šentjur,,Šentjur-mesto,Šentjur,3230,Šentjur,Savinjska
3231 GROBELNO,GROBELNO - DEL 114,46.21426,15.43745,Grobelno - del,,114,,Grobelno - del,,Grobelno,Šentjur,3231,Grobelno,Savinjska
3240 ŠMARJE PRI JELŠAH,CELJSKA CESTA 14,46.22925,15.51630,Celjska cesta,,14,,Šmarje pri Jelšah,,Šmarje pri Jelšah,Šmarje pri Jelšah,3240,Šmarje pri Jelšah,Savinjska
3240 ŠMARJE PRI JELŠAH,CELJSKA CESTA 16,46.22926,15.51610,Celjska cesta,,16,,Šmarje pri Jelšah,,Šmarje pri Jelšah,Šmarje pri Jelšah,3240,Šmarje pri Jelšah,Savinjska
3240 ŠMARJE PRI JELŠAH,RAKEŽEVA ULICA 8,46.22684,15.51715,Rakeževa ulica,,8,,Šmarje pri Jelšah,,Šmarje pri Jelšah,Šmarje pri Jelšah,3240,Šmarje pri Jelšah,Savinjska
3240 ŠMARJE PRI JELŠAH,ROGAŠKA CESTA 21,46.22985,15.52162,Rogaška cesta,,21,,Šmarje pri Jelšah,,Šmarje pri Jelšah,Šmarje pri Jelšah,3240,Šmarje pri Jelšah,Savinjska
3250 ROGAŠKA SLATINA,CELJSKA CESTA 10,46.23916,15.63420,Celjska cesta,,10,,Rogaška Slatina,,Rogaška Slatina,Rogaška Slatina,3250,Rogaška Slatina,Savinjska
3250 ROGAŠKA SLATINA,CELJSKA CESTA 7,46.23915,15.63321,Celjska cesta,,7,,Rogaška Slatina,,Rogaška Slatina,Rogaška Slatina,3250,Rogaška Slatina,Savinjska
3250 ROGAŠKA SLATINA,KIDRIČEVA ULICA 53,46.22564,15.64458,Kidričeva ulica,,53,,Rogaška Slatina,,Rogaška Slatina,Rogaška Slatina,3250,Rogaška Slatina,Savinjska
3250 ROGAŠKA SLATINA,LASTINE 17,46.22959,15.64148,Lastine,,17,,Rogaška Slatina,,Rogaška Slatina,Rogaška Slatina,3250,Rogaška Slatina,Savinjska
3250 ROGAŠKA SLATINA,OB PROGI 3,46.24403,15.62204,Ob progi,,3,,Rogaška Slatina,,Rogaška Slatina,Rogaška Slatina,3250,Rogaška Slatina,Savinjska
3250 ROGAŠKA SLATINA,PARTIZANSKA CESTA 10,46.24323,15.64276,Partizanska cesta,,10,,Rogaška Slatina,,Rogaška Slatina,Rogaška Slatina,3250,Rogaška Slatina,Savinjska
3250 ROGAŠKA SLATINA,SPODNJE NEGONJE 16 C,46.25074,15.62346,Spodnje Negonje,,16,C,Spodnje Negonje,,Rogaška Slatina,Rogaška Slatina,3250,Rogaška Slatina,Savinjska
3250 ROGAŠKA SLATINA,ZDRAVILIŠKI TRG 9,46.23861,15.64079,Zdraviliški trg,,9,,Rogaška Slatina,,Rogaška Slatina,Rogaška Slatina,3250,Rogaška Slatina,Savinjska
3254 PODČETRTEK,TRŠKA CESTA 67,46.15679,15.59639,Trška cesta,,67,,Podčetrtek,,Podčetrtek,Podčetrtek,3254,Podčetrtek,Savinjska
3254 PODČETRTEK,ZDRAVILIŠKA CESTA 24,46.15826,15.60687,Zdraviliška cesta,,24,,Podčetrtek,,Podčetrtek,Podčetrtek,3254,Podčetrtek,Savinjska
3256 BISTRICA OB SOTLI,BISTRICA OB SOTLI 61,46.05571,15.66327,Bistrica ob Sotli,,61,,Bistrica ob Sotli,,,Bistrica ob Sotli,3256,Bistrica ob Sotli,Posavska
3261 LESIČNO,GUBNO 10,46.11737,15.51784,Gubno,,10,,Gubno,,Lesično,Kozje,3261,Lesično,Savinjska
3261 LESIČNO,PILŠTANJ 20,46.10006,15.52495,Pilštanj,,20,,Pilštanj,,Lesično,Kozje,3261,Lesično,Savinjska
3270 LAŠKO,KIDRIČEVA ULICA 5,46.15397,15.23683,Kidričeva ulica,,5,,Laško,,Laško,Laško,3270,Laško,Savinjska
3270 LAŠKO,KIDRIČEVA ULICA 5 B,46.15450,15.23730,Kidričeva ulica,,5,B,Laško,,Laško,Laško,3270,Laško,Savinjska
3270 LAŠKO,MESTNA ULICA 7,46.15460,15.23636,Mestna ulica,,7,,Laško,,Laško,Laško,3270,Laško,Savinjska
3270 LAŠKO,POŽENELOVA ULICA 22,46.16482,15.23049,Poženelova ulica,,22,,Laško,,Laško,Laško,3270,Laško,Savinjska
3270 LAŠKO,VALENTINIČEVA CESTA 22,46.15597,15.24091,Valentiničeva cesta,,22,,Laško,,Laško,Laško,3270,Laško,Savinjska
3270 LAŠKO,ZDRAVILIŠKA CESTA 6,46.16165,15.23209,Zdraviliška cesta,,6,,Laško,,Laško,Laško,3270,Laško,Savinjska
3272 RIMSKE TOPLICE,TOPLICE 10,46.11927,15.20326,Toplice,,10,,Rimske Toplice,,Rimske Toplice,Laško,3272,Rimske Toplice,Savinjska
3301 PETROVČE,DOBRIŠA VAS 81,46.24659,15.18210,Dobriša vas,,81,,Dobriša vas,,Petrovče,Žalec,3301,Petrovče,Savinjska
3301 PETROVČE,PETROVČE 95,46.24465,15.18767,Petrovče,,95,,Petrovče,,Petrovče,Žalec,3301,Petrovče,Savinjska
3303 GOMILSKO,GRAJSKA VAS 15 J,46.24311,15.05183,Grajska vas,,15,J,Grajska vas,,Gomilsko,Braslovče,3303,Gomilsko,Savinjska
3305 VRANSKO,VRANSKO 130 D,46.24591,14.95101,Vransko,,130,D,Vransko,,,Vransko,3305,Vransko,Savinjska
3305 VRANSKO,VRANSKO 144 A,46.24698,14.95400,Vransko,,144,A,Vransko,,,Vransko,3305,Vransko,Savinjska
3310 ŽALEC,CANKARJEVA ULICA 4,46.25240,15.16660,Cankarjeva ulica,,4,,Žalec,,Mestna skupnost Žalec,Žalec,3310,Žalec,Savinjska
3310 ŽALEC,MESTNI TRG 5,46.25295,15.16210,Mestni trg,,5,,Žalec,,Mestna skupnost Žalec,Žalec,3310,Žalec,Savinjska
3310 ŽALEC,PERNOVO 4 A,46.28516,15.19327,Pernovo,,4,A,Pernovo,,Galicija,Žalec,3310,Žalec,Savinjska
3310 ŽALEC,PREŠERNOVA ULICA 6,46.25093,15.16216,Prešernova ulica,,6,,Žalec,,Mestna skupnost Žalec,Žalec,3310,Žalec,Savinjska
3310 ŽALEC,SAVINJSKA CESTA 2,46.25214,15.16494,Savinjska cesta,,2,,Žalec,,Mestna skupnost Žalec,Žalec,3310,Žalec,Savinjska
3311 ŠEMPETER V SAVINJSKI DOLINI,RIMSKA CESTA 70,46.25651,15.12077,Rimska cesta,,70,,Šempeter v Savinj. dolini,,Šempeter,Žalec,3311,Šempeter v Savinjski dolini,Savinjska
3312 PREBOLD,GRAŠČINSKA CESTA 11,46.23604,15.09094,Graščinska cesta,,11,,Prebold,,,Prebold,3312,Prebold,Savinjska
3312 PREBOLD,LATKOVA VAS 73,46.25174,15.09745,Latkova vas,,73,,Latkova vas,,,Prebold,3312,Prebold,Savinjska
3313 POLZELA,GLAVNI TRG 13,46.27967,15.07521,Glavni trg,,13,,Polzela,,,Polzela,3313,Polzela,Savinjska
3313 POLZELA,GLAVNI TRG 15,46.27950,15.07495,Glavni trg,,15,,Polzela,,,Polzela,3313,Polzela,Savinjska
3313 POLZELA,OB ŽELEZNICI 26,46.27866,15.07283,Ob železnici,,26,,Polzela,,,Polzela,3313,Polzela,Savinjska
3313 POLZELA,POT V ŠENEK 7,46.28401,15.07471,Pot v Šenek,,7,,Polzela,,,Polzela,3313,Polzela,Savinjska
3314 BRASLOVČE,BRASLOVČE 27,46.28760,15.03997,Braslovče,,27,,Braslovče,,Braslovče,Braslovče,3314,Braslovče,Savinjska
3314 BRASLOVČE,PARIŽLJE 125,46.27792,15.06359,Parižlje,,125,,Parižlje,,Braslovče,Braslovče,3314,Braslovče,Savinjska
3320 VELENJE,CESTA BRATOV MRAVLJAKOV 13,46.36272,15.11965,Cesta bratov Mravljakov,,13,,Velenje,,Šmartno,Velenje,3320,Velenje,Savinjska
3320 VELENJE,CESTA I 23,46.35913,15.12535,Cesta I,,23,,Velenje,,Gorica,Velenje,3320,Velenje,Savinjska
3320 VELENJE,EFENKOVA CESTA 61,46.36240,15.12419,Efenkova cesta,,61,,Velenje,,Šmartno,Velenje,3320,Velenje,Savinjska
3320 VELENJE,KARDELJEV TRG 3,46.36095,15.12049,Kardeljev trg,,3,,Velenje,,Velenje - levi breg - vzhod,Velenje,3320,Velenje,Savinjska
3320 VELENJE,KIDRIČEVA CESTA 19 A,46.36353,15.11608,Kidričeva cesta,,19,A,Velenje,,Velenje - desni breg,Velenje,3320,Velenje,Savinjska
3320 VELENJE,KIDRIČEVA CESTA 23,46.36396,15.11298,Kidričeva cesta,,23,,Velenje,,Velenje - desni breg,Velenje,3320,Velenje,Savinjska
3320 VELENJE,LJUBLJANSKA CESTA 11,46.35499,15.10714,Ljubljanska cesta,,11,,Velenje,,Staro Velenje,Velenje,3320,Velenje,Savinjska
3320 VELENJE,PIREŠICA 11 A,46.34618,15.15981,Pirešica,,11,A,Pirešica,,Vinska Gora,Velenje,3320,Velenje,Savinjska
3320 VELENJE,PREŠERNOVA CESTA 9 A,46.35935,15.10963,Prešernova cesta,,9,A,Velenje,,Velenje - levi breg - zahod,Velenje,3320,Velenje,Savinjska
3320 VELENJE,SONČNI GRIČ 7,46.35393,15.12586,Sončni grič,,7,,Velenje,,Gorica,Velenje,3320,Velenje,Savinjska
3320 VELENJE,SUBOTIŠKA CESTA 12,46.36625,15.10260,Subotiška cesta,,12,,Velenje,,Stara vas,Velenje,3320,Velenje,Savinjska
3320 VELENJE,VODNIKOVA CESTA 1,46.36151,15.11636,Vodnikova cesta,,1,,Velenje,,Velenje - desni breg,Velenje,3320,Velenje,Savinjska
3325 ŠOŠTANJ,FLORJAN 165 C,46.38507,15.02767,Florjan,,165,C,Florjan,,Skorno - Florjan,Šoštanj,3325,Šoštanj,Savinjska
3325 ŠOŠTANJ,TRG JOŽETA LAMPRETA 1,46.37648,15.04850,Trg Jožeta Lampreta,,1,,Šoštanj,,Šoštanj,Šoštanj,3325,Šoštanj,Savinjska
3326 TOPOLŠICA,TOPOLŠICA 64,46.40481,15.02068,Topolšica,,64,,Topolšica,,Topolšica,Šoštanj,3326,Topolšica,Savinjska
3326 TOPOLŠICA,TOPOLŠICA 77,46.40282,15.01627,Topolšica,,77,,Topolšica,,Topolšica,Šoštanj,3326,Topolšica,Savinjska
3327 ŠMARTNO OB PAKI,ŠMARTNO OB PAKI 146 B,46.33000,15.03759,Šmartno ob Paki,,146,B,Šmartno ob Paki,,,Šmartno ob Paki,3327,Šmartno ob Paki,Savinjska
3330 MOZIRJE,HRIBERNIKOVA ULICA 4,46.34002,14.96151,Hribernikova ulica,,4,,Mozirje,,Mozirje,Mozirje,3330,Mozirje,Savinjska
3330 MOZIRJE,PODVRH 24,46.33896,14.95551,Podvrh,,24,,Mozirje,,Mozirje,Mozirje,3330,Mozirje,Savinjska
3330 MOZIRJE,SAVINJSKA CESTA 6,46.33885,14.95935,Savinjska cesta,,6,,Mozirje,,Mozirje,Mozirje,3330,Mozirje,Savinjska
3330 MOZIRJE,ŠMIHELSKA CESTA 7,46.34067,14.96434,Šmihelska cesta,,7,,Mozirje,,Mozirje,Mozirje,3330,Mozirje,Savinjska
3331 NAZARJE,ZADREČKA CESTA 14,46.31723,14.94681,Zadrečka cesta,,14,,Nazarje,,Nazarje,Nazarje,3331,Nazarje,Savinjska
3334 LUČE,LUČE 106,46.35640,14.74415,Luče,,106,,Luče,,,Luče,3334,Luče,Savinjska
3342 GORNJI GRAD,TLAKA 10,46.29728,14.80953,Tlaka,,10,,Gornji Grad,,Gornji Grad,Gornji Grad,3342,Gornji Grad,Savinjska
4000 KRANJ,BLEIWEISOVA CESTA 16,46.24823,14.35500,Bleiweisova cesta,,16,,Kranj,,Vodovodni stolp,Kranj,4000,Kranj,Gorenjska
4000 KRANJ,BLEIWEISOVA CESTA 6,46.24613,14.35528,Bleiweisova cesta,,6,,Kranj,,Vodovodni stolp,Kranj,4000,Kranj,Gorenjska
4000 KRANJ,CESTA 1. MAJA 59,46.23449,14.36147,Cesta 1. maja,,59,,Kranj,,Planina,Kranj,4000,Kranj,Gorenjska
4000 KRANJ,CESTA JAKA PLATIŠE 21,46.24110,14.37191,Cesta Jaka Platiše,,21,,Kranj,,Primskovo,Kranj,4000,Kranj,Gorenjska
4000 KRANJ,GLAVNI TRG 21,46.23936,14.35532,Glavni trg,,21,,Kranj,,Center,Kranj,4000,Kranj,Gorenjska
4000 KRANJ,GOLNIŠKA CESTA 105,46.27324,14.35145,Golniška cesta,,105,,Mlaka pri Kranju,,Kokrica,Kranj,4000,Kranj,Gorenjska
4000 KRANJ,GOSPOSVETSKA ULICA 10,46.24890,14.35325,Gosposvetska ulica,,10,,Kranj,,Zlato polje,Kranj,4000,Kranj,Gorenjska
4000 KRANJ,GOSPOSVETSKA ULICA 10 A,46.24862,14.35322,Gosposvetska ulica,,10,A,Kranj,,Zlato polje,Kranj,4000,Kranj,Gorenjska
4000 KRANJ,GOSPOSVETSKA ULICA 10 B,46.24826,14.35331,Gosposvetska ulica,,10,B,Kranj,,Zlato polje,Kranj,4000,Kranj,Gorenjska
4000 KRANJ,GOSPOSVETSKA ULICA 12,46.24804,14.35409,Gosposvetska ulica,,12,,Kranj,,Zlato polje,Kranj,4000,Kranj,Gorenjska
4000 KRANJ,GOSPOSVETSKA ULICA 9,46.24863,14.35278,Gosposvetska ulica,,9,,Kranj,,Zlato polje,Kranj,4000,Kranj,Gorenjska
4000 KRANJ,GREGORČIČEVA ULICA 10,46.24313,14.35717,Gregorčičeva ulica,,10,,Kranj,,Center,Kranj,4000,Kranj,Gorenjska
4000 KRANJ,HRASTJE 30,46.22197,14.38201,Hrastje,,30,,Hrastje,,Hrastje,Kranj,4000,Kranj,Gorenjska
4000 KRANJ,JELENČEVA ULICA 24,46.24832,14.36780,Jelenčeva ulica,,24,,Kranj,,Primskovo,Kranj,4000,Kranj,Gorenjska
4000 KRANJ,KIDRIČEVA CESTA 38 A,46.24863,14.35402,Kidričeva cesta,,38,A,Kranj,,Zlato polje,Kranj,4000,Kranj,Gorenjska
4000 KRANJ,KIDRIČEVA CESTA 51,46.25138,14.35198,Kidričeva cesta,,51,,Kranj,,Zlato polje,Kranj,4000,Kranj,Gorenjska
4000 KRANJ,KIDRIČEVA CESTA 53,46.25199,14.34933,Kidričeva cesta,,53,,Kranj,,Zlato polje,Kranj,4000,Kranj,Gorenjska
4000 KRANJ,MLAŠKA CESTA 109,46.27666,14.35313,Mlaška cesta,,109,,Mlaka pri Kranju,,Kokrica,Kranj,4000,Kranj,Gorenjska
4000 KRANJ,PANTE 11,46.23346,14.34361,Pante,,11,,Kranj,,Stražišče,Kranj,4000,Kranj,Gorenjska
4000 KRANJ,STARA CESTA 25 B,46.24141,14.35264,Stara cesta,,25,B,Kranj,,Center,Kranj,4000,Kranj,Gorenjska
4000 KRANJ,STORŽIŠKA ULICA 4,46.21864,14.37676,Storžiška ulica,,4,,Kranj,,Orehek - Drulovka,Kranj,4000,Kranj,Gorenjska
4000 KRANJ,TEKSTILNA ULICA 17,46.24628,14.36588,Tekstilna ulica,,17,,Kranj,,Primskovo,Kranj,4000,Kranj,Gorenjska
4000 KRANJ,ULICA JULETA GABROVŠKA 19,46.23974,14.36458,Ulica Juleta Gabrovška,,19,,Kranj,,Bratov Smuk,Kranj,4000,Kranj,Gorenjska
4000 KRANJ,VALJAVČEVA ULICA 27,46.25053,14.35693,Valjavčeva ulica,,27,,Kranj,,Vodovodni stolp,Kranj,4000,Kranj,Gorenjska
4000 KRANJ,VREČKOVA ULICA 3,46.23503,14.36105,Vrečkova ulica,,3,,Kranj,,Planina,Kranj,4000,Kranj,Gorenjska
4000 KRANJ,ZASAVSKA CESTA 58 D,46.21782,14.36865,Zasavska cesta,,58,D,Kranj,,Orehek - Drulovka,Kranj,4000,Kranj,Gorenjska
4201 ZGORNJA BESNICA,VIDEMCE 10,46.26114,14.29641,Videmce,,10,,Zgornja Besnica,,Besnica,Kranj,4201,Zgornja Besnica,Gorenjska
4202 NAKLO,GLAVNA CESTA 18,46.27271,14.31461,Glavna cesta,,18,,Naklo,,Naklo,Naklo,4202,Naklo,Gorenjska
4202 NAKLO,PIVKA 23 A,46.26877,14.31795,Pivka,,23,A,Naklo,,Naklo,Naklo,4202,Naklo,Gorenjska
4202 NAKLO,STARA CESTA 61,46.27597,14.31494,Stara cesta,,61,,Naklo,,Naklo,Naklo,4202,Naklo,Gorenjska
4202 NAKLO,ULICA TOMA ZUPANA 33,46.27202,14.31794,Ulica Toma Zupana,,33,,Naklo,,Naklo,Naklo,4202,Naklo,Gorenjska
4203 DUPLJE,ZGORNJE DUPLJE 101 A,46.30397,14.29648,Zgornje Duplje,,101,A,Zgornje Duplje,,Duplje,Naklo,4203,Duplje,Gorenjska
4204 GOLNIK,GOLNIK 36,46.32966,14.33178,Golnik,,36,,Golnik,,Golnik,Kranj,4204,Golnik,Gorenjska
4205 PREDDVOR,BAŠELJ 26 B,46.31847,14.39961,Bašelj,,26,B,Bašelj,,Bašelj,Preddvor,4205,Preddvor,Gorenjska
4205 PREDDVOR,BELSKA CESTA 42,46.30180,14.41638,Belska cesta,,42,,Preddvor,,Preddvor,Preddvor,4205,Preddvor,Gorenjska
4205 PREDDVOR,POTOČE 2,46.30541,14.43310,Potoče,,2,,Potoče,,Tupaliče,Preddvor,4205,Preddvor,Gorenjska
4205 PREDDVOR,ŠOLSKA ULICA 9,46.30451,14.42003,Šolska ulica,,9,,Preddvor,,Preddvor,Preddvor,4205,Preddvor,Gorenjska
4207 CERKLJE NA GORENJSKEM,KRVAVŠKA CESTA 4,46.25433,14.48847,Krvavška cesta,,4,,Cerklje na Gorenjskem,,Cerklje na Gorenjskem,Cerklje na Gorenjskem,4207,Cerklje na Gorenjskem,Gorenjska
4207 CERKLJE NA GORENJSKEM,ŠMARTNO 70,46.24908,14.51508,Šmartno,,70,,Šmartno,,Šmartno,Cerklje na Gorenjskem,4207,Cerklje na Gorenjskem,Gorenjska
4208 ŠENČUR,PIPANOVA CESTA 43,46.24860,14.41889,Pipanova cesta,,43,,Šenčur,,Šenčur,Šenčur,4208,Šenčur,Gorenjska
4208 ŠENČUR,PIPANOVA CESTA 51 C,46.24928,14.42003,Pipanova cesta,,51,C,Šenčur,,Šenčur,Šenčur,4208,Šenčur,Gorenjska
4208 ŠENČUR,POSLOVNA CONA A 32,46.23713,14.40876,Poslovna cona A,,32,,Šenčur,,Šenčur,Šenčur,4208,Šenčur,Gorenjska
4208 ŠENČUR,ROŽNA ULICA 44,46.23852,14.41220,Rožna ulica,,44,,Šenčur,,Šenčur,Šenčur,4208,Šenčur,Gorenjska
4220 ŠKOFJA LOKA,FRANKOVO NASELJE 128,46.17018,14.33270,Frankovo naselje,,128,,Škofja Loka,,Trata,Škofja Loka,4220,Škofja Loka,Gorenjska
4220 ŠKOFJA LOKA,FRANKOVO NASELJE 51,46.16964,14.32918,Frankovo naselje,,51,,Škofja Loka,,Trata,Škofja Loka,4220,Škofja Loka,Gorenjska
4220 ŠKOFJA LOKA,HAFNERJEVO NASELJE 24,46.16977,14.33432,Hafnerjevo naselje,,24,,Škofja Loka,,Trata,Škofja Loka,4220,Škofja Loka,Gorenjska
4220 ŠKOFJA LOKA,POD PLEVNO 93,46.16755,14.31904,Pod Plevno,,93,,Škofja Loka,,Kamnitnik,Škofja Loka,4220,Škofja Loka,Gorenjska
4220 ŠKOFJA LOKA,PODLUBNIK 307,46.17254,14.29175,Podlubnik,,307,,Škofja Loka,,Stara Loka - Podlubnik,Škofja Loka,4220,Škofja Loka,Gorenjska
4220 ŠKOFJA LOKA,PODLUBNIK 341,46.17432,14.29072,Podlubnik,,341,,Škofja Loka,,Stara Loka - Podlubnik,Škofja Loka,4220,Škofja Loka,Gorenjska
4220 ŠKOFJA LOKA,PUŠTAL 108,46.16085,14.31135,Puštal,,108,,Puštal,,Škofja Loka - mesto,Škofja Loka,4220,Škofja Loka,Gorenjska
4220 ŠKOFJA LOKA,RETEČE 154,46.15978,14.36722,Reteče,,154,,Reteče,,Reteče - Gorenja vas,Škofja Loka,4220,Škofja Loka,Gorenjska
4220 ŠKOFJA LOKA,RETEČE 205,46.15779,14.37091,Reteče,,205,,Reteče,,Reteče - Gorenja vas,Škofja Loka,4220,Škofja Loka,Gorenjska
4220 ŠKOFJA LOKA,SPODNJI TRG 8,46.16529,14.30835,Spodnji trg,,8,,Škofja Loka,,Škofja Loka - mesto,Škofja Loka,4220,Škofja Loka,Gorenjska
4220 ŠKOFJA LOKA,STARA CESTA 10,46.16618,14.31281,Stara cesta,,10,,Škofja Loka,,Kamnitnik,Škofja Loka,4220,Škofja Loka,Gorenjska
4220 ŠKOFJA LOKA,STARA CESTA 16,46.16609,14.31402,Stara cesta,,16,,Škofja Loka,,Kamnitnik,Škofja Loka,4220,Škofja Loka,Gorenjska
4220 ŠKOFJA LOKA,STARA CESTA 21,46.16629,14.31470,Stara cesta,,21,,Škofja Loka,,Kamnitnik,Škofja Loka,4220,Škofja Loka,Gorenjska
4220 ŠKOFJA LOKA,STARA LOKA 31,46.17128,14.29907,Stara Loka,,31,,Stara Loka,,Stara Loka - Podlubnik,Škofja Loka,4220,Škofja Loka,Gorenjska
4220 ŠKOFJA LOKA,SV. DUH 162,46.18482,14.32198,Sv. Duh,,162,,Sv. Duh,,Sveti Duh,Škofja Loka,4220,Škofja Loka,Gorenjska
4220 ŠKOFJA LOKA,VISOKO PRI POLJANAH 5,46.12637,14.21316,Visoko pri Poljanah,,5,,Visoko pri Poljanah,,Log,Škofja Loka,4220,Škofja Loka,Gorenjska
4224 GORENJA VAS,TRATA 7,46.10233,14.14218,Trata,,7,,Gorenja vas,,Gorenja vas,Gorenja vas-Poljane,4224,Gorenja vas,Gorenjska
4224 GORENJA VAS,TRATA 7 A,46.10238,14.14240,Trata,,7,A,Gorenja vas,,Gorenja vas,Gorenja vas-Poljane,4224,Gorenja vas,Gorenjska
4226 ŽIRI,BEDRIH 34,46.05850,14.11971,Bedrih,,34,,Žiri,,,Žiri,4226,Žiri,Gorenjska
4226 ŽIRI,JOBSTOVA CESTA 22,46.04573,14.10868,Jobstova cesta,,22,,Žiri,,,Žiri,4226,Žiri,Gorenjska
4226 ŽIRI,TRG SVOBODE 9,46.04754,14.11159,Trg svobode,,9,,Žiri,,,Žiri,4226,Žiri,Gorenjska
4228 ŽELEZNIKI,OTOKI 14,46.22414,14.16365,Otoki,,14,,Železniki,,Železniki,Železniki,4228,Železniki,Gorenjska
4228 ŽELEZNIKI,RACOVNIK 29,46.22219,14.15786,Racovnik,,29,,Železniki,,Železniki,Železniki,4228,Železniki,Gorenjska
4240 RADOVLJICA,CANKARJEVA ULICA 56 B,46.34603,14.16961,Cankarjeva ulica,,56,B,Radovljica,,Radovljica,Radovljica,4240,Radovljica,Gorenjska
4240 RADOVLJICA,CESTA NA JEZERCA 17,46.34766,14.15874,Cesta na Jezerca,,17,,Radovljica,,Radovljica,Radovljica,4240,Radovljica,Gorenjska
4240 RADOVLJICA,GORENJSKA CESTA 8,46.34202,14.17349,Gorenjska cesta,,8,,Radovljica,,Radovljica,Radovljica,4240,Radovljica,Gorenjska
4240 RADOVLJICA,KOPALIŠKA CESTA 7,46.34702,14.17201,Kopališka cesta,,7,,Radovljica,,Radovljica,Radovljica,4240,Radovljica,Gorenjska
4240 RADOVLJICA,KRANJSKA CESTA 27,46.34662,14.17529,Kranjska cesta,,27,,Radovljica,,Radovljica,Radovljica,4240,Radovljica,Gorenjska
4240 RADOVLJICA,PREŠERNOVA ULICA 6,46.34494,14.17058,Prešernova ulica,,6,,Radovljica,,Radovljica,Radovljica,4240,Radovljica,Gorenjska
4240 RADOVLJICA,PREŠERNOVA ULICA 8,46.34525,14.17034,Prešernova ulica,,8,,Radovljica,,Radovljica,Radovljica,4240,Radovljica,Gorenjska
4240 RADOVLJICA,ZGORNJI OTOK 8,46.34920,14.20537,Zgornji Otok,,8,,Zgornji Otok,,Otok,Radovljica,4240,Radovljica,Gorenjska
4240 RADOVLJICA,ŠERCERJEVA ULICA 35,46.34291,14.18043,Šercerjeva ulica,,35,,Radovljica,,Radovljica,Radovljica,4240,Radovljica,Gorenjska
4245 KROPA,LIPNICA 2,46.30318,14.21842,Lipnica,,2,,Lipnica,,Srednja Dobrava,Radovljica,4245,Kropa,Gorenjska
4248 LESCE,BEGUNJSKA CESTA 7,46.36184,14.16170,Begunjska cesta,,7,,Lesce,,Lesce,Radovljica,4248,Lesce,Gorenjska
4248 LESCE,DOLINA 12,46.35462,14.15573,Dolina,,12,,Lesce,,Lesce,Radovljica,4248,Lesce,Gorenjska
4248 LESCE,ŽELEZNIŠKA ULICA 10,46.36149,14.15766,Železniška ulica,,10,,Lesce,,Lesce,Radovljica,4248,Lesce,Gorenjska
4248 LESCE,ŽELEZNIŠKA ULICA 5,46.36099,14.15865,Železniška ulica,,5,,Lesce,,Lesce,Radovljica,4248,Lesce,Gorenjska
4260 BLED,CESTA SVOBODE 47 A,46.35838,14.09453,Cesta svobode,,47,A,Bled,,Bled,Bled,4260,Bled,Gorenjska
4260 BLED,GORENJSKA ULICA 37,46.34715,14.12389,Gorenjska ulica,,37,,Ribno,,Ribno,Bled,4260,Bled,Gorenjska
4260 BLED,KOLODVORSKA CESTA 3 C,46.37448,14.09175,Kolodvorska cesta,,3,C,Bled,,Rečica,Bled,4260,Bled,Gorenjska
4260 BLED,LJUBLJANSKA CESTA 4,46.36690,14.10986,Ljubljanska cesta,,4,,Bled,,Bled,Bled,4260,Bled,Gorenjska
4260 BLED,MLADINSKA CESTA 1,46.37140,14.10909,Mladinska cesta,,1,,Bled,,Bled,Bled,4260,Bled,Gorenjska
4260 BLED,POD SKALO 4,46.37092,14.10461,Pod Skalo,,4,,Bled,,Bled,Bled,4260,Bled,Gorenjska
4260 BLED,POT NA LISICE 4,46.36823,14.13080,Pot na Lisice,,4,,Bled,,Bled,Bled,4260,Bled,Gorenjska
4260 BLED,PREŠERNOVA CESTA 52,46.37308,14.10420,Prešernova cesta,,52,,Bled,,Bled,Bled,4260,Bled,Gorenjska
4260 BLED,SELIŠKA CESTA 3,46.37275,14.10960,Seliška cesta,,3,,Bled,,Bled,Bled,4260,Bled,Gorenjska
4267 SREDNJA VAS V BOHINJU,SREDNJA VAS V BOHINJU 33 A,46.29618,13.92391,Srednja vas v Bohinju,,33,A,Srednja vas v Bohinju,,Srednja vas v Bohinju,Bohinj,4267,Srednja vas v Bohinju,Gorenjska
4270 JESENICE,CESTA MARŠALA TITA 112,46.44300,14.03697,Cesta maršala Tita,,112,,Jesenice,,Plavž,Jesenice,4270,Jesenice,Gorenjska
4270 JESENICE,CESTA MARŠALA TITA 77,46.43944,14.04417,Cesta maršala Tita,,77,,Jesenice,,Plavž,Jesenice,4270,Jesenice,Gorenjska
4270 JESENICE,CESTA MARŠALA TITA 78,46.44000,14.04461,Cesta maršala Tita,,78,,Jesenice,,Plavž,Jesenice,4270,Jesenice,Gorenjska
4270 JESENICE,ULICA STANETA BOKALA 4,46.44290,14.03977,Ulica Staneta Bokala,,4,,Jesenice,,Plavž,Jesenice,4270,Jesenice,Gorenjska
4274 ŽIROVNICA,SELO PRI ŽIROVNICI 8 A,46.40034,14.14153,Selo pri Žirovnici,,8,A,Selo pri Žirovnici,,,Žirovnica,4274,Žirovnica,Gorenjska
4275 BEGUNJE NA GORENJSKEM,BEGUNJE NA GORENJSKEM 55,46.37696,14.20130,Begunje na Gorenjskem,,55,,Begunje na Gorenjskem,,Begunje na Gorenjskem,Radovljica,4275,Begunje na Gorenjskem,Gorenjska
4275 BEGUNJE NA GORENJSKEM,ZAPUŽE 29 A,46.36287,14.19397,Zapuže,,29,A,Zapuže,,Begunje na Gorenjskem,Radovljica,4275,Begunje na Gorenjskem,Gorenjska
4280 KRANJSKA GORA,KOROŠKA ULICA 2,46.48538,13.78242,Koroška ulica,,2,,Kranjska Gora,,Kranjska Gora,Kranjska Gora,4280,Kranjska Gora,Gorenjska
4290 TRŽIČ,BEGUNJSKA CESTA 2,46.35659,14.29278,Begunjska cesta,,2,,Bistrica pri Tržiču,,Bistrica pri Tržiču,Tržič,4290,Tržič,Gorenjska
4290 TRŽIČ,BLEJSKA CESTA 10,46.36361,14.30654,Blejska cesta,,10,,Tržič,,Tržič - mesto,Tržič,4290,Tržič,Gorenjska
4290 TRŽIČ,DETELJICA 10,46.35571,14.29218,Deteljica,,10,,Bistrica pri Tržiču,,Bistrica pri Tržiču,Tržič,4290,Tržič,Gorenjska
4290 TRŽIČ,PREDILNIŠKA CESTA 6,46.36187,14.30768,Predilniška cesta,,6,,Tržič,,Tržič - mesto,Tržič,4290,Tržič,Gorenjska
4290 TRŽIČ,ROČEVNICA 58,46.35296,14.28957,Ročevnica,,58,,Ročevnica,,Bistrica pri Tržiču,Tržič,4290,Tržič,Gorenjska
5000 NOVA GORICA,CANKARJEVA ULICA 60,45.96193,13.64493,Cankarjeva ulica,,60,,Nova Gorica,,Krajevna skupnost Nova Gorica,Nova Gorica,5000,Nova Gorica,Goriška
5000 NOVA GORICA,ERJAVČEVA ULICA 30,45.95367,13.63740,Erjavčeva ulica,,30,,Nova Gorica,,Krajevna skupnost Nova Gorica,Nova Gorica,5000,Nova Gorica,Goriška
5000 NOVA GORICA,GREGORČIČEVA ULICA 16,45.95219,13.64773,Gregorčičeva ulica,,16,,Nova Gorica,,Krajevna skupnost Nova Gorica,Nova Gorica,5000,Nova Gorica,Goriška
5000 NOVA GORICA,REJČEVA ULICA 2,45.95782,13.64582,Rejčeva ulica,,2,,Nova Gorica,,Krajevna skupnost Nova Gorica,Nova Gorica,5000,Nova Gorica,Goriška
5000 NOVA GORICA,REJČEVA ULICA 4,45.95794,13.64553,Rejčeva ulica,,4,,Nova Gorica,,Krajevna skupnost Nova Gorica,Nova Gorica,5000,Nova Gorica,Goriška
5000 NOVA GORICA,SEDEJEVA ULICA 10,45.96044,13.65288,Sedejeva ulica,,10,,Nova Gorica,,Krajevna skupnost Nova Gorica,Nova Gorica,5000,Nova Gorica,Goriška
5000 NOVA GORICA,SEDEJEVA ULICA 6,45.96038,13.65156,Sedejeva ulica,,6,,Nova Gorica,,Krajevna skupnost Nova Gorica,Nova Gorica,5000,Nova Gorica,Goriška
5000 NOVA GORICA,STRELIŠKA POT 2,45.95104,13.63447,Streliška pot,,2,,Nova Gorica,,Krajevna skupnost Nova Gorica,Nova Gorica,5000,Nova Gorica,Goriška
5000 NOVA GORICA,ULICA GRADNIKOVE BRIGADE 47,45.96276,13.64769,Ulica Gradnikove brigade,,47,,Nova Gorica,,Krajevna skupnost Nova Gorica,Nova Gorica,5000,Nova Gorica,Goriška
5000 NOVA GORICA,ULICA GRADNIKOVE BRIGADE 63,45.96476,13.64809,Ulica Gradnikove brigade,,63,,Nova Gorica,,Krajevna skupnost Nova Gorica,Nova Gorica,5000,Nova Gorica,Goriška
5000 NOVA GORICA,ULICA GRADNIKOVE BRIGADE 7,45.95843,13.64623,Ulica Gradnikove brigade,,7,,Nova Gorica,,Krajevna skupnost Nova Gorica,Nova Gorica,5000,Nova Gorica,Goriška
5000 NOVA GORICA,ULICA TOLMINSKIH PUNTARJEV 4,45.95594,13.64904,Ulica tolminskih puntarjev,,4,,Nova Gorica,,Krajevna skupnost Nova Gorica,Nova Gorica,5000,Nova Gorica,Goriška
5000 NOVA GORICA,ULICA VINKA VODOPIVCA 21,45.95834,13.66378,Ulica Vinka Vodopivca,,21,,Kromberk,,Krajevna skupnost Kromberk - Loke,Nova Gorica,5000,Nova Gorica,Goriška
5000 NOVA GORICA,ULICA VINKA VODOPIVCA 7,45.95816,13.65884,Ulica Vinka Vodopivca,,7,,Kromberk,,Krajevna skupnost Kromberk - Loke,Nova Gorica,5000,Nova Gorica,Goriška
5210 DESKLE,SREBRNIČEVA ULICA 31,46.05307,13.61428,Srebrničeva ulica,,31,,Deskle,,Anhovo-Deskle,Kanal,5210,Deskle,Goriška
5213 KANAL,MORSKO 1,46.08033,13.63544,Morsko,,1,,Morsko,,Kanal,Kanal,5213,Kanal,Goriška
5216 MOST NA SOČI,MOST NA SOČI 52,46.15291,13.74111,Most na Soči,,52,,Most na Soči,,Most na Soči,Tolmin,5216,Most na Soči,Goriška
5220 TOLMIN,GREGORČIČEVA ULICA 6,46.18371,13.73296,Gregorčičeva ulica,,6,,Tolmin,,Tolmin,Tolmin,5220,Tolmin,Goriška
5220 TOLMIN,PREŠERNOVA ULICA 6 A,46.18376,13.73472,Prešernova ulica,,6,A,Tolmin,,Tolmin,Tolmin,5220,Tolmin,Goriška
5220 TOLMIN,RUTARJEVA ULICA 18,46.18437,13.73779,Rutarjeva ulica,,18,,Tolmin,,Tolmin,Tolmin,5220,Tolmin,Goriška
5220 TOLMIN,TRG MARŠALA TITA 11,46.18345,13.73356,Trg maršala Tita,,11,,Tolmin,,Tolmin,Tolmin,5220,Tolmin,Goriška
5220 TOLMIN,TRG MARŠALA TITA 7,46.18300,13.73269,Trg maršala Tita,,7,,Tolmin,,Tolmin,Tolmin,5220,Tolmin,Goriška
5222 KOBARID,GREGORČIČEVA ULICA 17,46.24740,13.58074,Gregorčičeva ulica,,17,,Kobarid,,Kobarid,Kobarid,5222,Kobarid,Goriška
5222 KOBARID,TRG SVOBODE 3 B,46.24709,13.57800,Trg svobode,,3,B,Kobarid,,Kobarid,Kobarid,5222,Kobarid,Goriška
5222 KOBARID,TRG SVOBODE 4,46.24699,13.57868,Trg svobode,,4,,Kobarid,,Kobarid,Kobarid,5222,Kobarid,Goriška
5230 BOVEC,KOT 86,46.33609,13.54917,Kot,,86,,Bovec,,Bovec,Bovec,5230,Bovec,Goriška
5230 BOVEC,MALA VAS 56,46.34016,13.55752,Mala vas,,56,,Bovec,,Bovec,Bovec,5230,Bovec,Goriška
5243 PODBRDO,PODBRDO 33,46.21396,13.97220,Podbrdo,,33,,Podbrdo,,Podbrdo,Tolmin,5243,Podbrdo,Goriška
5250 SOLKAN,ULICA MATIJE DOLJAKA 12,45.97005,13.64545,Ulica Matije Doljaka,,12,,Solkan,,Krajevna skupnost Solkan,Nova Gorica,5250,Solkan,Goriška
5270 AJDOVŠČINA,GORIŠKA CESTA 78,45.88562,13.88883,Goriška cesta,,78,,Ajdovščina,,Krajevna skupnost Ajdovščina,Ajdovščina,5270,Ajdovščina,Goriška
5270 AJDOVŠČINA,GREGORČIČEVA ULICA 16,45.88834,13.90342,Gregorčičeva ulica,,16,,Ajdovščina,,Krajevna skupnost Ajdovščina,Ajdovščina,5270,Ajdovščina,Goriška
5270 AJDOVŠČINA,TOVARNIŠKA CESTA 2 B,45.88681,13.90359,Tovarniška cesta,,2,B,Ajdovščina,,Krajevna skupnost Ajdovščina,Ajdovščina,5270,Ajdovščina,Goriška
5270 AJDOVŠČINA,TOVARNIŠKA CESTA 3,45.88598,13.90542,Tovarniška cesta,,3,,Ajdovščina,,Krajevna skupnost Ajdovščina,Ajdovščina,5270,Ajdovščina,Goriška
5270 AJDOVŠČINA,TOVARNIŠKA CESTA 3 E,45.88605,13.90532,Tovarniška cesta,,3,E,Ajdovščina,,Krajevna skupnost Ajdovščina,Ajdovščina,5270,Ajdovščina,Goriška
5270 AJDOVŠČINA,ULICA MILANA KLEMENČIČA 1,45.88320,13.91390,Ulica Milana Klemenčiča,,1,,Ajdovščina,,Krajevna skupnost Ajdovščina,Ajdovščina,5270,Ajdovščina,Goriška
5270 AJDOVŠČINA,VIPAVSKA CESTA 4 A,45.88449,13.91053,Vipavska cesta,,4,A,Ajdovščina,,Krajevna skupnost Ajdovščina,Ajdovščina,5270,Ajdovščina,Goriška
5271 VIPAVA,GLAVNI TRG 16 C,45.84600,13.96138,Glavni trg,,16,C,Vipava,,Vipava,Vipava,5271,Vipava,Goriška
5271 VIPAVA,GORIŠKA CESTA 27,45.84470,13.95908,Goriška cesta,,27,,Vipava,,Vipava,Vipava,5271,Vipava,Goriška
5271 VIPAVA,GRADIŠKA CESTA 7,45.83920,13.95904,Gradiška cesta,,7,,Vipava,,Vipava,Vipava,5271,Vipava,Goriška
5271 VIPAVA,VOJKOVA ULICA 33,45.84127,13.96166,Vojkova ulica,,33,,Vipava,,Vipava,Vipava,5271,Vipava,Goriška
5280 IDRIJA,ARKOVA ULICA 4,46.00250,14.02906,Arkova ulica,,4,,Idrija,,Idrija,Idrija,5280,Idrija,Goriška
5280 IDRIJA,POT SV. ANTONA 49,46.00587,14.02144,Pot Sv. Antona,,49,,Idrija,,Idrija,Idrija,5280,Idrija,Goriška
5280 IDRIJA,ROŽNA ULICA 16,46.00219,14.02544,Rožna ulica,,16,,Idrija,,Idrija,Idrija,5280,Idrija,Goriška
5280 IDRIJA,ULICA OTONA ŽUPANČIČA 3,46.00239,14.03016,Ulica Otona Župančiča,,3,,Idrija,,Idrija,Idrija,5280,Idrija,Goriška
5290 ŠEMPETER PRI GORICI,CESTA PREKOMORSKIH BRIGAD 25,45.93053,13.63792,Cesta Prekomorskih brigad,,25,,Šempeter pri Gorici,,,Šempeter-Vrtojba,5290,Šempeter pri Gorici,Goriška
5290 ŠEMPETER PRI GORICI,CESTA PREKOMORSKIH BRIGAD 3,45.93034,13.63913,Cesta Prekomorskih brigad,,3,,Šempeter pri Gorici,,,Šempeter-Vrtojba,5290,Šempeter pri Gorici,Goriška
5290 ŠEMPETER PRI GORICI,CESTA PREKOMORSKIH BRIGAD 3 B,45.93016,13.63891,Cesta Prekomorskih brigad,,3,B,Šempeter pri Gorici,,,Šempeter-Vrtojba,5290,Šempeter pri Gorici,Goriška
5290 ŠEMPETER PRI GORICI,ULICA PADLIH BORCEV 13 A,45.93020,13.64083,Ulica padlih borcev,,13,A,Šempeter pri Gorici,,,Šempeter-Vrtojba,5290,Šempeter pri Gorici,Goriška
5290 ŠEMPETER PRI GORICI,ŽNIDARČIČEVA ULICA 21,45.92606,13.63130,Žnidarčičeva ulica,,21,,Šempeter pri Gorici,,,Šempeter-Vrtojba,5290,Šempeter pri Gorici,Goriška
5292 RENČE,ARČONI 8 A,45.88729,13.67965,Arčoni,,8,A,Renče,,Renče,Renče-Vogrsko,5292,Renče,Goriška
5292 RENČE,TRG 41,45.88958,13.66932,Trg,,41,,Renče,,Renče,Renče-Vogrsko,5292,Renče,Goriška
5294 DORNBERK,GRADIŠČE NAD PRVAČINO 4,45.88323,13.71792,Gradišče nad Prvačino,,4,,Gradišče nad Prvačino,,Krajevna skupnost Gradišče,Nova Gorica,5294,Dornberk,Goriška
6000 KOPER - CAPODISTRIA,BEBLERJEVA ULICA 12,45.54087,13.70495,Beblerjeva ulica,Via Aleš Bebler,12,,Koper,Capodistria,Žusterna,Koper,6000,Koper - Capodistria,Obalno-kraška
6000 KOPER - CAPODISTRIA,BEBLERJEVA ULICA 2 B,45.54074,13.70871,Beblerjeva ulica,Via Aleš Bebler,2,B,Koper,Capodistria,Žusterna,Koper,6000,Koper - Capodistria,Obalno-kraška
6000 KOPER - CAPODISTRIA,BEBLERJEVA ULICA 7,45.54048,13.70814,Beblerjeva ulica,Via Aleš Bebler,7,,Koper,Capodistria,Žusterna,Koper,6000,Koper - Capodistria,Obalno-kraška
6000 KOPER - CAPODISTRIA,BENČIČEVA ULICA 2 D,45.53848,13.71159,Benčičeva ulica,Via Dragomir Benčič,2,D,Koper,Capodistria,Za gradom,Koper,6000,Koper - Capodistria,Obalno-kraška
6000 KOPER - CAPODISTRIA,CESTA NA MARKOVEC 1,45.53529,13.72805,Cesta na Markovec,Strada di Monte Marco,1,,Koper,Capodistria,Olmo-Prisoje,Koper,6000,Koper - Capodistria,Obalno-kraška
6000 KOPER - CAPODISTRIA,CESTA NA MARKOVEC 31,45.53704,13.71563,Cesta na Markovec,Strada di Monte Marco,31,,Koper,Capodistria,Semedela,Koper,6000,Koper - Capodistria,Obalno-kraška
6000 KOPER - CAPODISTRIA,CESTA ZORE PERELLO-GODINA 1,45.54256,13.72830,Cesta Zore Perello-Godina,Strada Zora Perello-Godina,1,,Koper,Capodistria,Koper - Center,Koper,6000,Koper - Capodistria,Obalno-kraška
6000 KOPER - CAPODISTRIA,DELLAVALLEJEVA ULICA 3,45.54870,13.73094,Dellavallejeva ulica,Via Luciano Dellavalle,3,,Koper,Capodistria,Koper - Center,Koper,6000,Koper - Capodistria,Obalno-kraška
6000 KOPER - CAPODISTRIA,DOLINSKA CESTA 17 C,45.52901,13.73041,Dolinska cesta,Strada della Valle,17,C,Koper,Capodistria,Olmo-Prisoje,Koper,6000,Koper - Capodistria,Obalno-kraška
6000 KOPER - CAPODISTRIA,GLAGOLJAŠKA ULICA 1 C,45.54925,13.72716,Glagoljaška ulica,Via dei Glagoliti,1,C,Koper,Capodistria,Koper - Center,Koper,6000,Koper - Capodistria,Obalno-kraška
6000 KOPER - CAPODISTRIA,ISTRSKA CESTA 89 B,45.54636,13.70418,Istrska cesta,Strada dell'Istria,89,B,Koper,Capodistria,Žusterna,Koper,6000,Koper - Capodistria,Obalno-kraška
6000 KOPER - CAPODISTRIA,KIDRIČEVA ULICA 2,45.54846,13.72938,Kidričeva ulica,Via Boris Kidrič,2,,Koper,Capodistria,Koper - Center,Koper,6000,Koper - Capodistria,Obalno-kraška
6000 KOPER - CAPODISTRIA,KOLODVORSKA CESTA 2,45.54332,13.73418,Kolodvorska cesta,Strada della Stazione,2,,Koper,Capodistria,Koper - Center,Koper,6000,Koper - Capodistria,Obalno-kraška
6000 KOPER - CAPODISTRIA,KROŽNA CESTA 3 A,45.54085,13.70892,Krožna cesta,Strada Circolare,3,A,Koper,Capodistria,Žusterna,Koper,6000,Koper - Capodistria,Obalno-kraška
6000 KOPER - CAPODISTRIA,KROŽNA CESTA 5,45.54110,13.70694,Krožna cesta,Strada Circolare,5,,Koper,Capodistria,Žusterna,Koper,6000,Koper - Capodistria,Obalno-kraška
6000 KOPER - CAPODISTRIA,MUZEJSKI TRG 7,45.54854,13.72826,Muzejski trg,Piazzale del Museo,7,,Koper,Capodistria,Koper - Center,Koper,6000,Koper - Capodistria,Obalno-kraška
6000 KOPER - CAPODISTRIA,OBRTNIŠKA ULICA 30,45.53069,13.73563,Obrtniška ulica,Via degli Artigiani,30,,Koper,Capodistria,Škocjan,Koper,6000,Koper - Capodistria,Obalno-kraška
6000 KOPER - CAPODISTRIA,POT V GAJ 2,45.54423,13.71155,Pot v gaj,Vicolo al boschetto,2,,Koper,Capodistria,Žusterna,Koper,6000,Koper - Capodistria,Obalno-kraška
6000 KOPER - CAPODISTRIA,PRISOJE 7,45.53429,13.72632,Prisoje,Prisoje,7,,Koper,Capodistria,Olmo-Prisoje,Koper,6000,Koper - Capodistria,Obalno-kraška
6000 KOPER - CAPODISTRIA,PRISOJNA POT 10,45.54649,13.70532,Prisojna pot,Vicolo Assolato,10,,Koper,Capodistria,Žusterna,Koper,6000,Koper - Capodistria,Obalno-kraška
6000 KOPER - CAPODISTRIA,ROZMANOVA ULICA 13,45.53894,13.72060,Rozmanova ulica,Via Stane Rozman,13,,Koper,Capodistria,Semedela,Koper,6000,Koper - Capodistria,Obalno-kraška
6000 KOPER - CAPODISTRIA,STANIČEV TRG 1,45.54603,13.72777,Staničev trg,Piazzetta Valentin Stanič,1,,Koper,Capodistria,Koper - Center,Koper,6000,Koper - Capodistria,Obalno-kraška
6000 KOPER - CAPODISTRIA,TOMŠIČEVA ULICA 4,45.54106,13.71896,Tomšičeva ulica,Via Tone Tomšič,4,,Koper,Capodistria,Semedela,Koper,6000,Koper - Capodistria,Obalno-kraška
6000 KOPER - CAPODISTRIA,ULICA 15.MAJA 19,45.53713,13.72967,Ulica 15.maja,Via XV maggio,19,,Koper,Capodistria,Semedela,Koper,6000,Koper - Capodistria,Obalno-kraška
6000 KOPER - CAPODISTRIA,ULICA 15.MAJA 19 D,45.53661,13.72939,Ulica 15.maja,Via XV maggio,19,D,Koper,Capodistria,Semedela,Koper,6000,Koper - Capodistria,Obalno-kraška
6000 KOPER - CAPODISTRIA,ULICA OB PARKU 1,45.53982,13.70659,Ulica Ob parku,Via Del parco,1,,Koper,Capodistria,Žusterna,Koper,6000,Koper - Capodistria,Obalno-kraška
6000 KOPER - CAPODISTRIA,ULICA PRI VELIKIH VRATIH 18,45.54563,13.72888,Ulica Pri velikih vratih,Via Porta Maggiore,18,,Koper,Capodistria,Koper - Center,Koper,6000,Koper - Capodistria,Obalno-kraška
6000 KOPER - CAPODISTRIA,ULICA PRI VELIKIH VRATIH 9,45.54592,13.72872,Ulica Pri velikih vratih,Via Porta Maggiore,9,,Koper,Capodistria,Koper - Center,Koper,6000,Koper - Capodistria,Obalno-kraška
6000 KOPER - CAPODISTRIA,ULICA SERGEJA MAŠERE 7,45.54072,13.71264,Ulica Sergeja Mašere,Via Sergej Mašera,7,,Koper,Capodistria,Za gradom,Koper,6000,Koper - Capodistria,Obalno-kraška
6000 KOPER - CAPODISTRIA,ULICA VOJKE ŠMUC 12,45.54225,13.71347,Ulica Vojke Šmuc,Via Vojka Šmuc,12,,Koper,Capodistria,Za gradom,Koper,6000,Koper - Capodistria,Obalno-kraška
6000 KOPER - CAPODISTRIA,VATOVČEVA ULICA 1,45.53788,13.72543,Vatovčeva ulica,Via Nazarij Vatovec,1,,Koper,Capodistria,Semedela,Koper,6000,Koper - Capodistria,Obalno-kraška
6000 KOPER - CAPODISTRIA,VLAČIČEVA ULICA 2 A,45.54580,13.72799,Vlačičeva ulica,Calle Matija Vlačič,2,A,Koper,Capodistria,Koper - Center,Koper,6000,Koper - Capodistria,Obalno-kraška
6000 KOPER - CAPODISTRIA,VOJKOVO NABREŽJE 23,45.54627,13.73404,Vojkovo nabrežje,Riva Janko Premrl-Vojko,23,,Koper,Capodistria,Koper - Center,Koper,6000,Koper - Capodistria,Obalno-kraška
6000 KOPER - CAPODISTRIA,VOJKOVO NABREŽJE 27,45.54662,13.73465,Vojkovo nabrežje,Riva Janko Premrl-Vojko,27,,Koper,Capodistria,Koper - Center,Koper,6000,Koper - Capodistria,Obalno-kraška
6000 KOPER - CAPODISTRIA,VOJKOVO NABREŽJE 3,45.54500,13.73061,Vojkovo nabrežje,Riva Janko Premrl-Vojko,3,,Koper,Capodistria,Koper - Center,Koper,6000,Koper - Capodistria,Obalno-kraška
6000 KOPER - CAPODISTRIA,VOJKOVO NABREŽJE 32,45.54807,13.73774,Vojkovo nabrežje,Riva Janko Premrl-Vojko,32,,Koper,Capodistria,Koper - Center,Koper,6000,Koper - Capodistria,Obalno-kraška
6210 SEŽANA,CANKARJEVA ULICA 4,45.70931,13.86760,Cankarjeva ulica,,4,,Sežana,,Sežana,Sežana,6210,Sežana,Obalno-kraška
6210 SEŽANA,LEVSTIKOVA ULICA 2,45.70870,13.87106,Levstikova ulica,,2,,Sežana,,Sežana,Sežana,6210,Sežana,Obalno-kraška
6210 SEŽANA,LEVSTIKOVA ULICA 4,45.70872,13.87084,Levstikova ulica,,4,,Sežana,,Sežana,Sežana,6210,Sežana,Obalno-kraška
6210 SEŽANA,PARTIZANSKA CESTA 24,45.70858,13.87152,Partizanska cesta,,24,,Sežana,,Sežana,Sežana,6210,Sežana,Obalno-kraška
6210 SEŽANA,PARTIZANSKA CESTA 44,45.70774,13.86990,Partizanska cesta,,44,,Sežana,,Sežana,Sežana,6210,Sežana,Obalno-kraška
6210 SEŽANA,PARTIZANSKA CESTA 63,45.70583,13.86426,Partizanska cesta,,63,,Sežana,,Sežana,Sežana,6210,Sežana,Obalno-kraška
6210 SEŽANA,POD TABOROM 2,45.70924,13.86981,Pod Taborom,,2,,Sežana,,Sežana,Sežana,6210,Sežana,Obalno-kraška
6210 SEŽANA,ULICA ANTONA BONETE 7,45.70157,13.87836,Ulica Antona Bonete,,7,,Sežana,,Sežana,Sežana,6210,Sežana,Obalno-kraška
6210 SEŽANA,ULICA IVANA TURŠIČA 6,45.70826,13.86425,Ulica Ivana Turšiča,,6,,Sežana,,Sežana,Sežana,6210,Sežana,Obalno-kraška
6221 DUTOVLJE,DUTOVLJE 128,45.76451,13.82894,Dutovlje,,128,,Dutovlje,,Dutovlje,Sežana,6221,Dutovlje,Obalno-kraška
6230 POSTOJNA,CANKARJEVA ULICA 6,45.77464,14.21517,Cankarjeva ulica,,6,,Postojna,,Postojna,Postojna,6230,Postojna,Primorsko-notranjska
6230 POSTOJNA,GREGORČIČEV DREVORED 11,45.77434,14.21615,Gregorčičev drevored,,11,,Postojna,,Postojna,Postojna,6230,Postojna,Primorsko-notranjska
6230 POSTOJNA,JAMSKA CESTA 23,45.77731,14.20921,Jamska cesta,,23,,Postojna,,Postojna,Postojna,6230,Postojna,Primorsko-notranjska
6230 POSTOJNA,LJUBLJANSKA CESTA 28,45.77710,14.21606,Ljubljanska cesta,,28,,Postojna,,Postojna,Postojna,6230,Postojna,Primorsko-notranjska
6230 POSTOJNA,POT K PIVKI 2 B,45.77518,14.20715,Pot k Pivki,,2,B,Postojna,,Postojna,Postojna,6230,Postojna,Primorsko-notranjska
6230 POSTOJNA,PREČNA ULICA 2,45.77205,14.21042,Prečna ulica,,2,,Postojna,,Postojna,Postojna,6230,Postojna,Primorsko-notranjska
6230 POSTOJNA,PREČNA ULICA 4,45.77151,14.21020,Prečna ulica,,4,,Postojna,,Postojna,Postojna,6230,Postojna,Primorsko-notranjska
6230 POSTOJNA,ROŽNA ULICA 10,45.76584,14.21305,Rožna ulica,,10,,Postojna,,Postojna,Postojna,6230,Postojna,Primorsko-notranjska
6232 PLANINA,PLANINA 211,45.82390,14.23975,Planina,,211,,Planina,,Planina,Postojna,6232,Planina,Primorsko-notranjska
6240 KOZINA,BOROVA ULICA 2,45.60732,13.94328,Borova ulica,,2,,Hrpelje,,Hrpelje,Hrpelje-Kozina,6240,Kozina,Obalno-kraška
6244 PODGRAD,PODGRAD 12 B,45.52063,14.14665,Podgrad,,12,B,Podgrad,,Podgrad,Ilirska Bistrica,6244,Podgrad,Primorsko-notranjska
6250 ILIRSKA BISTRICA,GREGORČIČEVA CESTA 8,45.56848,14.24324,Gregorčičeva cesta,,8,,Ilirska Bistrica,,Ilirska Bistrica,Ilirska Bistrica,6250,Ilirska Bistrica,Primorsko-notranjska
6250 ILIRSKA BISTRICA,GREGORČIČEVA CESTA 8 A,45.56931,14.24266,Gregorčičeva cesta,,8,A,Ilirska Bistrica,,Ilirska Bistrica,Ilirska Bistrica,6250,Ilirska Bistrica,Primorsko-notranjska
6250 ILIRSKA BISTRICA,GREGORČIČEVA CESTA 8 D,45.56884,14.24303,Gregorčičeva cesta,,8,D,Ilirska Bistrica,,Ilirska Bistrica,Ilirska Bistrica,6250,Ilirska Bistrica,Primorsko-notranjska
6250 ILIRSKA BISTRICA,KIDRIČEVA ULICA 15,45.56738,14.24815,Kidričeva ulica,,15,,Ilirska Bistrica,,Ilirska Bistrica,Ilirska Bistrica,6250,Ilirska Bistrica,Primorsko-notranjska
6250 ILIRSKA BISTRICA,ROZMANOVA ULICA 1,45.56302,14.24630,Rozmanova ulica,,1,,Ilirska Bistrica,,Ilirska Bistrica,Ilirska Bistrica,6250,Ilirska Bistrica,Primorsko-notranjska
6250 ILIRSKA BISTRICA,TRNOVSKA ULICA 34,45.57379,14.23926,Trnovska ulica,,34,,Ilirska Bistrica,,Ilirska Bistrica,Ilirska Bistrica,6250,Ilirska Bistrica,Primorsko-notranjska
6257 PIVKA,KOLODVORSKA CESTA 24,45.68043,14.19460,Kolodvorska cesta,,24,,Pivka,,Pivka,Pivka,6257,Pivka,Primorsko-notranjska
6257 PIVKA,PREČNA ULICA 3,45.68385,14.19357,Prečna ulica,,3,,Pivka,,Pivka,Pivka,6257,Pivka,Primorsko-notranjska
6258 PRESTRANEK,ULICA IVANA VADNALA 15,45.73006,14.18584,Ulica Ivana Vadnala,,15,,Prestranek,,Prestranek,Postojna,6258,Prestranek,Primorsko-notranjska
6258 PRESTRANEK,ULICA PADLIH BORCEV 22,45.72884,14.18469,Ulica padlih borcev,,22,,Prestranek,,Prestranek,Postojna,6258,Prestranek,Primorsko-notranjska
6271 DEKANI,DEKANI 191,45.54809,13.81190,Dekani,,191,,Dekani,,Dekani,Koper,6271,Dekani,Obalno-kraška
6271 DEKANI,DEKANI 209,45.54898,13.81275,Dekani,,209,,Dekani,,Dekani,Koper,6271,Dekani,Obalno-kraška
6273 MAREZIGE,ČENTUR 23,45.50993,13.77048,Čentur,,23,,Čentur,,Vanganel,Koper,6273,Marezige,Obalno-kraška
6276 POBEGI,CESTA NA ŽANEJ 1,45.53913,13.78824,Cesta na Žanej,,1,,Pobegi,,Pobegi-Čežarji,Koper,6276,Pobegi,Obalno-kraška
6280 ANKARAN - ANCARANO,FRENKOVA ULICA 7,45.58296,13.73466,Frenkova ulica,Via Franc Planinc-Frenk,7,,Ankaran,Ancarano,,Ankaran,6280,Ankaran - Ancarano,Obalno-kraška
6280 ANKARAN - ANCARANO,JADRANSKA CESTA 31,45.58116,13.72755,Jadranska cesta,Strada dell'Adriatico,31,,Ankaran,Ancarano,,Ankaran,6280,Ankaran - Ancarano,Obalno-kraška
6280 ANKARAN - ANCARANO,KOLOMBAN 38 F,45.58875,13.74737,Kolomban,Colombano,38,F,Kolomban,Colombano,Hrvatini,Koper,6280,Ankaran - Ancarano,Obalno-kraška
6280 ANKARAN - ANCARANO,KOLOMBAN 54 A,45.59191,13.74653,Kolomban,Colombano,54,A,Kolomban,Colombano,Hrvatini,Koper,6280,Ankaran - Ancarano,Obalno-kraška
6281 ŠKOFIJE,SPODNJE ŠKOFIJE 174 A,45.57104,13.79217,Spodnje Škofije,,174,A,Spodnje Škofije,,Škofije,Koper,6281,Škofije,Obalno-kraška
6310 IZOLA - ISOLA,BRKINSKA ULICA 3,45.53690,13.66234,Brkinska ulica,Via dei Brkini,3,,Izola,Isola,Haliaetum,Izola,6310,Izola - Isola,Obalno-kraška
6310 IZOLA - ISOLA,CANKARJEV DREVORED 16,45.53713,13.66242,Cankarjev drevored,Viale Ivan Cankar,16,,Izola,Isola,Haliaetum,Izola,6310,Izola - Isola,Obalno-kraška
6310 IZOLA - ISOLA,JUŽNA CESTA 4 B,45.53109,13.66517,Južna cesta,Strada Meridionale,4,B,Izola,Isola,Livade,Izola,6310,Izola - Isola,Obalno-kraška
6310 IZOLA - ISOLA,KAJUHOVA ULICA 1 B,45.53446,13.66402,Kajuhova ulica,Via Kajuh,1,B,Izola,Isola,Livade,Izola,6310,Izola - Isola,Obalno-kraška
6310 IZOLA - ISOLA,KAJUHOVA ULICA 34,45.53002,13.66787,Kajuhova ulica,Via Kajuh,34,,Izola,Isola,Livade,Izola,6310,Izola - Isola,Obalno-kraška
6310 IZOLA - ISOLA,KOSOVELOVA ULICA 22,45.53968,13.66107,Kosovelova ulica,Via Srečko Kosovel,22,,Izola,Isola,Staro mesto,Izola,6310,Izola - Isola,Obalno-kraška
6310 IZOLA - ISOLA,MALIJA 102,45.50553,13.63430,Malija,,102,,Malija,,Korte,Izola,6310,Izola - Isola,Obalno-kraška
6310 IZOLA - ISOLA,MOROVA ULICA 26,45.53044,13.64700,Morova ulica,Via Mario Moro,26,,Jagodje,Jagodje,Haliaetum,Izola,6310,Izola - Isola,Obalno-kraška
6310 IZOLA - ISOLA,POLJE 40,45.54442,13.68709,Polje,Polje,40,,Izola,Isola,Livade,Izola,6310,Izola - Isola,Obalno-kraška
6310 IZOLA - ISOLA,PREŠERNOVA CESTA 53,45.53019,13.65195,Prešernova cesta,Strada France Prešeren,53,,Izola,Isola,Livade,Izola,6310,Izola - Isola,Obalno-kraška
6310 IZOLA - ISOLA,ULICA OKTOBRSKE REVOLUCIJE 11,45.53464,13.66078,Ulica oktobrske revolucije,Via Rivoluzione d'Ottobre,11,,Izola,Isola,Haliaetum,Izola,6310,Izola - Isola,Obalno-kraška
6310 IZOLA - ISOLA,ŠARED 51,45.51187,13.65781,Šared,,51,,Šared,,Korte,Izola,6310,Izola - Isola,Obalno-kraška
6320 PORTOROŽ - PORTOROSE,BELOKRIŠKA CESTA 44 C,45.51793,13.58636,Belokriška cesta,Strada di Croce Bianca,44,C,Portorož,Portorose,Portorož,Piran,6320,Portorož - Portorose,Obalno-kraška
6320 PORTOROŽ - PORTOROSE,CESTA SOLINARJEV 1,45.50452,13.60205,Cesta solinarjev,Strada dei Salinari,1,,Lucija,Lucia,Lucija,Piran,6320,Portorož - Portorose,Obalno-kraška
6320 PORTOROŽ - PORTOROSE,FAZAN 1,45.50642,13.60720,Fazan,Fasano,1,,Lucija,Lucia,Lucija,Piran,6320,Portorož - Portorose,Obalno-kraška
6320 PORTOROŽ - PORTOROSE,OBALA 105,45.50549,13.60232,Obala,Lungomare,105,,Lucija,Lucia,Lucija,Piran,6320,Portorož - Portorose,Obalno-kraška
6320 PORTOROŽ - PORTOROSE,OBALA 112,45.50425,13.60289,Obala,Lungomare,112,,Lucija,Lucia,Lucija,Piran,6320,Portorož - Portorose,Obalno-kraška
6320 PORTOROŽ - PORTOROSE,OBALA 114,45.50349,13.60337,Obala,Lungomare,114,,Lucija,Lucia,Lucija,Piran,6320,Portorož - Portorose,Obalno-kraška
6320 PORTOROŽ - PORTOROSE,OBALA 33,45.51425,13.58863,Obala,Lungomare,33,,Portorož,Portorose,Portorož,Piran,6320,Portorož - Portorose,Obalno-kraška
6320 PORTOROŽ - PORTOROSE,OBALA 41,45.51449,13.59071,Obala,Lungomare,41,,Portorož,Portorose,Portorož,Piran,6320,Portorož - Portorose,Obalno-kraška
6320 PORTOROŽ - PORTOROSE,PREČNA POT 4 D,45.51588,13.58730,Prečna pot,Traversale,4,D,Portorož,Portorose,Portorož,Piran,6320,Portorož - Portorose,Obalno-kraška
6320 PORTOROŽ - PORTOROSE,SEČA 197 A,45.50205,13.60181,Seča,Sezza,197,A,Seča,Sezza,Lucija,Piran,6320,Portorož - Portorose,Obalno-kraška
6320 PORTOROŽ - PORTOROSE,SEČA 197 B,45.50182,13.60207,Seča,Sezza,197,B,Seča,Sezza,Lucija,Piran,6320,Portorož - Portorose,Obalno-kraška
6320 PORTOROŽ - PORTOROSE,SONČNA POT 14 A,45.51584,13.58320,Sončna pot,Strada del Sole,14,A,Portorož,Portorose,Portorož,Piran,6320,Portorož - Portorose,Obalno-kraška
6320 PORTOROŽ - PORTOROSE,ULICA XXX. DIVIZIJE 12,45.50576,13.60458,Ulica XXX. divizije,Via XXX Divisione,12,,Lucija,Lucia,Lucija,Piran,6320,Portorož - Portorose,Obalno-kraška
6320 PORTOROŽ - PORTOROSE,ULICA XXX. DIVIZIJE 20,45.50514,13.60567,Ulica XXX. divizije,Via XXX Divisione,20,,Lucija,Lucia,Lucija,Piran,6320,Portorož - Portorose,Obalno-kraška
8000 NOVO MESTO,ADAMIČEVA ULICA 57,45.79641,15.17106,Adamičeva ulica,,57,,Novo mesto,,Krajevna skupnost Kandija - Grm,Novo mesto,8000,Novo mesto,Jugovzhodna Slovenija
8000 NOVO MESTO,KANDIJSKA CESTA 1,45.80194,15.16269,Kandijska cesta,,1,,Novo mesto,,Krajevna skupnost Drska,Novo mesto,8000,Novo mesto,Jugovzhodna Slovenija
8000 NOVO MESTO,KANDIJSKA CESTA 4,45.80129,15.16270,Kandijska cesta,,4,,Novo mesto,,Krajevna skupnost Drska,Novo mesto,8000,Novo mesto,Jugovzhodna Slovenija
8000 NOVO MESTO,KANDIJSKA CESTA 62,45.79919,15.17787,Kandijska cesta,,62,,Novo mesto,,Krajevna skupnost Žabja vas,Novo mesto,8000,Novo mesto,Jugovzhodna Slovenija
8000 NOVO MESTO,KOČEVARJEVA ULICA 40,45.81626,15.15821,Kočevarjeva ulica,,40,,Novo mesto,,Krajevna skupnost Bršljin,Novo mesto,8000,Novo mesto,Jugovzhodna Slovenija
8000 NOVO MESTO,KOŠENICE 13,45.78462,15.16131,Košenice,,13,,Novo mesto,,Krajevna skupnost Šmihel,Novo mesto,8000,Novo mesto,Jugovzhodna Slovenija
8000 NOVO MESTO,LJUBLJANSKA CESTA 26,45.81489,15.15479,Ljubljanska cesta,,26,,Novo mesto,,Krajevna skupnost Bršljin,Novo mesto,8000,Novo mesto,Jugovzhodna Slovenija
8000 NOVO MESTO,LOBETOVA ULICA 25,45.80110,15.18439,Lobetova ulica,,25,,Novo mesto,,Krajevna skupnost Žabja vas,Novo mesto,8000,Novo mesto,Jugovzhodna Slovenija
8000 NOVO MESTO,MUHABER 70,45.82243,15.15030,Muhaber,,70,,Novo mesto,,Krajevna skupnost Bučna vas,Novo mesto,8000,Novo mesto,Jugovzhodna Slovenija
8000 NOVO MESTO,MUŠIČEVA ULICA 2,45.79951,15.17239,Mušičeva ulica,,2,,Novo mesto,,Krajevna skupnost Kandija - Grm,Novo mesto,8000,Novo mesto,Jugovzhodna Slovenija
8000 NOVO MESTO,NOVI TRG 1,45.80465,15.16540,Novi trg,,1,,Novo mesto,,Krajevna skupnost CENTER,Novo mesto,8000,Novo mesto,Jugovzhodna Slovenija
8000 NOVO MESTO,NOVI TRG 9,45.80539,15.16467,Novi trg,,9,,Novo mesto,,Krajevna skupnost CENTER,Novo mesto,8000,Novo mesto,Jugovzhodna Slovenija
8000 NOVO MESTO,NOVI TRG 999,,,,,,,,,,,,,
8000 NOVO MESTO,OTOŠKA CESTA 5,45.82764,15.18354,Otoška cesta,,5,,Novo mesto,,Krajevna skupnost Ločna-Mačkovec,Novo mesto,8000,Novo mesto,Jugovzhodna Slovenija
8000 NOVO MESTO,SEIDLOVA CESTA 46,45.81259,15.17439,Seidlova cesta,,46,,Novo mesto,,Krajevna skupnost Ločna-Mačkovec,Novo mesto,8000,Novo mesto,Jugovzhodna Slovenija
8000 NOVO MESTO,TURKOVA ULICA 8,45.83041,15.15729,Turkova ulica,,8,,Novo mesto,,Krajevna skupnost Bučna vas,Novo mesto,8000,Novo mesto,Jugovzhodna Slovenija
8000 NOVO MESTO,ŠMARJEŠKA CESTA 4,45.81476,15.17800,Šmarješka cesta,,4,,Novo mesto,,Krajevna skupnost Ločna-Mačkovec,Novo mesto,8000,Novo mesto,Jugovzhodna Slovenija
8000 NOVO MESTO,ŠMIHEL 1,45.79497,15.16515,Šmihel,,1,,Novo mesto,,Krajevna skupnost Šmihel,Novo mesto,8000,Novo mesto,Jugovzhodna Slovenija
8000 NOVO MESTO,ŠMIHEL 3,45.79557,15.16412,Šmihel,,3,,Novo mesto,,Krajevna skupnost Šmihel,Novo mesto,8000,Novo mesto,Jugovzhodna Slovenija
8000 NOVO MESTO,ŠMIHELSKA CESTA 1,45.79995,15.16385,Šmihelska cesta,,1,,Novo mesto,,Krajevna skupnost Drska,Novo mesto,8000,Novo mesto,Jugovzhodna Slovenija
8000 NOVO MESTO,ŠMIHELSKA CESTA 20,45.79817,15.16106,Šmihelska cesta,,20,,Novo mesto,,Krajevna skupnost Drska,Novo mesto,8000,Novo mesto,Jugovzhodna Slovenija
8210 TREBNJE,GOLIEV TRG 3,45.90830,15.00666,Goliev trg,,3,,Trebnje,,Trebnje,Trebnje,8210,Trebnje,Jugovzhodna Slovenija
8210 TREBNJE,GUBČEVA CESTA 41 A,45.90835,15.01221,Gubčeva cesta,,41,A,Trebnje,,Trebnje,Trebnje,8210,Trebnje,Jugovzhodna Slovenija
8210 TREBNJE,GUBČEVA CESTA 9 A,45.90828,15.00976,Gubčeva cesta,,9,A,Trebnje,,Trebnje,Trebnje,8210,Trebnje,Jugovzhodna Slovenija
8210 TREBNJE,KIDRIČEVA ULICA 11,45.90991,15.00628,Kidričeva ulica,,11,,Trebnje,,Trebnje,Trebnje,8210,Trebnje,Jugovzhodna Slovenija
8210 TREBNJE,OBRTNIŠKA ULICA 6,45.90719,15.02266,Obrtniška ulica,,6,,Trebnje,,Trebnje,Trebnje,8210,Trebnje,Jugovzhodna Slovenija
8210 TREBNJE,STARI TRG 63,45.90870,15.01698,Stari trg,,63,,Trebnje,,Trebnje,Trebnje,8210,Trebnje,Jugovzhodna Slovenija
8210 TREBNJE,ŠTEFAN PRI TREBNJEM 40,45.90867,14.98839,Štefan pri Trebnjem,,40,,Štefan pri Trebnjem,,Štefan,Trebnje,8210,Trebnje,Jugovzhodna Slovenija
8213 VELIKI GABER,CESTA 25,45.94446,14.89143,Cesta,,25,,Cesta,,Veliki Gaber,Trebnje,8213,Veliki Gaber,Jugovzhodna Slovenija
8216 MIRNA PEČ,TRG 27,45.85842,15.08385,Trg,,27,,Mirna Peč,,,Mirna Peč,8216,Mirna Peč,Jugovzhodna Slovenija
8220 ŠMARJEŠKE TOPLICE,BREZOVICA 70,45.87124,15.24455,Brezovica,,70,,Brezovica,,,Šmarješke Toplice,8220,Šmarješke Toplice,Jugovzhodna Slovenija
8220 ŠMARJEŠKE TOPLICE,OREŠJE 51,45.88331,15.26105,Orešje,,51,,Orešje,,,Šmarješke Toplice,8220,Šmarješke Toplice,Jugovzhodna Slovenija
8220 ŠMARJEŠKE TOPLICE,ŠMARJETA 66,45.88826,15.24703,Šmarjeta,,66,,Šmarjeta,,,Šmarješke Toplice,8220,Šmarješke Toplice,Jugovzhodna Slovenija
8222 OTOČEC,DOBRAVA 72,45.83717,15.21974,Dobrava,,72,,Otočec,,Krajevna skupnost Otočec,Novo mesto,8222,Otočec,Jugovzhodna Slovenija
8232 ŠENTRUPERT,ŠENTRUPERT 124,45.97680,15.08850,Šentrupert,,124,,Šentrupert,,,Šentrupert,8232,Šentrupert,Jugovzhodna Slovenija
8250 BREŽICE,DALMATINOVA ULICA 13,45.91550,15.58866,Dalmatinova ulica,,13,,Brežice,,Šentlenart,Brežice,8250,Brežice,Posavska
8250 BREŽICE,KOCBEKOVA ULICA 28,45.90524,15.60794,Kocbekova ulica,,28,,Brežice,,Zakot-Bukošek-Trnje,Brežice,8250,Brežice,Posavska
8250 BREŽICE,PLETERŠNIKOVA ULICA 1,45.90908,15.59631,Pleteršnikova ulica,,1,,Brežice,,Brežice,Brežice,8250,Brežice,Posavska
8250 BREŽICE,SAVSKA POT 21 A,45.89287,15.60987,Savska pot,,21,A,Čatež ob Savi,,Čatež ob Savi,Brežice,8250,Brežice,Posavska
8250 BREŽICE,TOPLIŠKA CESTA 35,45.89321,15.62129,Topliška cesta,,35,,Čatež ob Savi,,Čatež ob Savi,Brežice,8250,Brežice,Posavska
8250 BREŽICE,ULICA STANKA ŠKALERJA 29,45.90939,15.59756,Ulica Stanka Škalerja,,29,,Brežice,,Zakot-Bukošek-Trnje,Brežice,8250,Brežice,Posavska
8250 BREŽICE,ČERNELČEVA CESTA 15,45.90849,15.59354,Černelčeva cesta,,15,,Brežice,,Brežice,Brežice,8250,Brežice,Posavska
8250 BREŽICE,ČERNELČEVA CESTA 8,45.90811,15.59415,Černelčeva cesta,,8,,Brežice,,Brežice,Brežice,8250,Brežice,Posavska
8253 ARTIČE,DOLENJA VAS PRI ARTIČAH 8 A,45.94809,15.55853,Dolenja vas pri Artičah,,8,A,Dolenja vas pri Artičah,,Artiče,Brežice,8253,Artiče,Posavska
8259 BIZELJSKO,BIZELJSKA CESTA 104,46.02057,15.69163,Bizeljska cesta,,104,,Bizeljsko,,Bizeljsko,Brežice,8259,Bizeljsko,Posavska
8263 CERKLJE OB KRKI,BORŠT 19,45.88523,15.54740,Boršt,,19,,Boršt,,Cerklje ob Krki,Brežice,8263,Cerklje ob Krki,Posavska
8263 CERKLJE OB KRKI,ŽUPEČA VAS 9,45.88535,15.52834,Župeča vas,,9,,Župeča vas,,Cerklje ob Krki,Brežice,8263,Cerklje ob Krki,Posavska
8270 KRŠKO,AŠKERČEVA ULICA 2,45.95502,15.49720,Aškerčeva ulica,,2,,Krško,,Krško,Krško,8270,Krško,Posavska
8270 KRŠKO,CANKARJEVA ULICA 3 A,45.95739,15.49688,Cankarjeva ulica,,3,A,Krško,,Krško,Krško,8270,Krško,Posavska
8270 KRŠKO,CESTA 4. JULIJA 34,45.95916,15.49160,Cesta 4. julija,,34,,Krško,,Krško,Krško,8270,Krško,Posavska
8270 KRŠKO,CESTA 4. JULIJA 46,45.95749,15.49369,Cesta 4. julija,,46,,Krško,,Krško,Krško,8270,Krško,Posavska
8270 KRŠKO,CESTA 4. JULIJA 84 A,45.95414,15.49891,Cesta 4. julija,,84,A,Krško,,Krško,Krško,8270,Krško,Posavska
8270 KRŠKO,CESTA KRŠKIH ŽRTEV 112,45.95115,15.48664,Cesta krških žrtev,,112,,Krško,,Krško,Krško,8270,Krško,Posavska
8270 KRŠKO,CESTA KRŠKIH ŽRTEV 132 C,45.94307,15.48349,Cesta krških žrtev,,132,C,Krško,,Krško,Krško,8270,Krško,Posavska
8270 KRŠKO,CESTA KRŠKIH ŽRTEV 43,45.96424,15.48640,Cesta krških žrtev,,43,,Krško,,Krško,Krško,8270,Krško,Posavska
8270 KRŠKO,KIDRIČEVA ULICA 12,45.95842,15.50265,Kidričeva ulica,,12,,Krško,,Krško,Krško,8270,Krško,Posavska
8270 KRŠKO,KOVINARSKA ULICA 13,45.94392,15.48464,Kovinarska ulica,,13,,Krško,,Krško,Krško,8270,Krško,Posavska
8270 KRŠKO,POT NA POLŠCO 21,45.96386,15.49039,Pot na Polšco,,21,,Krško,,Krško,Krško,8270,Krško,Posavska
8270 KRŠKO,RAVNI 16,45.94639,15.41490,Ravni,,16,,Ravni,,Veliki Trn,Krško,8270,Krško,Posavska
8270 KRŠKO,SREMIČ 15,45.97672,15.48952,Sremič,,15,,Sremič,,Krško,Krško,8270,Krško,Posavska
8270 KRŠKO,ULICA ILIJE GREGORIČA 18 A,45.95890,15.50201,Ulica Ilije Gregoriča,,18,A,Krško,,Krško,Krško,8270,Krško,Posavska
8270 KRŠKO,ŠOLSKA ULICA 1,45.95989,15.49411,Šolska ulica,,1,,Krško,,Krško,Krško,8270,Krško,Posavska
8272 ZDOLE,PLETERJE 24,45.97319,15.53447,Pleterje,,24,,Pleterje,,Zdole,Krško,8272,Zdole,Posavska
8273 LESKOVEC PRI KRŠKEM,ULICA STANETA ŽAGARJA 4,45.94179,15.47753,Ulica Staneta Žagarja,,4,,Leskovec pri Krškem,,Leskovec pri Krškem,Krško,8273,Leskovec pri Krškem,Posavska
8273 LESKOVEC PRI KRŠKEM,VELIKI PODLOG 20,45.89843,15.45553,Veliki Podlog,,20,,Veliki Podlog,,Veliki Podlog,Krško,8273,Leskovec pri Krškem,Posavska
8274 RAKA,DOLGA RAKA 19,45.91758,15.38025,Dolga Raka,,19,,Dolga Raka,,Raka,Krško,8274,Raka,Posavska
8275 ŠKOCJAN,ŠKOCJAN 67,45.90725,15.28993,Škocjan,,67,,Škocjan,,,Škocjan,8275,Škocjan,Jugovzhodna Slovenija
8280 BRESTANICA,LIKARJEVA ULICA 12,46.00108,15.48032,Likarjeva ulica,,12,,Brestanica,,Brestanica,Krško,8280,Brestanica,Posavska
8290 SEVNICA,DROŽANJSKA CESTA 68,46.01676,15.31358,Drožanjska cesta,,68,,Sevnica,,Sevnica,Sevnica,8290,Sevnica,Posavska
8290 SEVNICA,DROŽANJSKA CESTA 90,46.01346,15.31147,Drožanjska cesta,,90,,Sevnica,,Sevnica,Sevnica,8290,Sevnica,Posavska
8290 SEVNICA,TRG SVOBODE 14,46.01060,15.30248,Trg svobode,,14,,Sevnica,,Sevnica,Sevnica,8290,Sevnica,Posavska
8290 SEVNICA,TRG SVOBODE 9,46.00977,15.30294,Trg svobode,,9,,Sevnica,,Sevnica,Sevnica,8290,Sevnica,Posavska
8293 STUDENEC,ARTO 13,45.99170,15.35551,Arto,,13,,Arto,,Studenec,Sevnica,8293,Studenec,Posavska
8293 STUDENEC,PONIKVE PRI STUDENCU 24,45.98305,15.35806,Ponikve pri Studencu,,24,,Ponikve pri Studencu,,Studenec,Sevnica,8293,Studenec,Posavska
8294 BOŠTANJ,LUKOVEC 1 C,45.99940,15.30360,Lukovec,,1,C,Lukovec,,Boštanj,Sevnica,8294,Boštanj,Posavska
8296 KRMELJ,KRMELJ 53,45.98651,15.18517,Krmelj,,53,,Krmelj,,Krmelj,Sevnica,8296,Krmelj,Posavska
8310 ŠENTJERNEJ,PRVOMAJSKA CESTA 5,45.84414,15.33949,Prvomajska cesta,,5,,Šentjernej,,Šentjernej,Šentjernej,8310,Šentjernej,Jugovzhodna Slovenija
8310 ŠENTJERNEJ,TRUBARJEVA CESTA 5,45.84409,15.33708,Trubarjeva cesta,,5,,Šentjernej,,Šentjernej,Šentjernej,8310,Šentjernej,Jugovzhodna Slovenija
8311 KOSTANJEVICA NA KRKI,LJUBLJANSKA CESTA 16,45.84460,15.41834,Ljubljanska cesta,,16,,Kostanjevica na Krki,,,Kostanjevica na Krki,8311,Kostanjevica na Krki,Posavska
8311 KOSTANJEVICA NA KRKI,ČRNEČA VAS 6,45.82842,15.45766,Črneča vas,,6,,Črneča vas,,,Kostanjevica na Krki,8311,Kostanjevica na Krki,Posavska
8330 METLIKA,CESTA BRATSTVA IN ENOTNOSTI 71,45.64848,15.31814,Cesta bratstva in enotnosti,,71,,Metlika,,Mestna skupnost Metlika,Metlika,8330,Metlika,Jugovzhodna Slovenija
8330 METLIKA,MESTNI TRG 16,45.64980,15.31825,Mestni trg,,16,,Metlika,,Mestna skupnost Metlika,Metlika,8330,Metlika,Jugovzhodna Slovenija
8340 ČRNOMELJ,BEVKOVA ULICA 2,45.56242,15.19991,Bevkova ulica,,2,,Črnomelj,,Črnomelj,Črnomelj,8340,Črnomelj,Jugovzhodna Slovenija
8340 ČRNOMELJ,DELAVSKA POT 4,45.57549,15.18753,Delavska pot,,4,,Črnomelj,,Črnomelj,Črnomelj,8340,Črnomelj,Jugovzhodna Slovenija
8340 ČRNOMELJ,MAJER 7,45.56976,15.19458,Majer,,7,,Črnomelj,,Črnomelj,Črnomelj,8340,Črnomelj,Jugovzhodna Slovenija
8340 ČRNOMELJ,ULICA 21. OKTOBRA 19 C,45.57986,15.18525,Ulica 21. oktobra,,19,C,Črnomelj,,Črnomelj,Črnomelj,8340,Črnomelj,Jugovzhodna Slovenija
8340 ČRNOMELJ,ULICA NA PRISTAVAH 1,45.57823,15.19245,Ulica na Pristavah,,1,,Črnomelj,,Črnomelj,Črnomelj,8340,Črnomelj,Jugovzhodna Slovenija
8340 ČRNOMELJ,ULICA OTONA ŽUPANČIČA 3,45.57421,15.19108,Ulica Otona Župančiča,,3,,Črnomelj,,Črnomelj,Črnomelj,8340,Črnomelj,Jugovzhodna Slovenija
8340 ČRNOMELJ,ZADRUŽNA CESTA 33,45.57914,15.19513,Zadružna cesta,,33,,Črnomelj,,Črnomelj,Črnomelj,8340,Črnomelj,Jugovzhodna Slovenija
8350 DOLENJSKE TOPLICE,KELTSKA ULICA 9,45.75288,15.05415,Keltska ulica,,9,,Dolenjske Toplice,,,Dolenjske Toplice,8350,Dolenjske Toplice,Jugovzhodna Slovenija
8350 DOLENJSKE TOPLICE,ULICA MAKSA HENIGMANA 57,45.75493,15.06221,Ulica Maksa Henigmana,,57,,Dolenjske Toplice,,,Dolenjske Toplice,8350,Dolenjske Toplice,Jugovzhodna Slovenija
8351 STRAŽA PRI NOVEM MESTU,HRUŠEVEC 55,45.78935,15.09697,Hruševec,,55,,Straža,,,Straža,8351,Straža pri Novem mestu,Jugovzhodna Slovenija
8351 STRAŽA PRI NOVEM MESTU,ULICA TALCEV 17,45.78181,15.07112,Ulica talcev,,17,,Straža,,,Straža,8351,Straža pri Novem mestu,Jugovzhodna Slovenija
8351 STRAŽA PRI NOVEM MESTU,ULICA TALCEV 26,45.78217,15.07071,Ulica talcev,,26,,Straža,,,Straža,8351,Straža pri Novem mestu,Jugovzhodna Slovenija
8360 ŽUŽEMBERK,GRAJSKI TRG 41,45.83109,14.93110,Grajski trg,,41,,Žužemberk,,,Žužemberk,8360,Žužemberk,Jugovzhodna Slovenija
8360 ŽUŽEMBERK,JURČIČEVA ULICA 32,45.83205,14.93017,Jurčičeva ulica,,32,,Žužemberk,,,Žužemberk,8360,Žužemberk,Jugovzhodna Slovenija
9000 MURSKA SOBOTA,CANKARJEVA ULICA 113,46.65595,16.15589,Cankarjeva ulica,,113,,Murska Sobota,,Turopolje,Murska Sobota,9000,Murska Sobota,Pomurska
9000 MURSKA SOBOTA,CVETKOVA ULICA 10,46.66089,16.16751,Cvetkova ulica,,10,,Murska Sobota,,Center,Murska Sobota,9000,Murska Sobota,Pomurska
9000 MURSKA SOBOTA,CVETKOVA ULICA 12,46.66107,16.16751,Cvetkova ulica,,12,,Murska Sobota,,Center,Murska Sobota,9000,Murska Sobota,Pomurska
9000 MURSKA SOBOTA,CVETKOVA ULICA 34,46.66314,16.16803,Cvetkova ulica,,34,,Murska Sobota,,Center,Murska Sobota,9000,Murska Sobota,Pomurska
9000 MURSKA SOBOTA,DOLGA ULICA 82,46.66544,16.14308,Dolga ulica,,82,,Černelavci,,KS ČERNELAVCI,Murska Sobota,9000,Murska Sobota,Pomurska
9000 MURSKA SOBOTA,GRAJSKA ULICA 24,46.66402,16.16066,Grajska ulica,,24,,Murska Sobota,,Ledava,Murska Sobota,9000,Murska Sobota,Pomurska
9000 MURSKA SOBOTA,GREGORČIČEVA ULICA 27 A,46.66099,16.16877,Gregorčičeva ulica,,27,A,Murska Sobota,,Center,Murska Sobota,9000,Murska Sobota,Pomurska
9000 MURSKA SOBOTA,KOCLJEVA ULICA 10,46.66002,16.16316,Kocljeva ulica,,10,,Murska Sobota,,Center,Murska Sobota,9000,Murska Sobota,Pomurska
9000 MURSKA SOBOTA,KOCLJEVA ULICA 2,46.66070,16.16317,Kocljeva ulica,,2,,Murska Sobota,,Center,Murska Sobota,9000,Murska Sobota,Pomurska
9000 MURSKA SOBOTA,KOCLJEVA ULICA 9,46.65945,16.16360,Kocljeva ulica,,9,,Murska Sobota,,Center,Murska Sobota,9000,Murska Sobota,Pomurska
9000 MURSKA SOBOTA,LENDAVSKA ULICA 16,46.66408,16.16819,Lendavska ulica,,16,,Murska Sobota,,Center,Murska Sobota,9000,Murska Sobota,Pomurska
9000 MURSKA SOBOTA,LENDAVSKA ULICA 17 A,46.66438,16.16739,Lendavska ulica,,17,A,Murska Sobota,,Ledava,Murska Sobota,9000,Murska Sobota,Pomurska
9000 MURSKA SOBOTA,LENDAVSKA ULICA 18,46.66410,16.16828,Lendavska ulica,,18,,Murska Sobota,,Center,Murska Sobota,9000,Murska Sobota,Pomurska
9000 MURSKA SOBOTA,MLADINSKA ULICA 10,46.61794,16.14409,Mladinska ulica,,10,,Bakovci,,Bakovci,Murska Sobota,9000,Murska Sobota,Pomurska
9000 MURSKA SOBOTA,PLESE 2,46.65833,16.17610,Plese,,2,,Murska Sobota,,Ledava,Murska Sobota,9000,Murska Sobota,Pomurska
9000 MURSKA SOBOTA,TRSTENJAKOVA ULICA 34,46.65416,16.16627,Trstenjakova ulica,,34,,Murska Sobota,,Partizan,Murska Sobota,9000,Murska Sobota,Pomurska
9000 MURSKA SOBOTA,TRSTENJAKOVA ULICA 69,46.65477,16.16795,Trstenjakova ulica,,69,,Murska Sobota,,Partizan,Murska Sobota,9000,Murska Sobota,Pomurska
9000 MURSKA SOBOTA,ULICA ARHITEKTA NOVAKA 13,46.65940,16.16937,Ulica arhitekta Novaka,,13,,Murska Sobota,,Center,Murska Sobota,9000,Murska Sobota,Pomurska
9000 MURSKA SOBOTA,ULICA ARHITEKTA NOVAKA 9,46.65980,16.16782,Ulica arhitekta Novaka,,9,,Murska Sobota,,Center,Murska Sobota,9000,Murska Sobota,Pomurska
9000 MURSKA SOBOTA,ULICA DR. VRBNJAKA 1,46.65007,16.19052,Ulica dr. Vrbnjaka,,1,,Rakičan,,KS RAKIČAN,Murska Sobota,9000,Murska Sobota,Pomurska
9000 MURSKA SOBOTA,ULICA DR. VRBNJAKA 6,46.65013,16.18727,Ulica dr. Vrbnjaka,,6,,Rakičan,,KS RAKIČAN,Murska Sobota,9000,Murska Sobota,Pomurska
9000 MURSKA SOBOTA,ULICA GENERALA MAISTRA 23,46.65371,16.15626,Ulica generala Maistra,,23,,Murska Sobota,,Turopolje,Murska Sobota,9000,Murska Sobota,Pomurska
9000 MURSKA SOBOTA,ULICA PREKMURSKE ČETE 12,46.65297,16.15597,Ulica Prekmurske čete,,12,,Murska Sobota,,Turopolje,Murska Sobota,9000,Murska Sobota,Pomurska
9000 MURSKA SOBOTA,ULICA STANETA ROZMANA 11 A,46.66162,16.16734,Ulica Staneta Rozmana,,11,A,Murska Sobota,,Center,Murska Sobota,9000,Murska Sobota,Pomurska
9000 MURSKA SOBOTA,ULICA STANETA ROZMANA 16,46.66145,16.16862,Ulica Staneta Rozmana,,16,,Murska Sobota,,Center,Murska Sobota,9000,Murska Sobota,Pomurska
9000 MURSKA SOBOTA,ULICA ZORANA VELNARJA 2,46.65481,16.15333,Ulica Zorana Velnarja,,2,,Murska Sobota,,Turopolje,Murska Sobota,9000,Murska Sobota,Pomurska
9201 PUCONCI,PUCONCI 251,46.69401,16.17399,Puconci,,251,,Puconci,,Puconci,Puconci,9201,Puconci,Pomurska
9201 PUCONCI,PUCONCI 79,46.70469,16.15443,Puconci,,79,,Puconci,,Puconci,Puconci,9201,Puconci,Pomurska
9203 PETROVCI,GORNJI PETROVCI 33 A,46.80527,16.21811,Gornji Petrovci,,33,A,Gornji Petrovci,,Gornji Petrovci,Gornji Petrovci,9203,Petrovci,Pomurska
9220 LENDAVA - LENDVA,KIDRIČEVA ULICA 34,46.55821,16.45692,Kidričeva ulica,Kidrič utca,34,,Lendava,Lendva,Lendava,Lendava,9220,Lendava - Lendva,Pomurska
9220 LENDAVA - LENDVA,MLINSKA ULICA 6,46.56183,16.45256,Mlinska ulica,Malom utca,6,,Lendava,Lendva,Lendava,Lendava,9220,Lendava - Lendva,Pomurska
9220 LENDAVA - LENDVA,MLINSKA ULICA 6 E,46.56214,16.45301,Mlinska ulica,Malom utca,6,E,Lendava,Lendva,Lendava,Lendava,9220,Lendava - Lendva,Pomurska
9220 LENDAVA - LENDVA,MLINSKA ULICA 7,46.56302,16.45148,Mlinska ulica,Malom utca,7,,Lendava,Lendva,Lendava,Lendava,9220,Lendava - Lendva,Pomurska
9220 LENDAVA - LENDVA,SLOMŠKOVO NASELJE 7,46.56780,16.44899,Slomškovo naselje,Slomšek - lakótelep,7,,Lendava,Lendva,Lendava,Lendava,9220,Lendava - Lendva,Pomurska
9220 LENDAVA - LENDVA,TRIMLINI 56 A,46.54414,16.46532,Trimlini,Hármasmalom,56,A,Trimlini,Hármasmalom,Lendava,Lendava,9220,Lendava - Lendva,Pomurska
9221 MARTJANCI,MARTJANCI 29 A,46.68523,16.19015,Martjanci,,29,A,Martjanci,,Martjanci,Moravske Toplice,9221,Martjanci,Pomurska
9221 MARTJANCI,MARTJANCI 35,46.68503,16.19115,Martjanci,,35,,Martjanci,,Martjanci,Moravske Toplice,9221,Martjanci,Pomurska
9223 DOBROVNIK - DOBRONAK,DOBROVNIK 12 A,46.65094,16.35190,Dobrovnik,Dobronak,12,A,Dobrovnik,Dobronak,KS DOBROVNIK,Dobrovnik,9223,Dobrovnik - Dobronak,Pomurska
9226 MORAVSKE TOPLICE,KRANJČEVA ULICA 14 A,46.68480,16.21961,Kranjčeva ulica,,14,A,Moravske Toplice,,Moravske Toplice,Moravske Toplice,9226,Moravske Toplice,Pomurska
9226 MORAVSKE TOPLICE,ULICA OB IGRIŠČU 3,46.68736,16.21683,Ulica ob igrišču,,3,,Moravske Toplice,,Moravske Toplice,Moravske Toplice,9226,Moravske Toplice,Pomurska
9231 BELTINCI,BRATONCI 137,46.61781,16.21412,Bratonci,,137,,Bratonci,,Bratonci,Beltinci,9231,Beltinci,Pomurska
9231 BELTINCI,KOCLJEVO NASELJE 9,46.60880,16.23201,Kocljevo naselje,,9,,Beltinci,,Beltinci,Beltinci,9231,Beltinci,Pomurska
9231 BELTINCI,MLADINSKA ULICA 4,46.60630,16.23580,Mladinska ulica,,4,,Beltinci,,Beltinci,Beltinci,9231,Beltinci,Pomurska
9231 BELTINCI,PANONSKA ULICA 35 B,46.60893,16.23851,Panonska ulica,,35,B,Beltinci,,Beltinci,Beltinci,9231,Beltinci,Pomurska
9240 LJUTOMER,CESTA I. SLOVENSKEGA TABORA 2,46.52172,16.19326,Cesta I. slovenskega tabora,,2,,Ljutomer,,Ljutomer,Ljutomer,9240,Ljutomer,Pomurska
9240 LJUTOMER,CESTA I. SLOVENSKEGA TABORA 5,46.52089,16.19360,Cesta I. slovenskega tabora,,5,,Ljutomer,,Ljutomer,Ljutomer,9240,Ljutomer,Pomurska
9241 VERŽEJ,MAISTROVA ULICA 7,46.58358,16.16056,Maistrova ulica,,7,,Veržej,,,Veržej,9241,Veržej,Pomurska
9242 KRIŽEVCI PRI LJUTOMERU,KRIŽEVCI PRI LJUTOMERU 1 B,46.56093,16.14015,Križevci pri Ljutomeru,,1,B,Križevci pri Ljutomeru,,,Križevci,9242,Križevci pri Ljutomeru,Pomurska
9242 KRIŽEVCI PRI LJUTOMERU,KRIŽEVCI PRI LJUTOMERU 3 A,46.56265,16.14110,Križevci pri Ljutomeru,,3,A,Križevci pri Ljutomeru,,,Križevci,9242,Križevci pri Ljutomeru,Pomurska
9242 KRIŽEVCI PRI LJUTOMERU,KRIŽEVCI PRI LJUTOMERU 34 A,46.56666,16.13705,Križevci pri Ljutomeru,,34,A,Križevci pri Ljutomeru,,,Križevci,9242,Križevci pri Ljutomeru,Pomurska
9242 KRIŽEVCI PRI LJUTOMERU,LUKAVCI 64,46.53721,16.14581,Lukavci,,64,,Lukavci,,,Križevci,9242,Križevci pri Ljutomeru,Pomurska
9242 KRIŽEVCI PRI LJUTOMERU,LUKAVCI 9,46.54260,16.15051,Lukavci,,9,,Lukavci,,,Križevci,9242,Križevci pri Ljutomeru,Pomurska
9246 RAZKRIŽJE,ŠAFARSKO 24 D,46.52012,16.28685,Šafarsko,,24,D,Šafarsko,,,Razkrižje,9246,Razkrižje,Pomurska
9250 GORNJA RADGONA,CANKARJEVA CESTA 2,46.67295,15.99299,Cankarjeva cesta,,2,,Gornja Radgona,,KS GORNJA RADGONA,Gornja Radgona,9250,Gornja Radgona,Pomurska
9250 GORNJA RADGONA,PARTIZANSKA CESTA 40,46.67340,15.99302,Partizanska cesta,,40,,Gornja Radgona,,KS GORNJA RADGONA,Gornja Radgona,9250,Gornja Radgona,Pomurska
9250 GORNJA RADGONA,POLICE 96,46.66371,15.96145,Police,,96,,Police,,KS ČREŠNJEVCI-ZBIGOVCI,Gornja Radgona,9250,Gornja Radgona,Pomurska
9250 GORNJA RADGONA,TRATE 40,46.67787,15.99940,Trate,,40,,Gornja Radgona,,KS GORNJA RADGONA,Gornja Radgona,9250,Gornja Radgona,Pomurska
9251 TIŠINA,TIŠINA 30,46.65356,16.08631,Tišina,,30,,Tišina,,Tišina,Tišina,9251,Tišina,Pomurska
9252 RADENCI,GUBČEVA CESTA 22,46.63940,16.04156,Gubčeva cesta,,22,,Radenci,,KS RADENCI,Radenci,9252,Radenci,Pomurska
9252 RADENCI,LJUTOMERSKA CESTA 9,46.64039,16.04460,Ljutomerska cesta,,9,,Radenci,,KS RADENCI,Radenci,9252,Radenci,Pomurska
9252 RADENCI,MLADINSKA ULICA 18,46.64462,16.03732,Mladinska ulica,,18,,Radenci,,KS RADENCI,Radenci,9252,Radenci,Pomurska
9252 RADENCI,PANONSKA CESTA 15,46.64352,16.03964,Panonska cesta,,15,,Radenci,,KS RADENCI,Radenci,9252,Radenci,Pomurska
9252 RADENCI,PANONSKA CESTA 17,46.64428,16.03994,Panonska cesta,,17,,Radenci,,KS RADENCI,Radenci,9252,Radenci,Pomurska
9252 RADENCI,PRISOJNA CESTA 4 A,46.64084,16.03900,Prisojna cesta,,4,A,Radenci,,KS RADENCI,Radenci,9252,Radenci,Pomurska
9252 RADENCI,RADGONSKA CESTA 2,46.64125,16.04391,Radgonska cesta,,2,,Radenci,,KS RADENCI,Radenci,9252,Radenci,Pomurska
9261 CANKOVA,CANKOVA 65 A,46.71884,16.01822,Cankova,,65,A,Cankova,,,Cankova,9261,Cankova,Pomurska
9261 CANKOVA,CANKOVA 65 B,46.71858,16.01850,Cankova,,65,B,Cankova,,,Cankova,9261,Cankova,Pomurska
9262 ROGAŠOVCI,ROGAŠOVCI 14 A,46.80513,16.03630,Rogašovci,,14,A,Rogašovci,,Rogašovci,Rogašovci,9262,Rogašovci,Pomurska
9263 KUZMA,KUZMA 60 L,46.83599,16.07729,Kuzma,,60,L,Kuzma,,Kuzma,Kuzma,9263,Kuzma,Pomurska
9264 GRAD,GRAD 172 A,46.80244,16.09112,Grad,,172,A,Grad,,,Grad,9264,Grad,Pomurska
9264 GRAD,GRAD 187,46.80149,16.09203,Grad,,187,,Grad,,,Grad,9264,Grad,Pomurska
